<?xml version="1.0" encoding="UTF-8"?>
<gpx xmlns="http://www.topografix.com/GPX/1/1" xmlns:xsi="http://www.w3.org/2001/XMLSchema-instance" xsi:schemaLocation="http://www.topografix.com/GPX/1/1 http://www.topografix.com/GPX/1/1/gpx.xsd" version="1.1" creator="gpx.py -- https://github.com/tkrajina/gpxpy">
  <metadata>
    <name>Boeblingen_9631d1d5</name>
  </metadata>
  <trk>
    <name>Boeblingen_9631d1d5</name>
    <trkseg>
      <trkpt lat="48.725674" lon="8.963544">
        <ele>470.8</ele>
        <time>2000-01-01T00:00:00Z</time>
      </trkpt>
      <trkpt lat="48.725143" lon="8.965005">
        <ele>469.9</ele>
        <time>2000-01-01T00:00:57Z</time>
      </trkpt>
      <trkpt lat="48.722835" lon="8.964902">
        <ele>467.2</ele>
        <time>2000-01-01T00:01:41Z</time>
      </trkpt>
      <trkpt lat="48.718777" lon="8.968603">
        <ele>454.4</ele>
        <time>2000-01-01T00:03:04Z</time>
      </trkpt>
      <trkpt lat="48.716389" lon="8.968409">
        <ele>453.3</ele>
        <time>2000-01-01T00:04:28Z</time>
      </trkpt>
      <trkpt lat="48.715496" lon="8.970473">
        <ele>455.7</ele>
        <time>2000-01-01T00:05:16Z</time>
      </trkpt>
      <trkpt lat="48.70866" lon="8.969745">
        <ele>448.8</ele>
        <time>2000-01-01T00:07:31Z</time>
      </trkpt>
      <trkpt lat="48.704624" lon="8.971049">
        <ele>441.8</ele>
        <time>2000-01-01T00:08:48Z</time>
      </trkpt>
      <trkpt lat="48.704204" lon="8.97183">
        <ele>442.5</ele>
        <time>2000-01-01T00:09:04Z</time>
      </trkpt>
      <trkpt lat="48.703503" lon="8.971418">
        <ele>443.1</ele>
        <time>2000-01-01T00:09:17Z</time>
      </trkpt>
      <trkpt lat="48.695351" lon="8.972667">
        <ele>437.3</ele>
        <time>2000-01-01T00:11:36Z</time>
      </trkpt>
      <trkpt lat="48.696373" lon="8.977869">
        <ele>435.7</ele>
        <time>2000-01-01T00:12:50Z</time>
      </trkpt>
      <trkpt lat="48.694401" lon="8.978373">
        <ele>432.7</ele>
        <time>2000-01-01T00:13:27Z</time>
      </trkpt>
      <trkpt lat="48.693905" lon="8.977654">
        <ele>431.5</ele>
        <time>2000-01-01T00:13:43Z</time>
      </trkpt>
      <trkpt lat="48.693596" lon="8.977903">
        <ele>430.6</ele>
        <time>2000-01-01T00:13:51Z</time>
      </trkpt>
      <trkpt lat="48.69384" lon="8.979156">
        <ele>428.3</ele>
        <time>2000-01-01T00:15:17Z</time>
      </trkpt>
      <trkpt lat="48.691975" lon="8.979504">
        <ele>424.3</ele>
        <time>2000-01-01T00:15:57Z</time>
      </trkpt>
      <trkpt lat="48.688682" lon="8.979179">
        <ele>431.1</ele>
        <time>2000-01-01T00:17:09Z</time>
      </trkpt>
      <trkpt lat="48.686928" lon="8.987216">
        <ele>429.6</ele>
        <time>2000-01-01T00:19:54Z</time>
      </trkpt>
      <trkpt lat="48.6856" lon="8.986518">
        <ele>426.6</ele>
        <time>2000-01-01T00:20:24Z</time>
      </trkpt>
      <trkpt lat="48.682758" lon="8.9883">
        <ele>429</ele>
        <time>2000-01-01T00:22:15Z</time>
      </trkpt>
      <trkpt lat="48.684334" lon="8.995598">
        <ele>429.8</ele>
        <time>2000-01-01T00:24:09Z</time>
      </trkpt>
    </trkseg>
    <trkseg>
      <trkpt lat="48.684223" lon="8.995819">
        <ele>435.3</ele>
        <time>2000-01-01T00:00:00Z</time>
      </trkpt>
      <trkpt lat="48.684597" lon="8.995491">
        <ele>435.3</ele>
        <time>2000-01-01T00:00:13Z</time>
      </trkpt>
      <trkpt lat="48.685371" lon="8.997208">
        <ele>438</ele>
        <time>2000-01-01T00:01:17Z</time>
      </trkpt>
      <trkpt lat="48.684173" lon="8.999868">
        <ele>440.9</ele>
        <time>2000-01-01T00:03:05Z</time>
      </trkpt>
      <trkpt lat="48.687237" lon="9.005546">
        <ele>436.4</ele>
        <time>2000-01-01T00:04:48Z</time>
      </trkpt>
    </trkseg>
    <trkseg>
      <trkpt lat="48.687351" lon="9.005492">
        <ele>436</ele>
        <time>2000-01-01T00:00:00Z</time>
      </trkpt>
      <trkpt lat="48.690189" lon="9.009689">
        <ele>440.8</ele>
        <time>2000-01-01T00:02:49Z</time>
      </trkpt>
      <trkpt lat="48.693222" lon="9.010078">
        <ele>437.2</ele>
        <time>2000-01-01T00:03:39Z</time>
      </trkpt>
      <trkpt lat="48.699757" lon="9.00677">
        <ele>434.3</ele>
        <time>2000-01-01T00:06:21Z</time>
      </trkpt>
      <trkpt lat="48.702877" lon="9.00279">
        <ele>433.3</ele>
        <time>2000-01-01T00:08:59Z</time>
      </trkpt>
      <trkpt lat="48.707012" lon="9.002037">
        <ele>438.4</ele>
        <time>2000-01-01T00:11:44Z</time>
      </trkpt>
      <trkpt lat="48.707416" lon="8.992432">
        <ele>444.1</ele>
        <time>2000-01-01T00:16:32Z</time>
      </trkpt>
      <trkpt lat="48.709595" lon="8.989759">
        <ele>441</ele>
        <time>2000-01-01T00:17:23Z</time>
      </trkpt>
      <trkpt lat="48.712799" lon="8.977164">
        <ele>443.3</ele>
        <time>2000-01-01T00:20:14Z</time>
      </trkpt>
      <trkpt lat="48.718834" lon="8.970179">
        <ele>444.9</ele>
        <time>2000-01-01T00:22:46Z</time>
      </trkpt>
      <trkpt lat="48.718952" lon="8.968407">
        <ele>446.6</ele>
        <time>2000-01-01T00:23:17Z</time>
      </trkpt>
      <trkpt lat="48.72279" lon="8.964959">
        <ele>458.9</ele>
        <time>2000-01-01T00:24:48Z</time>
      </trkpt>
      <trkpt lat="48.72522" lon="8.965004">
        <ele>459.8</ele>
        <time>2000-01-01T00:25:36Z</time>
      </trkpt>
      <trkpt lat="48.725628" lon="8.963502">
        <ele>459.8</ele>
        <time>2000-01-01T00:26:37Z</time>
      </trkpt>
    </trkseg>
  </trk>
</gpx>