<?xml version="1.0" encoding="UTF-8"?>
<gpx xmlns="http://www.topografix.com/GPX/1/1" xmlns:xsi="http://www.w3.org/2001/XMLSchema-instance" xsi:schemaLocation="http://www.topografix.com/GPX/1/1 http://www.topografix.com/GPX/1/1/gpx.xsd" version="1.1" creator="gpx.py -- https://github.com/tkrajina/gpxpy">
  <metadata>
    <name>Boeblingen_8aa67c9f</name>
  </metadata>
  <trk>
    <name>Boeblingen_8aa67c9f</name>
    <trkseg>
      <trkpt lat="48.725635" lon="8.963428">
        <ele>470.2</ele>
        <time>2000-01-01T00:00:00Z</time>
      </trkpt>
      <trkpt lat="48.725197" lon="8.964977">
        <ele>469.2</ele>
        <time>2000-01-01T00:00:50Z</time>
      </trkpt>
      <trkpt lat="48.722793" lon="8.964938">
        <ele>467.2</ele>
        <time>2000-01-01T00:01:35Z</time>
      </trkpt>
      <trkpt lat="48.718948" lon="8.968416">
        <ele>455.7</ele>
        <time>2000-01-01T00:02:51Z</time>
      </trkpt>
      <trkpt lat="48.717876" lon="8.970539">
        <ele>452.5</ele>
        <time>2000-01-01T00:03:29Z</time>
      </trkpt>
      <trkpt lat="48.713669" lon="8.974523">
        <ele>450.3</ele>
        <time>2000-01-01T00:04:56Z</time>
      </trkpt>
      <trkpt lat="48.711971" lon="8.977205">
        <ele>449.3</ele>
        <time>2000-01-01T00:05:39Z</time>
      </trkpt>
      <trkpt lat="48.710602" lon="8.980251">
        <ele>448.8</ele>
        <time>2000-01-01T00:06:27Z</time>
      </trkpt>
      <trkpt lat="48.708374" lon="8.987486">
        <ele>445</ele>
        <time>2000-01-01T00:08:19Z</time>
      </trkpt>
      <trkpt lat="48.707348" lon="8.991516">
        <ele>443.6</ele>
        <time>2000-01-01T00:09:13Z</time>
      </trkpt>
      <trkpt lat="48.707535" lon="8.993543">
        <ele>441.6</ele>
        <time>2000-01-01T00:09:44Z</time>
      </trkpt>
      <trkpt lat="48.706962" lon="8.997675">
        <ele>438.8</ele>
        <time>2000-01-01T00:10:41Z</time>
      </trkpt>
      <trkpt lat="48.706409" lon="8.998178">
        <ele>438.8</ele>
        <time>2000-01-01T00:11:06Z</time>
      </trkpt>
    </trkseg>
    <trkseg>
      <trkpt lat="48.706463" lon="8.998177">
        <ele>439.7</ele>
        <time>2000-01-01T00:00:00Z</time>
      </trkpt>
      <trkpt lat="48.70544" lon="8.99725">
        <ele>439.5</ele>
        <time>2000-01-01T00:01:12Z</time>
      </trkpt>
      <trkpt lat="48.705086" lon="8.999772">
        <ele>438.9</ele>
        <time>2000-01-01T00:01:46Z</time>
      </trkpt>
      <trkpt lat="48.704124" lon="8.999102">
        <ele>439.1</ele>
        <time>2000-01-01T00:02:24Z</time>
      </trkpt>
      <trkpt lat="48.702888" lon="9.002592">
        <ele>439.7</ele>
        <time>2000-01-01T00:03:22Z</time>
      </trkpt>
      <trkpt lat="48.699936" lon="9.005955">
        <ele>438.4</ele>
        <time>2000-01-01T00:04:36Z</time>
      </trkpt>
      <trkpt lat="48.698715" lon="9.003378">
        <ele>438</ele>
        <time>2000-01-01T00:05:10Z</time>
      </trkpt>
      <trkpt lat="48.699013" lon="9.002231">
        <ele>438.2</ele>
        <time>2000-01-01T00:05:27Z</time>
      </trkpt>
      <trkpt lat="48.699551" lon="9.002303">
        <ele>438.2</ele>
        <time>2000-01-01T00:06:11Z</time>
      </trkpt>
      <trkpt lat="48.699345" lon="9.001751">
        <ele>438.2</ele>
        <time>2000-01-01T00:06:27Z</time>
      </trkpt>
    </trkseg>
    <trkseg>
      <trkpt lat="48.699375" lon="9.002082">
        <ele>439.5</ele>
        <time>2000-01-01T00:00:00Z</time>
      </trkpt>
      <trkpt lat="48.698719" lon="9.003404">
        <ele>438.7</ele>
        <time>2000-01-01T00:02:12Z</time>
      </trkpt>
      <trkpt lat="48.699821" lon="9.005976">
        <ele>440.4</ele>
        <time>2000-01-01T00:03:29Z</time>
      </trkpt>
      <trkpt lat="48.702309" lon="9.003572">
        <ele>440.3</ele>
        <time>2000-01-01T00:06:06Z</time>
      </trkpt>
      <trkpt lat="48.704143" lon="8.998992">
        <ele>440.1</ele>
        <time>2000-01-01T00:07:49Z</time>
      </trkpt>
      <trkpt lat="48.705414" lon="8.999678">
        <ele>440.1</ele>
        <time>2000-01-01T00:09:23Z</time>
      </trkpt>
    </trkseg>
    <trkseg>
      <trkpt lat="48.705318" lon="8.999928">
        <ele>440.2</ele>
        <time>2000-01-01T00:00:00Z</time>
      </trkpt>
      <trkpt lat="48.704121" lon="8.999099">
        <ele>440.3</ele>
        <time>2000-01-01T00:01:31Z</time>
      </trkpt>
      <trkpt lat="48.702869" lon="9.002564">
        <ele>440.4</ele>
        <time>2000-01-01T00:02:33Z</time>
      </trkpt>
      <trkpt lat="48.699932" lon="9.005913">
        <ele>439.6</ele>
        <time>2000-01-01T00:03:46Z</time>
      </trkpt>
      <trkpt lat="48.698414" lon="9.002668">
        <ele>438.3</ele>
        <time>2000-01-01T00:04:35Z</time>
      </trkpt>
      <trkpt lat="48.696648" lon="9.001764">
        <ele>440.1</ele>
        <time>2000-01-01T00:05:10Z</time>
      </trkpt>
      <trkpt lat="48.693207" lon="9.001962">
        <ele>443.6</ele>
        <time>2000-01-01T00:07:01Z</time>
      </trkpt>
      <trkpt lat="48.692791" lon="9.003708">
        <ele>442.6</ele>
        <time>2000-01-01T00:07:23Z</time>
      </trkpt>
      <trkpt lat="48.692058" lon="9.00455">
        <ele>440.6</ele>
        <time>2000-01-01T00:08:10Z</time>
      </trkpt>
      <trkpt lat="48.691791" lon="9.003605">
        <ele>439</ele>
        <time>2000-01-01T00:08:23Z</time>
      </trkpt>
      <trkpt lat="48.68985" lon="9.001573">
        <ele>437.1</ele>
        <time>2000-01-01T00:09:12Z</time>
      </trkpt>
      <trkpt lat="48.688469" lon="8.994827">
        <ele>436.4</ele>
        <time>2000-01-01T00:10:40Z</time>
      </trkpt>
      <trkpt lat="48.686397" lon="8.99506">
        <ele>438.2</ele>
        <time>2000-01-01T00:11:31Z</time>
      </trkpt>
      <trkpt lat="48.685367" lon="8.997154">
        <ele>439.7</ele>
        <time>2000-01-01T00:13:02Z</time>
      </trkpt>
      <trkpt lat="48.684658" lon="8.995443">
        <ele>439.7</ele>
        <time>2000-01-01T00:13:30Z</time>
      </trkpt>
      <trkpt lat="48.684349" lon="8.995617">
        <ele>439.7</ele>
        <time>2000-01-01T00:13:43Z</time>
      </trkpt>
    </trkseg>
    <trkseg>
      <trkpt lat="48.68433" lon="8.995737">
        <ele>433</ele>
        <time>2000-01-01T00:00:00Z</time>
      </trkpt>
      <trkpt lat="48.684566" lon="8.995394">
        <ele>433</ele>
        <time>2000-01-01T00:00:13Z</time>
      </trkpt>
      <trkpt lat="48.680859" lon="8.981174">
        <ele>429.8</ele>
        <time>2000-01-01T00:03:53Z</time>
      </trkpt>
      <trkpt lat="48.683163" lon="8.97936">
        <ele>425.3</ele>
        <time>2000-01-01T00:04:50Z</time>
      </trkpt>
      <trkpt lat="48.681934" lon="8.974717">
        <ele>426.8</ele>
        <time>2000-01-01T00:05:50Z</time>
      </trkpt>
      <trkpt lat="48.681652" lon="8.97438">
        <ele>427.2</ele>
        <time>2000-01-01T00:05:58Z</time>
      </trkpt>
      <trkpt lat="48.677933" lon="8.976255">
        <ele>436</ele>
        <time>2000-01-01T00:07:20Z</time>
      </trkpt>
      <trkpt lat="48.676662" lon="8.971645">
        <ele>435.4</ele>
        <time>2000-01-01T00:08:18Z</time>
      </trkpt>
      <trkpt lat="48.680637" lon="8.966921">
        <ele>427.9</ele>
        <time>2000-01-01T00:11:31Z</time>
      </trkpt>
      <trkpt lat="48.683433" lon="8.96501">
        <ele>430.2</ele>
        <time>2000-01-01T00:12:31Z</time>
      </trkpt>
      <trkpt lat="48.687954" lon="8.963501">
        <ele>433.4</ele>
        <time>2000-01-01T00:14:04Z</time>
      </trkpt>
      <trkpt lat="48.689102" lon="8.963728">
        <ele>427.7</ele>
        <time>2000-01-01T00:14:56Z</time>
      </trkpt>
      <trkpt lat="48.689274" lon="8.964954">
        <ele>424</ele>
        <time>2000-01-01T00:15:11Z</time>
      </trkpt>
      <trkpt lat="48.691784" lon="8.964676">
        <ele>425.3</ele>
        <time>2000-01-01T00:16:11Z</time>
      </trkpt>
      <trkpt lat="48.695953" lon="8.965319">
        <ele>446.7</ele>
        <time>2000-01-01T00:17:47Z</time>
      </trkpt>
      <trkpt lat="48.696293" lon="8.966279">
        <ele>447.1</ele>
        <time>2000-01-01T00:18:04Z</time>
      </trkpt>
      <trkpt lat="48.69902" lon="8.965534">
        <ele>449.8</ele>
        <time>2000-01-01T00:19:03Z</time>
      </trkpt>
      <trkpt lat="48.699283" lon="8.967563">
        <ele>451.7</ele>
        <time>2000-01-01T00:19:34Z</time>
      </trkpt>
      <trkpt lat="48.70079" lon="8.969857">
        <ele>449.5</ele>
        <time>2000-01-01T00:21:32Z</time>
      </trkpt>
      <trkpt lat="48.700939" lon="8.971977">
        <ele>448.8</ele>
        <time>2000-01-01T00:22:00Z</time>
      </trkpt>
      <trkpt lat="48.703522" lon="8.97142">
        <ele>443.5</ele>
        <time>2000-01-01T00:22:40Z</time>
      </trkpt>
      <trkpt lat="48.704124" lon="8.971839">
        <ele>440.5</ele>
        <time>2000-01-01T00:22:50Z</time>
      </trkpt>
      <trkpt lat="48.70467" lon="8.971687">
        <ele>439.8</ele>
        <time>2000-01-01T00:23:01Z</time>
      </trkpt>
      <trkpt lat="48.704742" lon="8.971044">
        <ele>439.8</ele>
        <time>2000-01-01T00:23:09Z</time>
      </trkpt>
      <trkpt lat="48.70879" lon="8.969759">
        <ele>444.1</ele>
        <time>2000-01-01T00:24:31Z</time>
      </trkpt>
      <trkpt lat="48.715576" lon="8.97047">
        <ele>448</ele>
        <time>2000-01-01T00:26:48Z</time>
      </trkpt>
      <trkpt lat="48.716373" lon="8.968398">
        <ele>444.8</ele>
        <time>2000-01-01T00:27:36Z</time>
      </trkpt>
      <trkpt lat="48.718426" lon="8.968779">
        <ele>442.1</ele>
        <time>2000-01-01T00:28:22Z</time>
      </trkpt>
      <trkpt lat="48.723022" lon="8.964758">
        <ele>456.5</ele>
        <time>2000-01-01T00:30:42Z</time>
      </trkpt>
      <trkpt lat="48.725208" lon="8.965034">
        <ele>458</ele>
        <time>2000-01-01T00:31:34Z</time>
      </trkpt>
      <trkpt lat="48.725655" lon="8.963496">
        <ele>458</ele>
        <time>2000-01-01T00:32:35Z</time>
      </trkpt>
    </trkseg>
  </trk>
</gpx>