<?xml version="1.0" encoding="UTF-8"?>
<gpx xmlns="http://www.topografix.com/GPX/1/1" xmlns:xsi="http://www.w3.org/2001/XMLSchema-instance" xsi:schemaLocation="http://www.topografix.com/GPX/1/1 http://www.topografix.com/GPX/1/1/gpx.xsd" version="1.1" creator="gpx.py -- https://github.com/tkrajina/gpxpy">
  <metadata>
    <name>Boeblingen_e339046c</name>
  </metadata>
  <trk>
    <name>Boeblingen_e339046c</name>
    <trkseg>
      <trkpt lat="48.72533" lon="8.964459">
        <ele>448.6</ele>
        <time>2000-01-01T00:00:00Z</time>
      </trkpt>
      <trkpt lat="48.725086" lon="8.964929">
        <ele>448.6</ele>
        <time>2000-01-01T00:00:50Z</time>
      </trkpt>
      <trkpt lat="48.722427" lon="8.965129">
        <ele>463.6</ele>
        <time>2000-01-01T00:03:47Z</time>
      </trkpt>
      <trkpt lat="48.718902" lon="8.968472">
        <ele>451.6</ele>
        <time>2000-01-01T00:04:55Z</time>
      </trkpt>
      <trkpt lat="48.717506" lon="8.970954">
        <ele>448</ele>
        <time>2000-01-01T00:05:45Z</time>
      </trkpt>
      <trkpt lat="48.713459" lon="8.974782">
        <ele>446</ele>
        <time>2000-01-01T00:07:10Z</time>
      </trkpt>
      <trkpt lat="48.711109" lon="8.978908">
        <ele>445.5</ele>
        <time>2000-01-01T00:08:14Z</time>
      </trkpt>
      <trkpt lat="48.708694" lon="8.986369">
        <ele>442.9</ele>
        <time>2000-01-01T00:10:09Z</time>
      </trkpt>
      <trkpt lat="48.707115" lon="8.985339">
        <ele>445.3</ele>
        <time>2000-01-01T00:12:06Z</time>
      </trkpt>
      <trkpt lat="48.706917" lon="8.989854">
        <ele>442.7</ele>
        <time>2000-01-01T00:13:01Z</time>
      </trkpt>
      <trkpt lat="48.705448" lon="8.98975">
        <ele>441</ele>
        <time>2000-01-01T00:14:17Z</time>
      </trkpt>
      <trkpt lat="48.704407" lon="8.988676">
        <ele>441</ele>
        <time>2000-01-01T00:14:47Z</time>
      </trkpt>
    </trkseg>
    <trkseg>
      <trkpt lat="48.704334" lon="8.988975">
        <ele>436.8</ele>
        <time>2000-01-01T00:00:00Z</time>
      </trkpt>
      <trkpt lat="48.703331" lon="8.988283">
        <ele>436.3</ele>
        <time>2000-01-01T00:00:25Z</time>
      </trkpt>
      <trkpt lat="48.702404" lon="8.990617">
        <ele>433.7</ele>
        <time>2000-01-01T00:01:19Z</time>
      </trkpt>
      <trkpt lat="48.703705" lon="8.9922">
        <ele>434.8</ele>
        <time>2000-01-01T00:01:55Z</time>
      </trkpt>
      <trkpt lat="48.702801" lon="8.994882">
        <ele>435.6</ele>
        <time>2000-01-01T00:02:32Z</time>
      </trkpt>
      <trkpt lat="48.704216" lon="8.996361">
        <ele>436.2</ele>
        <time>2000-01-01T00:03:03Z</time>
      </trkpt>
      <trkpt lat="48.701584" lon="9.003711">
        <ele>437.4</ele>
        <time>2000-01-01T00:05:31Z</time>
      </trkpt>
      <trkpt lat="48.699081" lon="9.002224">
        <ele>437.8</ele>
        <time>2000-01-01T00:06:41Z</time>
      </trkpt>
      <trkpt lat="48.698467" lon="9.002703">
        <ele>438</ele>
        <time>2000-01-01T00:07:01Z</time>
      </trkpt>
      <trkpt lat="48.696842" lon="9.001778">
        <ele>438.8</ele>
        <time>2000-01-01T00:08:02Z</time>
      </trkpt>
      <trkpt lat="48.693523" lon="9.001861">
        <ele>439.2</ele>
        <time>2000-01-01T00:12:03Z</time>
      </trkpt>
      <trkpt lat="48.692959" lon="9.002271">
        <ele>437.8</ele>
        <time>2000-01-01T00:12:59Z</time>
      </trkpt>
      <trkpt lat="48.692562" lon="9.004072">
        <ele>435.3</ele>
        <time>2000-01-01T00:15:00Z</time>
      </trkpt>
      <trkpt lat="48.688942" lon="9.007007">
        <ele>434.4</ele>
        <time>2000-01-01T00:17:17Z</time>
      </trkpt>
      <trkpt lat="48.686951" lon="9.004417">
        <ele>439.1</ele>
        <time>2000-01-01T00:18:12Z</time>
      </trkpt>
      <trkpt lat="48.684326" lon="9.00639">
        <ele>441.8</ele>
        <time>2000-01-01T00:19:59Z</time>
      </trkpt>
      <trkpt lat="48.684311" lon="9.007279">
        <ele>441.6</ele>
        <time>2000-01-01T00:20:20Z</time>
      </trkpt>
      <trkpt lat="48.683041" lon="9.009246">
        <ele>441.3</ele>
        <time>2000-01-01T00:21:11Z</time>
      </trkpt>
      <trkpt lat="48.682609" lon="9.00931">
        <ele>441.4</ele>
        <time>2000-01-01T00:21:46Z</time>
      </trkpt>
      <trkpt lat="48.681999" lon="9.00734">
        <ele>441.5</ele>
        <time>2000-01-01T00:23:15Z</time>
      </trkpt>
      <trkpt lat="48.682381" lon="9.008263">
        <ele>441.5</ele>
        <time>2000-01-01T00:24:31Z</time>
      </trkpt>
      <trkpt lat="48.682079" lon="9.009077">
        <ele>441.5</ele>
        <time>2000-01-01T00:25:04Z</time>
      </trkpt>
    </trkseg>
    <trkseg>
      <trkpt lat="48.681942" lon="9.009051">
        <ele>441.2</ele>
        <time>2000-01-01T00:00:00Z</time>
      </trkpt>
      <trkpt lat="48.681423" lon="9.009983">
        <ele>441.2</ele>
        <time>2000-01-01T00:00:27Z</time>
      </trkpt>
      <trkpt lat="48.680603" lon="9.006493">
        <ele>441.8</ele>
        <time>2000-01-01T00:01:13Z</time>
      </trkpt>
      <trkpt lat="48.681644" lon="9.005551">
        <ele>443</ele>
        <time>2000-01-01T00:01:45Z</time>
      </trkpt>
      <trkpt lat="48.680927" lon="9.001406">
        <ele>440.8</ele>
        <time>2000-01-01T00:03:05Z</time>
      </trkpt>
      <trkpt lat="48.681618" lon="9.000123">
        <ele>438.9</ele>
        <time>2000-01-01T00:03:31Z</time>
      </trkpt>
      <trkpt lat="48.681038" lon="8.997941">
        <ele>436.8</ele>
        <time>2000-01-01T00:04:09Z</time>
      </trkpt>
      <trkpt lat="48.681702" lon="8.997683">
        <ele>435.6</ele>
        <time>2000-01-01T00:08:21Z</time>
      </trkpt>
      <trkpt lat="48.680645" lon="8.995699">
        <ele>435.2</ele>
        <time>2000-01-01T00:08:49Z</time>
      </trkpt>
      <trkpt lat="48.677532" lon="8.985067">
        <ele>452.3</ele>
        <time>2000-01-01T00:11:15Z</time>
      </trkpt>
      <trkpt lat="48.679459" lon="8.983863">
        <ele>444.7</ele>
        <time>2000-01-01T00:11:59Z</time>
      </trkpt>
      <trkpt lat="48.679218" lon="8.982142">
        <ele>437.3</ele>
        <time>2000-01-01T00:12:31Z</time>
      </trkpt>
      <trkpt lat="48.683048" lon="8.979569">
        <ele>426.3</ele>
        <time>2000-01-01T00:14:11Z</time>
      </trkpt>
      <trkpt lat="48.685093" lon="8.986705">
        <ele>427</ele>
        <time>2000-01-01T00:17:21Z</time>
      </trkpt>
      <trkpt lat="48.686428" lon="8.98673">
        <ele>427</ele>
        <time>2000-01-01T00:17:57Z</time>
      </trkpt>
    </trkseg>
    <trkseg>
      <trkpt lat="48.686676" lon="8.986813">
        <ele>431.5</ele>
        <time>2000-01-01T00:00:00Z</time>
      </trkpt>
      <trkpt lat="48.687046" lon="8.986863">
        <ele>431.5</ele>
        <time>2000-01-01T00:00:25Z</time>
      </trkpt>
      <trkpt lat="48.688316" lon="8.979581">
        <ele>432.1</ele>
        <time>2000-01-01T00:01:56Z</time>
      </trkpt>
      <trkpt lat="48.688698" lon="8.979063">
        <ele>431.1</ele>
        <time>2000-01-01T00:02:04Z</time>
      </trkpt>
      <trkpt lat="48.690365" lon="8.979212">
        <ele>424.4</ele>
        <time>2000-01-01T00:02:32Z</time>
      </trkpt>
      <trkpt lat="48.689186" lon="8.979253">
        <ele>421.7</ele>
        <time>2000-01-01T00:03:00Z</time>
      </trkpt>
      <trkpt lat="48.689346" lon="8.971941">
        <ele>423</ele>
        <time>2000-01-01T00:04:28Z</time>
      </trkpt>
      <trkpt lat="48.692551" lon="8.97202">
        <ele>430.5</ele>
        <time>2000-01-01T00:05:33Z</time>
      </trkpt>
      <trkpt lat="48.692997" lon="8.974455">
        <ele>430.2</ele>
        <time>2000-01-01T00:06:05Z</time>
      </trkpt>
      <trkpt lat="48.696636" lon="8.972266">
        <ele>439.5</ele>
        <time>2000-01-01T00:07:22Z</time>
      </trkpt>
      <trkpt lat="48.703514" lon="8.971405">
        <ele>444.7</ele>
        <time>2000-01-01T00:09:29Z</time>
      </trkpt>
      <trkpt lat="48.704224" lon="8.971833">
        <ele>443.4</ele>
        <time>2000-01-01T00:09:42Z</time>
      </trkpt>
      <trkpt lat="48.704689" lon="8.971058">
        <ele>441.9</ele>
        <time>2000-01-01T00:09:59Z</time>
      </trkpt>
      <trkpt lat="48.70871" lon="8.969757">
        <ele>447.1</ele>
        <time>2000-01-01T00:11:17Z</time>
      </trkpt>
      <trkpt lat="48.71558" lon="8.970497">
        <ele>450.8</ele>
        <time>2000-01-01T00:13:40Z</time>
      </trkpt>
      <trkpt lat="48.7164" lon="8.966287">
        <ele>448.3</ele>
        <time>2000-01-01T00:14:45Z</time>
      </trkpt>
      <trkpt lat="48.718212" lon="8.966729">
        <ele>445.1</ele>
        <time>2000-01-01T00:15:26Z</time>
      </trkpt>
      <trkpt lat="48.718365" lon="8.968687">
        <ele>444.2</ele>
        <time>2000-01-01T00:15:53Z</time>
      </trkpt>
      <trkpt lat="48.721344" lon="8.966715">
        <ele>452.7</ele>
        <time>2000-01-01T00:17:33Z</time>
      </trkpt>
      <trkpt lat="48.722839" lon="8.964866">
        <ele>457.1</ele>
        <time>2000-01-01T00:18:22Z</time>
      </trkpt>
      <trkpt lat="48.72522" lon="8.965096">
        <ele>459.7</ele>
        <time>2000-01-01T00:19:39Z</time>
      </trkpt>
      <trkpt lat="48.725708" lon="8.9634">
        <ele>459.8</ele>
        <time>2000-01-01T00:20:36Z</time>
      </trkpt>
    </trkseg>
  </trk>
</gpx>