<?xml version="1.0" encoding="UTF-8"?>
<gpx xmlns="http://www.topografix.com/GPX/1/1" xmlns:xsi="http://www.w3.org/2001/XMLSchema-instance" xsi:schemaLocation="http://www.topografix.com/GPX/1/1 http://www.topografix.com/GPX/1/1/gpx.xsd" version="1.1" creator="gpx.py -- https://github.com/tkrajina/gpxpy">
  <metadata>
    <name>Ilsfeld_57542930</name>
  </metadata>
  <trk>
    <name>Ilsfeld_57542930</name>
    <trkseg>
      <trkpt lat="49.06591" lon="9.216646">
        <ele>191.8</ele>
        <time>2000-01-01T00:00:00Z</time>
      </trkpt>
      <trkpt lat="49.083485" lon="9.195828">
        <ele>191.5</ele>
        <time>2000-01-01T00:10:16Z</time>
      </trkpt>
      <trkpt lat="49.084137" lon="9.195692">
        <ele>191.2</ele>
        <time>2000-01-01T00:10:27Z</time>
      </trkpt>
      <trkpt lat="49.085615" lon="9.192499">
        <ele>190</ele>
        <time>2000-01-01T00:11:09Z</time>
      </trkpt>
      <trkpt lat="49.08556" lon="9.191772">
        <ele>189.9</ele>
        <time>2000-01-01T00:11:19Z</time>
      </trkpt>
      <trkpt lat="49.089701" lon="9.189815">
        <ele>186</ele>
        <time>2000-01-01T00:12:33Z</time>
      </trkpt>
      <trkpt lat="49.091765" lon="9.18791">
        <ele>183.4</ele>
        <time>2000-01-01T00:13:14Z</time>
      </trkpt>
      <trkpt lat="49.093983" lon="9.184598">
        <ele>181.3</ele>
        <time>2000-01-01T00:14:05Z</time>
      </trkpt>
      <trkpt lat="49.096104" lon="9.183924">
        <ele>182.4</ele>
        <time>2000-01-01T00:14:45Z</time>
      </trkpt>
      <trkpt lat="49.097239" lon="9.185143">
        <ele>189.9</ele>
        <time>2000-01-01T00:15:21Z</time>
      </trkpt>
      <trkpt lat="49.098131" lon="9.18773">
        <ele>203</ele>
        <time>2000-01-01T00:16:04Z</time>
      </trkpt>
      <trkpt lat="49.102337" lon="9.187899">
        <ele>204.5</ele>
        <time>2000-01-01T00:17:15Z</time>
      </trkpt>
      <trkpt lat="49.102777" lon="9.189388">
        <ele>206</ele>
        <time>2000-01-01T00:17:36Z</time>
      </trkpt>
      <trkpt lat="49.107375" lon="9.19">
        <ele>196.5</ele>
        <time>2000-01-01T00:19:07Z</time>
      </trkpt>
      <trkpt lat="49.114079" lon="9.188967">
        <ele>185.6</ele>
        <time>2000-01-01T00:21:07Z</time>
      </trkpt>
      <trkpt lat="49.114897" lon="9.191799">
        <ele>180.7</ele>
        <time>2000-01-01T00:21:48Z</time>
      </trkpt>
      <trkpt lat="49.117326" lon="9.188989">
        <ele>160</ele>
        <time>2000-01-01T00:23:04Z</time>
      </trkpt>
      <trkpt lat="49.118164" lon="9.189294">
        <ele>157.9</ele>
        <time>2000-01-01T00:23:20Z</time>
      </trkpt>
      <trkpt lat="49.120041" lon="9.188433">
        <ele>155.2</ele>
        <time>2000-01-01T00:24:23Z</time>
      </trkpt>
      <trkpt lat="49.120821" lon="9.191432">
        <ele>155.2</ele>
        <time>2000-01-01T00:25:00Z</time>
      </trkpt>
      <trkpt lat="49.123081" lon="9.19573">
        <ele>157.4</ele>
        <time>2000-01-01T00:26:04Z</time>
      </trkpt>
      <trkpt lat="49.126293" lon="9.198058">
        <ele>152.4</ele>
        <time>2000-01-01T00:27:04Z</time>
      </trkpt>
      <trkpt lat="49.130742" lon="9.199924">
        <ele>152.1</ele>
        <time>2000-01-01T00:28:22Z</time>
      </trkpt>
      <trkpt lat="49.13149" lon="9.201073">
        <ele>152.2</ele>
        <time>2000-01-01T00:28:40Z</time>
      </trkpt>
      <trkpt lat="49.132439" lon="9.200085">
        <ele>152</ele>
        <time>2000-01-01T00:29:07Z</time>
      </trkpt>
      <trkpt lat="49.138103" lon="9.202025">
        <ele>148.4</ele>
        <time>2000-01-01T00:31:10Z</time>
      </trkpt>
      <trkpt lat="49.138524" lon="9.19992">
        <ele>148.7</ele>
        <time>2000-01-01T00:31:41Z</time>
      </trkpt>
      <trkpt lat="49.140104" lon="9.200152">
        <ele>147.2</ele>
        <time>2000-01-01T00:32:10Z</time>
      </trkpt>
      <trkpt lat="49.14125" lon="9.199418">
        <ele>147.2</ele>
        <time>2000-01-01T00:32:33Z</time>
      </trkpt>
      <trkpt lat="49.141365" lon="9.200442">
        <ele>147.5</ele>
        <time>2000-01-01T00:32:52Z</time>
      </trkpt>
      <trkpt lat="49.162919" lon="9.205076">
        <ele>151.1</ele>
        <time>2000-01-01T00:39:15Z</time>
      </trkpt>
      <trkpt lat="49.166077" lon="9.205193">
        <ele>152.1</ele>
        <time>2000-01-01T00:40:14Z</time>
      </trkpt>
      <trkpt lat="49.17387" lon="9.203753">
        <ele>149.8</ele>
        <time>2000-01-01T00:42:35Z</time>
      </trkpt>
      <trkpt lat="49.172507" lon="9.20279">
        <ele>150.7</ele>
        <time>2000-01-01T00:43:10Z</time>
      </trkpt>
      <trkpt lat="49.176227" lon="9.201525">
        <ele>151.8</ele>
        <time>2000-01-01T00:44:19Z</time>
      </trkpt>
      <trkpt lat="49.176112" lon="9.198792">
        <ele>151.8</ele>
        <time>2000-01-01T00:44:52Z</time>
      </trkpt>
      <trkpt lat="49.17796" lon="9.197642">
        <ele>152.8</ele>
        <time>2000-01-01T00:45:31Z</time>
      </trkpt>
      <trkpt lat="49.178305" lon="9.196438">
        <ele>153.1</ele>
        <time>2000-01-01T00:45:49Z</time>
      </trkpt>
      <trkpt lat="49.183924" lon="9.198166">
        <ele>155.8</ele>
        <time>2000-01-01T00:47:28Z</time>
      </trkpt>
      <trkpt lat="49.184922" lon="9.193955">
        <ele>158.6</ele>
        <time>2000-01-01T00:48:26Z</time>
      </trkpt>
      <trkpt lat="49.186271" lon="9.191436">
        <ele>158.5</ele>
        <time>2000-01-01T00:49:15Z</time>
      </trkpt>
      <trkpt lat="49.187733" lon="9.184985">
        <ele>165.3</ele>
        <time>2000-01-01T00:50:34Z</time>
      </trkpt>
      <trkpt lat="49.188021" lon="9.179687">
        <ele>161.8</ele>
        <time>2000-01-01T00:51:35Z</time>
      </trkpt>
      <trkpt lat="49.187349" lon="9.175263">
        <ele>162.9</ele>
        <time>2000-01-01T00:52:37Z</time>
      </trkpt>
      <trkpt lat="49.187715" lon="9.171047">
        <ele>164</ele>
        <time>2000-01-01T00:53:29Z</time>
      </trkpt>
      <trkpt lat="49.188152" lon="9.169669">
        <ele>164.7</ele>
        <time>2000-01-01T00:53:47Z</time>
      </trkpt>
      <trkpt lat="49.189328" lon="9.168364">
        <ele>166.5</ele>
        <time>2000-01-01T00:54:12Z</time>
      </trkpt>
      <trkpt lat="49.189585" lon="9.164944">
        <ele>169.1</ele>
        <time>2000-01-01T00:54:52Z</time>
      </trkpt>
      <trkpt lat="49.188513" lon="9.158094">
        <ele>171.5</ele>
        <time>2000-01-01T00:56:19Z</time>
      </trkpt>
      <trkpt lat="49.188436" lon="9.153823">
        <ele>175.6</ele>
        <time>2000-01-01T00:57:23Z</time>
      </trkpt>
      <trkpt lat="49.188872" lon="9.150837">
        <ele>178.1</ele>
        <time>2000-01-01T00:58:11Z</time>
      </trkpt>
      <trkpt lat="49.191179" lon="9.148663">
        <ele>183.2</ele>
        <time>2000-01-01T00:59:19Z</time>
      </trkpt>
      <trkpt lat="49.192456" lon="9.145895">
        <ele>182.8</ele>
        <time>2000-01-01T01:00:06Z</time>
      </trkpt>
      <trkpt lat="49.192898" lon="9.144652">
        <ele>184.3</ele>
        <time>2000-01-01T01:00:30Z</time>
      </trkpt>
      <trkpt lat="49.192434" lon="9.143499">
        <ele>185.6</ele>
        <time>2000-01-01T01:00:54Z</time>
      </trkpt>
      <trkpt lat="49.192584" lon="9.141463">
        <ele>185.6</ele>
        <time>2000-01-01T01:02:21Z</time>
      </trkpt>
    </trkseg>
  </trk>
</gpx>