<?xml version="1.0" encoding="UTF-8"?>
<gpx xmlns="http://www.topografix.com/GPX/1/1" xmlns:xsi="http://www.w3.org/2001/XMLSchema-instance" xsi:schemaLocation="http://www.topografix.com/GPX/1/1 http://www.topografix.com/GPX/1/1/gpx.xsd" version="1.1" creator="gpx.py -- https://github.com/tkrajina/gpxpy">
  <metadata>
    <name>Magstadt_76c97656</name>
  </metadata>
  <trk>
    <name>Magstadt_76c97656</name>
    <trkseg>
      <trkpt lat="48.725792" lon="8.963626">
        <ele>469.8</ele>
        <time>2000-01-01T00:00:00Z</time>
      </trkpt>
      <trkpt lat="48.725334" lon="8.963481">
        <ele>469.8</ele>
        <time>2000-01-01T00:00:16Z</time>
      </trkpt>
      <trkpt lat="48.725506" lon="8.961923">
        <ele>470.4</ele>
        <time>2000-01-01T00:00:42Z</time>
      </trkpt>
      <trkpt lat="48.7229" lon="8.959097">
        <ele>475.7</ele>
        <time>2000-01-01T00:01:48Z</time>
      </trkpt>
      <trkpt lat="48.722385" lon="8.956487">
        <ele>478.4</ele>
        <time>2000-01-01T00:03:18Z</time>
      </trkpt>
      <trkpt lat="48.717392" lon="8.954415">
        <ele>471.4</ele>
        <time>2000-01-01T00:04:42Z</time>
      </trkpt>
      <trkpt lat="48.712913" lon="8.951721">
        <ele>474.5</ele>
        <time>2000-01-01T00:06:10Z</time>
      </trkpt>
      <trkpt lat="48.71344" lon="8.949472">
        <ele>477.2</ele>
        <time>2000-01-01T00:06:40Z</time>
      </trkpt>
      <trkpt lat="48.713177" lon="8.94374">
        <ele>472.4</ele>
        <time>2000-01-01T00:07:42Z</time>
      </trkpt>
      <trkpt lat="48.712143" lon="8.938795">
        <ele>468.9</ele>
        <time>2000-01-01T00:08:37Z</time>
      </trkpt>
      <trkpt lat="48.709686" lon="8.931919">
        <ele>470.3</ele>
        <time>2000-01-01T00:10:04Z</time>
      </trkpt>
      <trkpt lat="48.709366" lon="8.924724">
        <ele>467.3</ele>
        <time>2000-01-01T00:11:21Z</time>
      </trkpt>
      <trkpt lat="48.709923" lon="8.921781">
        <ele>459.3</ele>
        <time>2000-01-01T00:11:43Z</time>
      </trkpt>
      <trkpt lat="48.710152" lon="8.915003">
        <ele>445.8</ele>
        <time>2000-01-01T00:12:46Z</time>
      </trkpt>
      <trkpt lat="48.711166" lon="8.912512">
        <ele>429.3</ele>
        <time>2000-01-01T00:13:17Z</time>
      </trkpt>
      <trkpt lat="48.711182" lon="8.910643">
        <ele>414.4</ele>
        <time>2000-01-01T00:13:45Z</time>
      </trkpt>
      <trkpt lat="48.712791" lon="8.909028">
        <ele>407.7</ele>
        <time>2000-01-01T00:14:22Z</time>
      </trkpt>
      <trkpt lat="48.71254" lon="8.907883">
        <ele>406</ele>
        <time>2000-01-01T00:14:36Z</time>
      </trkpt>
      <trkpt lat="48.713936" lon="8.90562">
        <ele>404.6</ele>
        <time>2000-01-01T00:15:16Z</time>
      </trkpt>
      <trkpt lat="48.714363" lon="8.901869">
        <ele>410</ele>
        <time>2000-01-01T00:17:00Z</time>
      </trkpt>
      <trkpt lat="48.714062" lon="8.90093">
        <ele>412.5</ele>
        <time>2000-01-01T00:17:13Z</time>
      </trkpt>
      <trkpt lat="48.709041" lon="8.899779">
        <ele>421.5</ele>
        <time>2000-01-01T00:24:01Z</time>
      </trkpt>
      <trkpt lat="48.704895" lon="8.901157">
        <ele>425.4</ele>
        <time>2000-01-01T00:26:15Z</time>
      </trkpt>
      <trkpt lat="48.699161" lon="8.89973">
        <ele>424.7</ele>
        <time>2000-01-01T00:27:55Z</time>
      </trkpt>
      <trkpt lat="48.695362" lon="8.903036">
        <ele>423.5</ele>
        <time>2000-01-01T00:29:06Z</time>
      </trkpt>
      <trkpt lat="48.689247" lon="8.903096">
        <ele>419.4</ele>
        <time>2000-01-01T00:30:47Z</time>
      </trkpt>
      <trkpt lat="48.685665" lon="8.904436">
        <ele>420.1</ele>
        <time>2000-01-01T00:31:49Z</time>
      </trkpt>
      <trkpt lat="48.68243" lon="8.908425">
        <ele>413.2</ele>
        <time>2000-01-01T00:33:03Z</time>
      </trkpt>
      <trkpt lat="48.678631" lon="8.903572">
        <ele>414.7</ele>
        <time>2000-01-01T00:34:48Z</time>
      </trkpt>
      <trkpt lat="48.678772" lon="8.899276">
        <ele>418.3</ele>
        <time>2000-01-01T00:37:50Z</time>
      </trkpt>
      <trkpt lat="48.678097" lon="8.896444">
        <ele>416.6</ele>
        <time>2000-01-01T00:38:22Z</time>
      </trkpt>
      <trkpt lat="48.678451" lon="8.890777">
        <ele>426.6</ele>
        <time>2000-01-01T00:45:39Z</time>
      </trkpt>
      <trkpt lat="48.677528" lon="8.887113">
        <ele>424</ele>
        <time>2000-01-01T00:46:25Z</time>
      </trkpt>
      <trkpt lat="48.678055" lon="8.886397">
        <ele>423.3</ele>
        <time>2000-01-01T00:46:54Z</time>
      </trkpt>
      <trkpt lat="48.677387" lon="8.878426">
        <ele>427.9</ele>
        <time>2000-01-01T00:48:32Z</time>
      </trkpt>
      <trkpt lat="48.677864" lon="8.872087">
        <ele>431.4</ele>
        <time>2000-01-01T00:49:51Z</time>
      </trkpt>
      <trkpt lat="48.678928" lon="8.866419">
        <ele>439.3</ele>
        <time>2000-01-01T01:01:26Z</time>
      </trkpt>
      <trkpt lat="48.678345" lon="8.858011">
        <ele>445.1</ele>
        <time>2000-01-01T01:03:19Z</time>
      </trkpt>
      <trkpt lat="48.677055" lon="8.852095">
        <ele>458.4</ele>
        <time>2000-01-01T01:04:39Z</time>
      </trkpt>
      <trkpt lat="48.677936" lon="8.845031">
        <ele>466.8</ele>
        <time>2000-01-01T01:06:05Z</time>
      </trkpt>
      <trkpt lat="48.675209" lon="8.840647">
        <ele>472.5</ele>
        <time>2000-01-01T01:07:12Z</time>
      </trkpt>
      <trkpt lat="48.673042" lon="8.835754">
        <ele>481.1</ele>
        <time>2000-01-01T01:08:25Z</time>
      </trkpt>
      <trkpt lat="48.670627" lon="8.833065">
        <ele>489</ele>
        <time>2000-01-01T01:09:24Z</time>
      </trkpt>
      <trkpt lat="48.668968" lon="8.830138">
        <ele>492.9</ele>
        <time>2000-01-01T01:10:10Z</time>
      </trkpt>
      <trkpt lat="48.665127" lon="8.826754">
        <ele>507.8</ele>
        <time>2000-01-01T01:11:37Z</time>
      </trkpt>
      <trkpt lat="48.663029" lon="8.822954">
        <ele>518.7</ele>
        <time>2000-01-01T01:13:00Z</time>
      </trkpt>
      <trkpt lat="48.660877" lon="8.82307">
        <ele>526.8</ele>
        <time>2000-01-01T01:13:45Z</time>
      </trkpt>
      <trkpt lat="48.657837" lon="8.824674">
        <ele>545.6</ele>
        <time>2000-01-01T01:15:21Z</time>
      </trkpt>
      <trkpt lat="48.65572" lon="8.825004">
        <ele>560.4</ele>
        <time>2000-01-01T01:16:48Z</time>
      </trkpt>
      <trkpt lat="48.653858" lon="8.807987">
        <ele>572.2</ele>
        <time>2000-01-01T01:20:26Z</time>
      </trkpt>
      <trkpt lat="48.650402" lon="8.808622">
        <ele>557.8</ele>
        <time>2000-01-01T01:21:24Z</time>
      </trkpt>
      <trkpt lat="48.649742" lon="8.799874">
        <ele>528.4</ele>
        <time>2000-01-01T01:22:44Z</time>
      </trkpt>
      <trkpt lat="48.649452" lon="8.799113">
        <ele>523.9</ele>
        <time>2000-01-01T01:22:49Z</time>
      </trkpt>
      <trkpt lat="48.648415" lon="8.799272">
        <ele>516.6</ele>
        <time>2000-01-01T01:22:59Z</time>
      </trkpt>
      <trkpt lat="48.647865" lon="8.797377">
        <ele>507.1</ele>
        <time>2000-01-01T01:23:14Z</time>
      </trkpt>
      <trkpt lat="48.648277" lon="8.792919">
        <ele>491.1</ele>
        <time>2000-01-01T01:23:47Z</time>
      </trkpt>
      <trkpt lat="48.647854" lon="8.787413">
        <ele>478.6</ele>
        <time>2000-01-01T01:24:29Z</time>
      </trkpt>
      <trkpt lat="48.648178" lon="8.783579">
        <ele>469.1</ele>
        <time>2000-01-01T01:24:59Z</time>
      </trkpt>
      <trkpt lat="48.647079" lon="8.778705">
        <ele>466.8</ele>
        <time>2000-01-01T01:25:48Z</time>
      </trkpt>
      <trkpt lat="48.648003" lon="8.775631">
        <ele>457.2</ele>
        <time>2000-01-01T01:26:29Z</time>
      </trkpt>
      <trkpt lat="48.647198" lon="8.774293">
        <ele>452.7</ele>
        <time>2000-01-01T01:26:55Z</time>
      </trkpt>
      <trkpt lat="48.646103" lon="8.770019">
        <ele>442</ele>
        <time>2000-01-01T01:27:39Z</time>
      </trkpt>
      <trkpt lat="48.644398" lon="8.770641">
        <ele>437.1</ele>
        <time>2000-01-01T01:28:13Z</time>
      </trkpt>
      <trkpt lat="48.642895" lon="8.769739">
        <ele>434.8</ele>
        <time>2000-01-01T01:28:38Z</time>
      </trkpt>
      <trkpt lat="48.642071" lon="8.76694">
        <ele>422.5</ele>
        <time>2000-01-01T01:29:24Z</time>
      </trkpt>
      <trkpt lat="48.636379" lon="8.761369">
        <ele>402</ele>
        <time>2000-01-01T01:31:02Z</time>
      </trkpt>
      <trkpt lat="48.637001" lon="8.760246">
        <ele>398.3</ele>
        <time>2000-01-01T01:31:24Z</time>
      </trkpt>
      <trkpt lat="48.635254" lon="8.754915">
        <ele>410</ele>
        <time>2000-01-01T01:33:04Z</time>
      </trkpt>
      <trkpt lat="48.636368" lon="8.752188">
        <ele>404.9</ele>
        <time>2000-01-01T01:33:44Z</time>
      </trkpt>
      <trkpt lat="48.636246" lon="8.748929">
        <ele>388.4</ele>
        <time>2000-01-01T01:34:06Z</time>
      </trkpt>
      <trkpt lat="48.636043" lon="8.747397">
        <ele>379</ele>
        <time>2000-01-01T01:34:19Z</time>
      </trkpt>
      <trkpt lat="48.635292" lon="8.747124">
        <ele>372.2</ele>
        <time>2000-01-01T01:34:33Z</time>
      </trkpt>
      <trkpt lat="48.636433" lon="8.746919">
        <ele>367.2</ele>
        <time>2000-01-01T01:35:54Z</time>
      </trkpt>
      <trkpt lat="48.636261" lon="8.745568">
        <ele>364.9</ele>
        <time>2000-01-01T01:37:19Z</time>
      </trkpt>
      <trkpt lat="48.643341" lon="8.743583">
        <ele>367.5</ele>
        <time>2000-01-01T01:43:44Z</time>
      </trkpt>
      <trkpt lat="48.643375" lon="8.740032">
        <ele>364.8</ele>
        <time>2000-01-01T01:44:24Z</time>
      </trkpt>
      <trkpt lat="48.642883" lon="8.738239">
        <ele>363.9</ele>
        <time>2000-01-01T01:44:48Z</time>
      </trkpt>
      <trkpt lat="48.644112" lon="8.734842">
        <ele>364.4</ele>
        <time>2000-01-01T01:45:30Z</time>
      </trkpt>
      <trkpt lat="48.64674" lon="8.730689">
        <ele>362.1</ele>
        <time>2000-01-01T01:46:38Z</time>
      </trkpt>
      <trkpt lat="48.648495" lon="8.729311">
        <ele>358.5</ele>
        <time>2000-01-01T01:47:11Z</time>
      </trkpt>
      <trkpt lat="48.652443" lon="8.724548">
        <ele>357.4</ele>
        <time>2000-01-01T01:48:47Z</time>
      </trkpt>
      <trkpt lat="48.655037" lon="8.723004">
        <ele>360.1</ele>
        <time>2000-01-01T01:49:44Z</time>
      </trkpt>
      <trkpt lat="48.657066" lon="8.725309">
        <ele>357.2</ele>
        <time>2000-01-01T01:50:27Z</time>
      </trkpt>
      <trkpt lat="48.659187" lon="8.726661">
        <ele>354.7</ele>
        <time>2000-01-01T01:51:13Z</time>
      </trkpt>
      <trkpt lat="48.660301" lon="8.726744">
        <ele>354.5</ele>
        <time>2000-01-01T01:51:32Z</time>
      </trkpt>
      <trkpt lat="48.66299" lon="8.725037">
        <ele>354.3</ele>
        <time>2000-01-01T01:52:33Z</time>
      </trkpt>
      <trkpt lat="48.6651" lon="8.725696">
        <ele>353.8</ele>
        <time>2000-01-01T01:53:12Z</time>
      </trkpt>
      <trkpt lat="48.666847" lon="8.727726">
        <ele>350.9</ele>
        <time>2000-01-01T01:53:49Z</time>
      </trkpt>
      <trkpt lat="48.666927" lon="8.728824">
        <ele>349.9</ele>
        <time>2000-01-01T01:54:03Z</time>
      </trkpt>
      <trkpt lat="48.669392" lon="8.730013">
        <ele>348.1</ele>
        <time>2000-01-01T01:54:49Z</time>
      </trkpt>
      <trkpt lat="48.671413" lon="8.738006">
        <ele>351.8</ele>
        <time>2000-01-01T01:56:31Z</time>
      </trkpt>
      <trkpt lat="48.672478" lon="8.739383">
        <ele>356.1</ele>
        <time>2000-01-01T01:57:00Z</time>
      </trkpt>
      <trkpt lat="48.673496" lon="8.738438">
        <ele>362.6</ele>
        <time>2000-01-01T01:57:33Z</time>
      </trkpt>
      <trkpt lat="48.673206" lon="8.734871">
        <ele>363.3</ele>
        <time>2000-01-01T01:58:17Z</time>
      </trkpt>
      <trkpt lat="48.672222" lon="8.730713">
        <ele>359.9</ele>
        <time>2000-01-01T01:59:04Z</time>
      </trkpt>
      <trkpt lat="48.672401" lon="8.729405">
        <ele>359.2</ele>
        <time>2000-01-01T01:59:19Z</time>
      </trkpt>
      <trkpt lat="48.672951" lon="8.72912">
        <ele>356.1</ele>
        <time>2000-01-01T01:59:27Z</time>
      </trkpt>
      <trkpt lat="48.672832" lon="8.727958">
        <ele>351.9</ele>
        <time>2000-01-01T01:59:44Z</time>
      </trkpt>
      <trkpt lat="48.677147" lon="8.724728">
        <ele>347</ele>
        <time>2000-01-01T02:01:11Z</time>
      </trkpt>
      <trkpt lat="48.678089" lon="8.724532">
        <ele>346.5</ele>
        <time>2000-01-01T02:01:29Z</time>
      </trkpt>
      <trkpt lat="48.680973" lon="8.725721">
        <ele>346.8</ele>
        <time>2000-01-01T02:02:26Z</time>
      </trkpt>
      <trkpt lat="48.682865" lon="8.72558">
        <ele>349.7</ele>
        <time>2000-01-01T02:03:15Z</time>
      </trkpt>
      <trkpt lat="48.685528" lon="8.729262">
        <ele>349.5</ele>
        <time>2000-01-01T02:04:19Z</time>
      </trkpt>
      <trkpt lat="48.688358" lon="8.731787">
        <ele>349.5</ele>
        <time>2000-01-01T02:05:18Z</time>
      </trkpt>
      <trkpt lat="48.690216" lon="8.731581">
        <ele>349.3</ele>
        <time>2000-01-01T02:05:50Z</time>
      </trkpt>
      <trkpt lat="48.692161" lon="8.729397">
        <ele>349</ele>
        <time>2000-01-01T02:06:37Z</time>
      </trkpt>
      <trkpt lat="48.694145" lon="8.729191">
        <ele>348</ele>
        <time>2000-01-01T02:07:15Z</time>
      </trkpt>
      <trkpt lat="48.69593" lon="8.731604">
        <ele>347.3</ele>
        <time>2000-01-01T02:07:59Z</time>
      </trkpt>
      <trkpt lat="48.6964" lon="8.733852">
        <ele>347.1</ele>
        <time>2000-01-01T02:08:26Z</time>
      </trkpt>
      <trkpt lat="48.698822" lon="8.738713">
        <ele>347.3</ele>
        <time>2000-01-01T02:09:42Z</time>
      </trkpt>
      <trkpt lat="48.699627" lon="8.742834">
        <ele>345.9</ele>
        <time>2000-01-01T02:10:34Z</time>
      </trkpt>
      <trkpt lat="48.700687" lon="8.744232">
        <ele>344.6</ele>
        <time>2000-01-01T02:11:00Z</time>
      </trkpt>
      <trkpt lat="48.701656" lon="8.743292">
        <ele>343.6</ele>
        <time>2000-01-01T02:11:21Z</time>
      </trkpt>
      <trkpt lat="48.702099" lon="8.740833">
        <ele>343.1</ele>
        <time>2000-01-01T02:11:51Z</time>
      </trkpt>
      <trkpt lat="48.701042" lon="8.73552">
        <ele>342.9</ele>
        <time>2000-01-01T02:13:05Z</time>
      </trkpt>
      <trkpt lat="48.702152" lon="8.732853">
        <ele>340.5</ele>
        <time>2000-01-01T02:13:45Z</time>
      </trkpt>
      <trkpt lat="48.703445" lon="8.731918">
        <ele>339.9</ele>
        <time>2000-01-01T02:14:16Z</time>
      </trkpt>
      <trkpt lat="48.70467" lon="8.732931">
        <ele>338.9</ele>
        <time>2000-01-01T02:14:43Z</time>
      </trkpt>
      <trkpt lat="48.706001" lon="8.736218">
        <ele>339</ele>
        <time>2000-01-01T02:15:40Z</time>
      </trkpt>
      <trkpt lat="48.707611" lon="8.738351">
        <ele>338.1</ele>
        <time>2000-01-01T02:16:22Z</time>
      </trkpt>
      <trkpt lat="48.711357" lon="8.740834">
        <ele>337.1</ele>
        <time>2000-01-01T02:17:52Z</time>
      </trkpt>
      <trkpt lat="48.714901" lon="8.739853">
        <ele>334.5</ele>
        <time>2000-01-01T02:19:42Z</time>
      </trkpt>
      <trkpt lat="48.717476" lon="8.736199">
        <ele>333.5</ele>
        <time>2000-01-01T02:21:16Z</time>
      </trkpt>
      <trkpt lat="48.719822" lon="8.735639">
        <ele>336.2</ele>
        <time>2000-01-01T02:22:22Z</time>
      </trkpt>
      <trkpt lat="48.723919" lon="8.73586">
        <ele>337.8</ele>
        <time>2000-01-01T02:23:42Z</time>
      </trkpt>
      <trkpt lat="48.725445" lon="8.734477">
        <ele>339.7</ele>
        <time>2000-01-01T02:24:15Z</time>
      </trkpt>
      <trkpt lat="48.727016" lon="8.731833">
        <ele>339.1</ele>
        <time>2000-01-01T02:25:01Z</time>
      </trkpt>
      <trkpt lat="48.728603" lon="8.731221">
        <ele>336.1</ele>
        <time>2000-01-01T02:25:23Z</time>
      </trkpt>
      <trkpt lat="48.735489" lon="8.733107">
        <ele>332.2</ele>
        <time>2000-01-01T02:27:30Z</time>
      </trkpt>
      <trkpt lat="48.735107" lon="8.734538">
        <ele>332.1</ele>
        <time>2000-01-01T02:27:55Z</time>
      </trkpt>
      <trkpt lat="48.735287" lon="8.735792">
        <ele>331.6</ele>
        <time>2000-01-01T02:28:29Z</time>
      </trkpt>
      <trkpt lat="48.737167" lon="8.736574">
        <ele>335</ele>
        <time>2000-01-01T02:29:32Z</time>
      </trkpt>
      <trkpt lat="48.738739" lon="8.736232">
        <ele>332</ele>
        <time>2000-01-01T02:30:07Z</time>
      </trkpt>
      <trkpt lat="48.742115" lon="8.732807">
        <ele>333.4</ele>
        <time>2000-01-01T02:31:27Z</time>
      </trkpt>
      <trkpt lat="48.744392" lon="8.731866">
        <ele>334.1</ele>
        <time>2000-01-01T02:32:13Z</time>
      </trkpt>
      <trkpt lat="48.748672" lon="8.732777">
        <ele>333.6</ele>
        <time>2000-01-01T02:33:46Z</time>
      </trkpt>
      <trkpt lat="48.748585" lon="8.733535">
        <ele>335.4</ele>
        <time>2000-01-01T02:34:05Z</time>
      </trkpt>
      <trkpt lat="48.749374" lon="8.733989">
        <ele>339.3</ele>
        <time>2000-01-01T02:34:31Z</time>
      </trkpt>
      <trkpt lat="48.754356" lon="8.734815">
        <ele>342.4</ele>
        <time>2000-01-01T02:36:13Z</time>
      </trkpt>
      <trkpt lat="48.757866" lon="8.734289">
        <ele>339.5</ele>
        <time>2000-01-01T02:37:11Z</time>
      </trkpt>
      <trkpt lat="48.761581" lon="8.73152">
        <ele>351.2</ele>
        <time>2000-01-01T02:38:32Z</time>
      </trkpt>
      <trkpt lat="48.764652" lon="8.730862">
        <ele>349.2</ele>
        <time>2000-01-01T02:39:26Z</time>
      </trkpt>
      <trkpt lat="48.767185" lon="8.731804">
        <ele>346.1</ele>
        <time>2000-01-01T02:40:15Z</time>
      </trkpt>
      <trkpt lat="48.76971" lon="8.734607">
        <ele>329.1</ele>
        <time>2000-01-01T02:41:14Z</time>
      </trkpt>
      <trkpt lat="48.771431" lon="8.734073">
        <ele>320.3</ele>
        <time>2000-01-01T02:41:49Z</time>
      </trkpt>
      <trkpt lat="48.771458" lon="8.731132">
        <ele>318.7</ele>
        <time>2000-01-01T02:44:04Z</time>
      </trkpt>
    </trkseg>
    <trkseg>
      <trkpt lat="48.771374" lon="8.731232">
        <ele>332.8</ele>
        <time>2000-01-01T00:00:00Z</time>
      </trkpt>
      <trkpt lat="48.771583" lon="8.733758">
        <ele>332.7</ele>
        <time>2000-01-01T00:00:51Z</time>
      </trkpt>
      <trkpt lat="48.775429" lon="8.734048">
        <ele>330.9</ele>
        <time>2000-01-01T00:01:58Z</time>
      </trkpt>
      <trkpt lat="48.779644" lon="8.733251">
        <ele>327.5</ele>
        <time>2000-01-01T00:03:11Z</time>
      </trkpt>
      <trkpt lat="48.784603" lon="8.731637">
        <ele>326</ele>
        <time>2000-01-01T00:04:47Z</time>
      </trkpt>
      <trkpt lat="48.78725" lon="8.727896">
        <ele>324.2</ele>
        <time>2000-01-01T00:05:50Z</time>
      </trkpt>
      <trkpt lat="48.790012" lon="8.726932">
        <ele>322.7</ele>
        <time>2000-01-01T00:06:38Z</time>
      </trkpt>
      <trkpt lat="48.796467" lon="8.729862">
        <ele>319.2</ele>
        <time>2000-01-01T00:08:40Z</time>
      </trkpt>
      <trkpt lat="48.79792" lon="8.729409">
        <ele>317.7</ele>
        <time>2000-01-01T00:09:10Z</time>
      </trkpt>
      <trkpt lat="48.798317" lon="8.729856">
        <ele>317.5</ele>
        <time>2000-01-01T00:09:24Z</time>
      </trkpt>
      <trkpt lat="48.798248" lon="8.7289">
        <ele>317.3</ele>
        <time>2000-01-01T00:09:40Z</time>
      </trkpt>
      <trkpt lat="48.799698" lon="8.725418">
        <ele>314.5</ele>
        <time>2000-01-01T00:10:31Z</time>
      </trkpt>
      <trkpt lat="48.802975" lon="8.722558">
        <ele>315.3</ele>
        <time>2000-01-01T00:11:42Z</time>
      </trkpt>
      <trkpt lat="48.805462" lon="8.72186">
        <ele>314.9</ele>
        <time>2000-01-01T00:12:24Z</time>
      </trkpt>
      <trkpt lat="48.811714" lon="8.722898">
        <ele>312.4</ele>
        <time>2000-01-01T00:14:15Z</time>
      </trkpt>
      <trkpt lat="48.814285" lon="8.720649">
        <ele>309.3</ele>
        <time>2000-01-01T00:15:07Z</time>
      </trkpt>
      <trkpt lat="48.815777" lon="8.716236">
        <ele>307</ele>
        <time>2000-01-01T00:16:04Z</time>
      </trkpt>
      <trkpt lat="48.816566" lon="8.71563">
        <ele>307.3</ele>
        <time>2000-01-01T00:16:22Z</time>
      </trkpt>
      <trkpt lat="48.820923" lon="8.714634">
        <ele>305.3</ele>
        <time>2000-01-01T00:17:38Z</time>
      </trkpt>
      <trkpt lat="48.823879" lon="8.711828">
        <ele>304.3</ele>
        <time>2000-01-01T00:18:41Z</time>
      </trkpt>
      <trkpt lat="48.824951" lon="8.711916">
        <ele>302.5</ele>
        <time>2000-01-01T00:18:59Z</time>
      </trkpt>
      <trkpt lat="48.8251" lon="8.713015">
        <ele>301.4</ele>
        <time>2000-01-01T00:19:15Z</time>
      </trkpt>
      <trkpt lat="48.825695" lon="8.713612">
        <ele>300.8</ele>
        <time>2000-01-01T00:19:32Z</time>
      </trkpt>
      <trkpt lat="48.827244" lon="8.713583">
        <ele>299.4</ele>
        <time>2000-01-01T00:19:58Z</time>
      </trkpt>
      <trkpt lat="48.829441" lon="8.710676">
        <ele>297.1</ele>
        <time>2000-01-01T00:20:49Z</time>
      </trkpt>
      <trkpt lat="48.833042" lon="8.702038">
        <ele>296.7</ele>
        <time>2000-01-01T00:22:45Z</time>
      </trkpt>
      <trkpt lat="48.834049" lon="8.702211">
        <ele>297.6</ele>
        <time>2000-01-01T00:25:14Z</time>
      </trkpt>
      <trkpt lat="48.837398" lon="8.69795">
        <ele>294</ele>
        <time>2000-01-01T00:27:11Z</time>
      </trkpt>
      <trkpt lat="48.836845" lon="8.69705">
        <ele>293.5</ele>
        <time>2000-01-01T00:27:33Z</time>
      </trkpt>
      <trkpt lat="48.837932" lon="8.693533">
        <ele>292.3</ele>
        <time>2000-01-01T00:28:30Z</time>
      </trkpt>
      <trkpt lat="48.838234" lon="8.690926">
        <ele>292</ele>
        <time>2000-01-01T00:29:01Z</time>
      </trkpt>
      <trkpt lat="48.836883" lon="8.683828">
        <ele>291.2</ele>
        <time>2000-01-01T00:30:29Z</time>
      </trkpt>
      <trkpt lat="48.838062" lon="8.680153">
        <ele>292.7</ele>
        <time>2000-01-01T00:31:22Z</time>
      </trkpt>
      <trkpt lat="48.839554" lon="8.678903">
        <ele>291.6</ele>
        <time>2000-01-01T00:31:51Z</time>
      </trkpt>
      <trkpt lat="48.84177" lon="8.678927">
        <ele>289.1</ele>
        <time>2000-01-01T00:32:30Z</time>
      </trkpt>
      <trkpt lat="48.846886" lon="8.682591">
        <ele>287.2</ele>
        <time>2000-01-01T00:34:07Z</time>
      </trkpt>
      <trkpt lat="48.849014" lon="8.683362">
        <ele>288.4</ele>
        <time>2000-01-01T00:34:49Z</time>
      </trkpt>
      <trkpt lat="48.853611" lon="8.687885">
        <ele>287.1</ele>
        <time>2000-01-01T00:36:30Z</time>
      </trkpt>
      <trkpt lat="48.854523" lon="8.687104">
        <ele>288.5</ele>
        <time>2000-01-01T00:36:51Z</time>
      </trkpt>
      <trkpt lat="48.853783" lon="8.677422">
        <ele>283.4</ele>
        <time>2000-01-01T00:38:36Z</time>
      </trkpt>
      <trkpt lat="48.85453" lon="8.674856">
        <ele>283.5</ele>
        <time>2000-01-01T00:39:10Z</time>
      </trkpt>
      <trkpt lat="48.856178" lon="8.672943">
        <ele>282.7</ele>
        <time>2000-01-01T00:39:48Z</time>
      </trkpt>
      <trkpt lat="48.860603" lon="8.672337">
        <ele>285.7</ele>
        <time>2000-01-01T00:41:17Z</time>
      </trkpt>
      <trkpt lat="48.863453" lon="8.673832">
        <ele>283.9</ele>
        <time>2000-01-01T00:42:18Z</time>
      </trkpt>
      <trkpt lat="48.864811" lon="8.676793">
        <ele>281.9</ele>
        <time>2000-01-01T00:42:54Z</time>
      </trkpt>
      <trkpt lat="48.866657" lon="8.678598">
        <ele>282.2</ele>
        <time>2000-01-01T00:44:56Z</time>
      </trkpt>
      <trkpt lat="48.867935" lon="8.682155">
        <ele>278.3</ele>
        <time>2000-01-01T00:46:05Z</time>
      </trkpt>
      <trkpt lat="48.868343" lon="8.682032">
        <ele>278.2</ele>
        <time>2000-01-01T00:46:17Z</time>
      </trkpt>
      <trkpt lat="48.869179" lon="8.683568">
        <ele>278.3</ele>
        <time>2000-01-01T00:46:49Z</time>
      </trkpt>
      <trkpt lat="48.869739" lon="8.679205">
        <ele>268.7</ele>
        <time>2000-01-01T00:47:49Z</time>
      </trkpt>
      <trkpt lat="48.870968" lon="8.677223">
        <ele>268.2</ele>
        <time>2000-01-01T00:48:21Z</time>
      </trkpt>
      <trkpt lat="48.876419" lon="8.67475">
        <ele>265.3</ele>
        <time>2000-01-01T00:50:07Z</time>
      </trkpt>
      <trkpt lat="48.878662" lon="8.676104">
        <ele>268.8</ele>
        <time>2000-01-01T00:51:06Z</time>
      </trkpt>
      <trkpt lat="48.879127" lon="8.679679">
        <ele>265.8</ele>
        <time>2000-01-01T00:51:52Z</time>
      </trkpt>
      <trkpt lat="48.878731" lon="8.681533">
        <ele>261.2</ele>
        <time>2000-01-01T00:52:08Z</time>
      </trkpt>
      <trkpt lat="48.875423" lon="8.686072">
        <ele>258</ele>
        <time>2000-01-01T00:53:33Z</time>
      </trkpt>
      <trkpt lat="48.874706" lon="8.685631">
        <ele>257.7</ele>
        <time>2000-01-01T00:53:56Z</time>
      </trkpt>
      <trkpt lat="48.874023" lon="8.688123">
        <ele>255.2</ele>
        <time>2000-01-01T00:54:31Z</time>
      </trkpt>
      <trkpt lat="48.874721" lon="8.693464">
        <ele>255.4</ele>
        <time>2000-01-01T00:55:37Z</time>
      </trkpt>
      <trkpt lat="48.875503" lon="8.696197">
        <ele>255.3</ele>
        <time>2000-01-01T00:56:13Z</time>
      </trkpt>
      <trkpt lat="48.877453" lon="8.698823">
        <ele>257.1</ele>
        <time>2000-01-01T00:57:17Z</time>
      </trkpt>
      <trkpt lat="48.876995" lon="8.703771">
        <ele>260.9</ele>
        <time>2000-01-01T00:58:36Z</time>
      </trkpt>
      <trkpt lat="48.872681" lon="8.709135">
        <ele>266.2</ele>
        <time>2000-01-01T01:00:23Z</time>
      </trkpt>
      <trkpt lat="48.871017" lon="8.709714">
        <ele>266.9</ele>
        <time>2000-01-01T01:00:55Z</time>
      </trkpt>
      <trkpt lat="48.868988" lon="8.713667">
        <ele>269.3</ele>
        <time>2000-01-01T01:02:02Z</time>
      </trkpt>
      <trkpt lat="48.867306" lon="8.714219">
        <ele>271.3</ele>
        <time>2000-01-01T01:02:33Z</time>
      </trkpt>
      <trkpt lat="48.865841" lon="8.715789">
        <ele>274.3</ele>
        <time>2000-01-01T01:04:21Z</time>
      </trkpt>
      <trkpt lat="48.86467" lon="8.718263">
        <ele>277</ele>
        <time>2000-01-01T01:04:59Z</time>
      </trkpt>
      <trkpt lat="48.86314" lon="8.725925">
        <ele>287.1</ele>
        <time>2000-01-01T01:08:37Z</time>
      </trkpt>
      <trkpt lat="48.861637" lon="8.72691">
        <ele>284.6</ele>
        <time>2000-01-01T01:09:01Z</time>
      </trkpt>
      <trkpt lat="48.860016" lon="8.72707">
        <ele>289.7</ele>
        <time>2000-01-01T01:09:38Z</time>
      </trkpt>
      <trkpt lat="48.858986" lon="8.728101">
        <ele>294.7</ele>
        <time>2000-01-01T01:10:05Z</time>
      </trkpt>
      <trkpt lat="48.858719" lon="8.730099">
        <ele>296.9</ele>
        <time>2000-01-01T01:10:30Z</time>
      </trkpt>
      <trkpt lat="48.860771" lon="8.73621">
        <ele>293.9</ele>
        <time>2000-01-01T01:11:58Z</time>
      </trkpt>
      <trkpt lat="48.86039" lon="8.741279">
        <ele>314.8</ele>
        <time>2000-01-01T01:13:25Z</time>
      </trkpt>
      <trkpt lat="48.85931" lon="8.742106">
        <ele>314.2</ele>
        <time>2000-01-01T01:13:54Z</time>
      </trkpt>
      <trkpt lat="48.855865" lon="8.742477">
        <ele>296.7</ele>
        <time>2000-01-01T01:14:35Z</time>
      </trkpt>
      <trkpt lat="48.848823" lon="8.739314">
        <ele>301.9</ele>
        <time>2000-01-01T01:16:47Z</time>
      </trkpt>
      <trkpt lat="48.844379" lon="8.738779">
        <ele>312.8</ele>
        <time>2000-01-01T01:18:30Z</time>
      </trkpt>
    </trkseg>
    <trkseg>
      <trkpt lat="48.844284" lon="8.73884">
        <ele>320.7</ele>
        <time>2000-01-01T00:00:00Z</time>
      </trkpt>
      <trkpt lat="48.843246" lon="8.741337">
        <ele>317.3</ele>
        <time>2000-01-01T00:00:51Z</time>
      </trkpt>
      <trkpt lat="48.842323" lon="8.748124">
        <ele>314</ele>
        <time>2000-01-01T00:02:12Z</time>
      </trkpt>
      <trkpt lat="48.840847" lon="8.748897">
        <ele>314.6</ele>
        <time>2000-01-01T00:02:40Z</time>
      </trkpt>
      <trkpt lat="48.837353" lon="8.745869">
        <ele>321.4</ele>
        <time>2000-01-01T00:04:00Z</time>
      </trkpt>
      <trkpt lat="48.836281" lon="8.74587">
        <ele>323.9</ele>
        <time>2000-01-01T00:04:22Z</time>
      </trkpt>
      <trkpt lat="48.835438" lon="8.747296">
        <ele>325.6</ele>
        <time>2000-01-01T00:04:45Z</time>
      </trkpt>
      <trkpt lat="48.834843" lon="8.75255">
        <ele>327.3</ele>
        <time>2000-01-01T00:05:50Z</time>
      </trkpt>
      <trkpt lat="48.833507" lon="8.756365">
        <ele>327.5</ele>
        <time>2000-01-01T00:08:10Z</time>
      </trkpt>
      <trkpt lat="48.833168" lon="8.759372">
        <ele>324.6</ele>
        <time>2000-01-01T00:08:48Z</time>
      </trkpt>
      <trkpt lat="48.833542" lon="8.762374">
        <ele>323.2</ele>
        <time>2000-01-01T00:09:24Z</time>
      </trkpt>
      <trkpt lat="48.835216" lon="8.768118">
        <ele>326.4</ele>
        <time>2000-01-01T00:11:12Z</time>
      </trkpt>
      <trkpt lat="48.83469" lon="8.77006">
        <ele>326.3</ele>
        <time>2000-01-01T00:11:38Z</time>
      </trkpt>
      <trkpt lat="48.832802" lon="8.772463">
        <ele>329.5</ele>
        <time>2000-01-01T00:12:27Z</time>
      </trkpt>
      <trkpt lat="48.832344" lon="8.77381">
        <ele>330.3</ele>
        <time>2000-01-01T00:12:47Z</time>
      </trkpt>
      <trkpt lat="48.832821" lon="8.778465">
        <ele>333.3</ele>
        <time>2000-01-01T00:13:48Z</time>
      </trkpt>
      <trkpt lat="48.831058" lon="8.781781">
        <ele>335.1</ele>
        <time>2000-01-01T00:14:40Z</time>
      </trkpt>
      <trkpt lat="48.830658" lon="8.786747">
        <ele>337.6</ele>
        <time>2000-01-01T00:15:43Z</time>
      </trkpt>
      <trkpt lat="48.828735" lon="8.786213">
        <ele>337.6</ele>
        <time>2000-01-01T00:16:21Z</time>
      </trkpt>
      <trkpt lat="48.824337" lon="8.78734">
        <ele>341.3</ele>
        <time>2000-01-01T00:17:56Z</time>
      </trkpt>
      <trkpt lat="48.820274" lon="8.785915">
        <ele>348.6</ele>
        <time>2000-01-01T00:19:14Z</time>
      </trkpt>
      <trkpt lat="48.818649" lon="8.78579">
        <ele>354.3</ele>
        <time>2000-01-01T00:19:45Z</time>
      </trkpt>
      <trkpt lat="48.817741" lon="8.786396">
        <ele>355</ele>
        <time>2000-01-01T00:20:01Z</time>
      </trkpt>
      <trkpt lat="48.816715" lon="8.788583">
        <ele>351.4</ele>
        <time>2000-01-01T00:20:26Z</time>
      </trkpt>
      <trkpt lat="48.817219" lon="8.792294">
        <ele>351.8</ele>
        <time>2000-01-01T00:21:22Z</time>
      </trkpt>
      <trkpt lat="48.818565" lon="8.796996">
        <ele>353.7</ele>
        <time>2000-01-01T00:22:32Z</time>
      </trkpt>
      <trkpt lat="48.818455" lon="8.798923">
        <ele>354.3</ele>
        <time>2000-01-01T00:23:01Z</time>
      </trkpt>
      <trkpt lat="48.815651" lon="8.799786">
        <ele>355.3</ele>
        <time>2000-01-01T00:23:54Z</time>
      </trkpt>
      <trkpt lat="48.810982" lon="8.806008">
        <ele>357.3</ele>
        <time>2000-01-01T00:25:45Z</time>
      </trkpt>
      <trkpt lat="48.809696" lon="8.805448">
        <ele>357.9</ele>
        <time>2000-01-01T00:26:10Z</time>
      </trkpt>
      <trkpt lat="48.808056" lon="8.802534">
        <ele>361.8</ele>
        <time>2000-01-01T00:26:58Z</time>
      </trkpt>
      <trkpt lat="48.8064" lon="8.802245">
        <ele>368.8</ele>
        <time>2000-01-01T00:27:48Z</time>
      </trkpt>
      <trkpt lat="48.805679" lon="8.806997">
        <ele>379.5</ele>
        <time>2000-01-01T00:28:55Z</time>
      </trkpt>
      <trkpt lat="48.80479" lon="8.808996">
        <ele>378.8</ele>
        <time>2000-01-01T00:29:23Z</time>
      </trkpt>
      <trkpt lat="48.804932" lon="8.8111">
        <ele>375.2</ele>
        <time>2000-01-01T00:29:47Z</time>
      </trkpt>
      <trkpt lat="48.803932" lon="8.813147">
        <ele>369.5</ele>
        <time>2000-01-01T00:30:09Z</time>
      </trkpt>
      <trkpt lat="48.803692" lon="8.815626">
        <ele>366.5</ele>
        <time>2000-01-01T00:30:36Z</time>
      </trkpt>
      <trkpt lat="48.805668" lon="8.818918">
        <ele>364.2</ele>
        <time>2000-01-01T00:31:38Z</time>
      </trkpt>
    </trkseg>
    <trkseg>
      <trkpt lat="48.805702" lon="8.819023">
        <ele>366.2</ele>
        <time>2000-01-01T00:00:00Z</time>
      </trkpt>
      <trkpt lat="48.806099" lon="8.821925">
        <ele>366.4</ele>
        <time>2000-01-01T00:00:55Z</time>
      </trkpt>
      <trkpt lat="48.803566" lon="8.824123">
        <ele>376.6</ele>
        <time>2000-01-01T00:02:03Z</time>
      </trkpt>
      <trkpt lat="48.805012" lon="8.829009">
        <ele>392.8</ele>
        <time>2000-01-01T00:03:29Z</time>
      </trkpt>
      <trkpt lat="48.798408" lon="8.838763">
        <ele>393.8</ele>
        <time>2000-01-01T00:06:14Z</time>
      </trkpt>
      <trkpt lat="48.795925" lon="8.840258">
        <ele>389.8</ele>
        <time>2000-01-01T00:06:58Z</time>
      </trkpt>
      <trkpt lat="48.794247" lon="8.842139">
        <ele>383.3</ele>
        <time>2000-01-01T00:07:26Z</time>
      </trkpt>
      <trkpt lat="48.79314" lon="8.841234">
        <ele>386.8</ele>
        <time>2000-01-01T00:07:54Z</time>
      </trkpt>
      <trkpt lat="48.791855" lon="8.844333">
        <ele>404.4</ele>
        <time>2000-01-01T00:09:20Z</time>
      </trkpt>
      <trkpt lat="48.78635" lon="8.848505">
        <ele>408.9</ele>
        <time>2000-01-01T00:11:15Z</time>
      </trkpt>
      <trkpt lat="48.784569" lon="8.852663">
        <ele>397.5</ele>
        <time>2000-01-01T00:12:05Z</time>
      </trkpt>
      <trkpt lat="48.782909" lon="8.854057">
        <ele>389.6</ele>
        <time>2000-01-01T00:12:24Z</time>
      </trkpt>
      <trkpt lat="48.779816" lon="8.854074">
        <ele>391.9</ele>
        <time>2000-01-01T00:13:15Z</time>
      </trkpt>
      <trkpt lat="48.776157" lon="8.853011">
        <ele>395.8</ele>
        <time>2000-01-01T00:14:29Z</time>
      </trkpt>
      <trkpt lat="48.773495" lon="8.853423">
        <ele>384.7</ele>
        <time>2000-01-01T00:15:12Z</time>
      </trkpt>
      <trkpt lat="48.773167" lon="8.857636">
        <ele>385.4</ele>
        <time>2000-01-01T00:17:28Z</time>
      </trkpt>
      <trkpt lat="48.772083" lon="8.86005">
        <ele>386.3</ele>
        <time>2000-01-01T00:18:14Z</time>
      </trkpt>
      <trkpt lat="48.7687" lon="8.862883">
        <ele>394.4</ele>
        <time>2000-01-01T00:19:43Z</time>
      </trkpt>
      <trkpt lat="48.765591" lon="8.867081">
        <ele>388.9</ele>
        <time>2000-01-01T00:20:49Z</time>
      </trkpt>
      <trkpt lat="48.762733" lon="8.864518">
        <ele>384.3</ele>
        <time>2000-01-01T00:21:47Z</time>
      </trkpt>
      <trkpt lat="48.761402" lon="8.870111">
        <ele>384.3</ele>
        <time>2000-01-01T00:22:56Z</time>
      </trkpt>
      <trkpt lat="48.762909" lon="8.876475">
        <ele>386.3</ele>
        <time>2000-01-01T00:24:19Z</time>
      </trkpt>
      <trkpt lat="48.761391" lon="8.876483">
        <ele>385.7</ele>
        <time>2000-01-01T00:24:53Z</time>
      </trkpt>
      <trkpt lat="48.76157" lon="8.879195">
        <ele>385.7</ele>
        <time>2000-01-01T00:25:28Z</time>
      </trkpt>
      <trkpt lat="48.760826" lon="8.880194">
        <ele>385.6</ele>
        <time>2000-01-01T00:25:49Z</time>
      </trkpt>
      <trkpt lat="48.757645" lon="8.878651">
        <ele>384.9</ele>
        <time>2000-01-01T00:26:51Z</time>
      </trkpt>
      <trkpt lat="48.753975" lon="8.87412">
        <ele>388.2</ele>
        <time>2000-01-01T00:28:25Z</time>
      </trkpt>
      <trkpt lat="48.749985" lon="8.873746">
        <ele>389.9</ele>
        <time>2000-01-01T00:30:02Z</time>
      </trkpt>
      <trkpt lat="48.749847" lon="8.87649">
        <ele>390</ele>
        <time>2000-01-01T00:31:47Z</time>
      </trkpt>
      <trkpt lat="48.746666" lon="8.876717">
        <ele>387.9</ele>
        <time>2000-01-01T00:32:49Z</time>
      </trkpt>
      <trkpt lat="48.74596" lon="8.877365">
        <ele>388.4</ele>
        <time>2000-01-01T00:33:09Z</time>
      </trkpt>
      <trkpt lat="48.742672" lon="8.876616">
        <ele>391.2</ele>
        <time>2000-01-01T00:34:15Z</time>
      </trkpt>
      <trkpt lat="48.740017" lon="8.877259">
        <ele>392.8</ele>
        <time>2000-01-01T00:35:02Z</time>
      </trkpt>
      <trkpt lat="48.739151" lon="8.878084">
        <ele>394.3</ele>
        <time>2000-01-01T00:35:19Z</time>
      </trkpt>
      <trkpt lat="48.738293" lon="8.880893">
        <ele>400.5</ele>
        <time>2000-01-01T00:36:01Z</time>
      </trkpt>
      <trkpt lat="48.736668" lon="8.883152">
        <ele>403.4</ele>
        <time>2000-01-01T00:36:41Z</time>
      </trkpt>
      <trkpt lat="48.730358" lon="8.883622">
        <ele>404</ele>
        <time>2000-01-01T00:38:34Z</time>
      </trkpt>
      <trkpt lat="48.728916" lon="8.884558">
        <ele>402.1</ele>
        <time>2000-01-01T00:39:03Z</time>
      </trkpt>
      <trkpt lat="48.727901" lon="8.891667">
        <ele>399.9</ele>
        <time>2000-01-01T00:40:29Z</time>
      </trkpt>
      <trkpt lat="48.72755" lon="8.891115">
        <ele>400.4</ele>
        <time>2000-01-01T00:40:46Z</time>
      </trkpt>
      <trkpt lat="48.726684" lon="8.892398">
        <ele>401.4</ele>
        <time>2000-01-01T00:41:25Z</time>
      </trkpt>
      <trkpt lat="48.724796" lon="8.892408">
        <ele>400.8</ele>
        <time>2000-01-01T00:42:09Z</time>
      </trkpt>
      <trkpt lat="48.721046" lon="8.895609">
        <ele>400.5</ele>
        <time>2000-01-01T00:44:04Z</time>
      </trkpt>
      <trkpt lat="48.717293" lon="8.901063">
        <ele>399.5</ele>
        <time>2000-01-01T00:45:37Z</time>
      </trkpt>
      <trkpt lat="48.7141" lon="8.907858">
        <ele>404.3</ele>
        <time>2000-01-01T00:47:24Z</time>
      </trkpt>
      <trkpt lat="48.715858" lon="8.910189">
        <ele>410.7</ele>
        <time>2000-01-01T00:48:09Z</time>
      </trkpt>
      <trkpt lat="48.717239" lon="8.91322">
        <ele>426.9</ele>
        <time>2000-01-01T00:49:04Z</time>
      </trkpt>
      <trkpt lat="48.716926" lon="8.916016">
        <ele>449</ele>
        <time>2000-01-01T00:50:23Z</time>
      </trkpt>
      <trkpt lat="48.718384" lon="8.921127">
        <ele>467.1</ele>
        <time>2000-01-01T00:52:00Z</time>
      </trkpt>
    </trkseg>
    <trkseg>
      <trkpt lat="48.718357" lon="8.921145">
        <ele>471.3</ele>
        <time>2000-01-01T00:00:00Z</time>
      </trkpt>
      <trkpt lat="48.71867" lon="8.922731">
        <ele>471</ele>
        <time>2000-01-01T00:00:42Z</time>
      </trkpt>
      <trkpt lat="48.719849" lon="8.924553">
        <ele>469</ele>
        <time>2000-01-01T00:01:15Z</time>
      </trkpt>
      <trkpt lat="48.72245" lon="8.926554">
        <ele>474.3</ele>
        <time>2000-01-01T00:02:17Z</time>
      </trkpt>
      <trkpt lat="48.724522" lon="8.931917">
        <ele>490.2</ele>
        <time>2000-01-01T00:03:46Z</time>
      </trkpt>
      <trkpt lat="48.726715" lon="8.935543">
        <ele>501.9</ele>
        <time>2000-01-01T00:04:49Z</time>
      </trkpt>
      <trkpt lat="48.727447" lon="8.939029">
        <ele>501.2</ele>
        <time>2000-01-01T00:05:33Z</time>
      </trkpt>
      <trkpt lat="48.728611" lon="8.938288">
        <ele>501.4</ele>
        <time>2000-01-01T00:06:06Z</time>
      </trkpt>
      <trkpt lat="48.730099" lon="8.943707">
        <ele>494.7</ele>
        <time>2000-01-01T00:07:15Z</time>
      </trkpt>
      <trkpt lat="48.728508" lon="8.953895">
        <ele>488.7</ele>
        <time>2000-01-01T00:09:23Z</time>
      </trkpt>
      <trkpt lat="48.726414" lon="8.959392">
        <ele>472.5</ele>
        <time>2000-01-01T00:10:33Z</time>
      </trkpt>
      <trkpt lat="48.726005" lon="8.961622">
        <ele>465.7</ele>
        <time>2000-01-01T00:10:50Z</time>
      </trkpt>
      <trkpt lat="48.725429" lon="8.962098">
        <ele>465.7</ele>
        <time>2000-01-01T00:11:08Z</time>
      </trkpt>
      <trkpt lat="48.725342" lon="8.963412">
        <ele>465.7</ele>
        <time>2000-01-01T00:11:24Z</time>
      </trkpt>
      <trkpt lat="48.72567" lon="8.963548">
        <ele>465.7</ele>
        <time>2000-01-01T00:11:37Z</time>
      </trkpt>
    </trkseg>
  </trk>
</gpx>