<?xml version="1.0" encoding="UTF-8"?>
<gpx xmlns="http://www.topografix.com/GPX/1/1" xmlns:xsi="http://www.w3.org/2001/XMLSchema-instance" xsi:schemaLocation="http://www.topografix.com/GPX/1/1 http://www.topografix.com/GPX/1/1/gpx.xsd" version="1.1" creator="gpx.py -- https://github.com/tkrajina/gpxpy">
  <metadata>
    <name>Magstadt_3f5f6b04</name>
  </metadata>
  <trk>
    <name>Magstadt_3f5f6b04</name>
    <trkseg>
      <trkpt lat="48.726677" lon="8.957085">
        <ele>482.8</ele>
        <time>2000-01-01T00:00:00Z</time>
      </trkpt>
      <trkpt lat="48.726345" lon="8.950325">
        <ele>480.4</ele>
        <time>2000-01-01T00:03:01Z</time>
      </trkpt>
      <trkpt lat="48.724613" lon="8.941243">
        <ele>476.5</ele>
        <time>2000-01-01T00:05:01Z</time>
      </trkpt>
      <trkpt lat="48.73077" lon="8.936639">
        <ele>490</ele>
        <time>2000-01-01T00:07:53Z</time>
      </trkpt>
      <trkpt lat="48.733601" lon="8.937053">
        <ele>476.8</ele>
        <time>2000-01-01T00:08:55Z</time>
      </trkpt>
      <trkpt lat="48.732803" lon="8.939004">
        <ele>478.1</ele>
        <time>2000-01-01T00:09:38Z</time>
      </trkpt>
      <trkpt lat="48.732708" lon="8.940731">
        <ele>478.7</ele>
        <time>2000-01-01T00:10:02Z</time>
      </trkpt>
      <trkpt lat="48.7337" lon="8.944731">
        <ele>468.5</ele>
        <time>2000-01-01T00:10:47Z</time>
      </trkpt>
      <trkpt lat="48.73418" lon="8.944087">
        <ele>466.6</ele>
        <time>2000-01-01T00:11:08Z</time>
      </trkpt>
      <trkpt lat="48.737224" lon="8.944659">
        <ele>460.5</ele>
        <time>2000-01-01T00:12:06Z</time>
      </trkpt>
      <trkpt lat="48.739277" lon="8.946442">
        <ele>455.7</ele>
        <time>2000-01-01T00:13:00Z</time>
      </trkpt>
      <trkpt lat="48.738579" lon="8.955463">
        <ele>466.3</ele>
        <time>2000-01-01T00:15:11Z</time>
      </trkpt>
      <trkpt lat="48.738151" lon="8.95585">
        <ele>465.7</ele>
        <time>2000-01-01T00:15:22Z</time>
      </trkpt>
      <trkpt lat="48.739887" lon="8.963132">
        <ele>449.7</ele>
        <time>2000-01-01T00:16:55Z</time>
      </trkpt>
    </trkseg>
    <trkseg>
      <trkpt lat="48.739941" lon="8.963118">
        <ele>435.2</ele>
        <time>2000-01-01T00:00:00Z</time>
      </trkpt>
      <trkpt lat="48.739067" lon="8.958394">
        <ele>458.1</ele>
        <time>2000-01-01T00:01:58Z</time>
      </trkpt>
      <trkpt lat="48.738258" lon="8.957292">
        <ele>466.3</ele>
        <time>2000-01-01T00:02:40Z</time>
      </trkpt>
      <trkpt lat="48.737366" lon="8.957844">
        <ele>470.5</ele>
        <time>2000-01-01T00:03:27Z</time>
      </trkpt>
      <trkpt lat="48.737625" lon="8.956166">
        <ele>472.9</ele>
        <time>2000-01-01T00:04:19Z</time>
      </trkpt>
      <trkpt lat="48.734451" lon="8.959531">
        <ele>461.6</ele>
        <time>2000-01-01T00:05:47Z</time>
      </trkpt>
      <trkpt lat="48.733578" lon="8.963421">
        <ele>464.3</ele>
        <time>2000-01-01T00:06:58Z</time>
      </trkpt>
      <trkpt lat="48.733108" lon="8.963867">
        <ele>466.6</ele>
        <time>2000-01-01T00:07:19Z</time>
      </trkpt>
      <trkpt lat="48.725574" lon="8.96357">
        <ele>470.2</ele>
        <time>2000-01-01T00:11:24Z</time>
      </trkpt>
    </trkseg>
  </trk>
</gpx>