<?xml version="1.0" encoding="UTF-8"?>
<gpx xmlns="http://www.topografix.com/GPX/1/1" xmlns:xsi="http://www.w3.org/2001/XMLSchema-instance" xsi:schemaLocation="http://www.topografix.com/GPX/1/1 http://www.topografix.com/GPX/1/1/gpx.xsd" version="1.1" creator="gpx.py -- https://github.com/tkrajina/gpxpy">
  <metadata>
    <name>Sindelfingen_3687808d</name>
  </metadata>
  <trk>
    <name>Sindelfingen_3687808d</name>
    <trkseg>
      <trkpt lat="48.725387" lon="8.963712">
        <ele>468.9</ele>
        <time>2000-01-01T00:00:00Z</time>
      </trkpt>
      <trkpt lat="48.724964" lon="8.965135">
        <ele>468.7</ele>
        <time>2000-01-01T00:01:02Z</time>
      </trkpt>
      <trkpt lat="48.722755" lon="8.964993">
        <ele>467.4</ele>
        <time>2000-01-01T00:02:00Z</time>
      </trkpt>
      <trkpt lat="48.718887" lon="8.968478">
        <ele>455.1</ele>
        <time>2000-01-01T00:03:16Z</time>
      </trkpt>
      <trkpt lat="48.717949" lon="8.970588">
        <ele>451.3</ele>
        <time>2000-01-01T00:03:54Z</time>
      </trkpt>
      <trkpt lat="48.713192" lon="8.97529">
        <ele>449.3</ele>
        <time>2000-01-01T00:05:35Z</time>
      </trkpt>
      <trkpt lat="48.71109" lon="8.978951">
        <ele>448.7</ele>
        <time>2000-01-01T00:06:35Z</time>
      </trkpt>
      <trkpt lat="48.708675" lon="8.986449">
        <ele>444.7</ele>
        <time>2000-01-01T00:08:43Z</time>
      </trkpt>
      <trkpt lat="48.707111" lon="8.985398">
        <ele>445.5</ele>
        <time>2000-01-01T00:09:23Z</time>
      </trkpt>
      <trkpt lat="48.70689" lon="8.989884">
        <ele>442.4</ele>
        <time>2000-01-01T00:10:15Z</time>
      </trkpt>
      <trkpt lat="48.704243" lon="8.988966">
        <ele>441.9</ele>
        <time>2000-01-01T00:12:05Z</time>
      </trkpt>
    </trkseg>
    <trkseg>
      <trkpt lat="48.704296" lon="8.988908">
        <ele>440.2</ele>
        <time>2000-01-01T00:00:00Z</time>
      </trkpt>
      <trkpt lat="48.706337" lon="8.990225">
        <ele>441.2</ele>
        <time>2000-01-01T00:01:11Z</time>
      </trkpt>
      <trkpt lat="48.706108" lon="8.993238">
        <ele>440.2</ele>
        <time>2000-01-01T00:02:05Z</time>
      </trkpt>
      <trkpt lat="48.704136" lon="8.999458">
        <ele>433</ele>
        <time>2000-01-01T00:03:34Z</time>
      </trkpt>
      <trkpt lat="48.705379" lon="8.999778">
        <ele>433</ele>
        <time>2000-01-01T00:05:06Z</time>
      </trkpt>
    </trkseg>
    <trkseg>
      <trkpt lat="48.705433" lon="8.999715">
        <ele>439.7</ele>
        <time>2000-01-01T00:00:00Z</time>
      </trkpt>
      <trkpt lat="48.704407" lon="8.999316">
        <ele>439.9</ele>
        <time>2000-01-01T00:00:34Z</time>
      </trkpt>
      <trkpt lat="48.706299" lon="8.993471">
        <ele>445.7</ele>
        <time>2000-01-01T00:02:49Z</time>
      </trkpt>
      <trkpt lat="48.705746" lon="8.992711">
        <ele>447.8</ele>
        <time>2000-01-01T00:03:07Z</time>
      </trkpt>
      <trkpt lat="48.706295" lon="8.990289">
        <ele>447.8</ele>
        <time>2000-01-01T00:03:38Z</time>
      </trkpt>
      <trkpt lat="48.705627" lon="8.990229">
        <ele>447.8</ele>
        <time>2000-01-01T00:04:10Z</time>
      </trkpt>
    </trkseg>
    <trkseg>
      <trkpt lat="48.705646" lon="8.990203">
        <ele>441.8</ele>
        <time>2000-01-01T00:00:00Z</time>
      </trkpt>
      <trkpt lat="48.706982" lon="8.989844">
        <ele>442.7</ele>
        <time>2000-01-01T00:01:01Z</time>
      </trkpt>
      <trkpt lat="48.707138" lon="8.985391">
        <ele>445.3</ele>
        <time>2000-01-01T00:01:59Z</time>
      </trkpt>
      <trkpt lat="48.708778" lon="8.986224">
        <ele>444.4</ele>
        <time>2000-01-01T00:02:50Z</time>
      </trkpt>
      <trkpt lat="48.71133" lon="8.978425">
        <ele>445</ele>
        <time>2000-01-01T00:04:39Z</time>
      </trkpt>
      <trkpt lat="48.713325" lon="8.975154">
        <ele>442.3</ele>
        <time>2000-01-01T00:05:29Z</time>
      </trkpt>
      <trkpt lat="48.718731" lon="8.969859">
        <ele>445.1</ele>
        <time>2000-01-01T00:07:28Z</time>
      </trkpt>
      <trkpt lat="48.718952" lon="8.96841">
        <ele>446.6</ele>
        <time>2000-01-01T00:07:53Z</time>
      </trkpt>
      <trkpt lat="48.722858" lon="8.964903">
        <ele>458.9</ele>
        <time>2000-01-01T00:09:22Z</time>
      </trkpt>
      <trkpt lat="48.72522" lon="8.965009">
        <ele>459.6</ele>
        <time>2000-01-01T00:10:05Z</time>
      </trkpt>
      <trkpt lat="48.725346" lon="8.963674">
        <ele>459.6</ele>
        <time>2000-01-01T00:10:23Z</time>
      </trkpt>
      <trkpt lat="48.725723" lon="8.963533">
        <ele>459.6</ele>
        <time>2000-01-01T00:11:02Z</time>
      </trkpt>
    </trkseg>
  </trk>
</gpx>