<?xml version="1.0" encoding="UTF-8"?>
<gpx xmlns="http://www.topografix.com/GPX/1/1" xmlns:xsi="http://www.w3.org/2001/XMLSchema-instance" xsi:schemaLocation="http://www.topografix.com/GPX/1/1 http://www.topografix.com/GPX/1/1/gpx.xsd" version="1.1" creator="gpx.py -- https://github.com/tkrajina/gpxpy">
  <metadata>
    <name>Sindelfingen_4fe66284</name>
  </metadata>
  <trk>
    <name>Sindelfingen_4fe66284</name>
    <trkseg>
      <trkpt lat="48.72549" lon="8.963612">
        <ele>469.1</ele>
        <time>2000-01-01T00:00:00Z</time>
      </trkpt>
      <trkpt lat="48.725201" lon="8.964998">
        <ele>468.5</ele>
        <time>2000-01-01T00:00:58Z</time>
      </trkpt>
      <trkpt lat="48.722755" lon="8.964899">
        <ele>465.4</ele>
        <time>2000-01-01T00:02:59Z</time>
      </trkpt>
      <trkpt lat="48.718918" lon="8.968437">
        <ele>452.2</ele>
        <time>2000-01-01T00:04:16Z</time>
      </trkpt>
      <trkpt lat="48.718662" lon="8.970329">
        <ele>448.1</ele>
        <time>2000-01-01T00:04:59Z</time>
      </trkpt>
      <trkpt lat="48.713127" lon="8.976452">
        <ele>445.1</ele>
        <time>2000-01-01T00:07:08Z</time>
      </trkpt>
      <trkpt lat="48.709629" lon="8.989616">
        <ele>439.2</ele>
        <time>2000-01-01T00:09:55Z</time>
      </trkpt>
      <trkpt lat="48.708778" lon="8.991253">
        <ele>440.6</ele>
        <time>2000-01-01T00:10:23Z</time>
      </trkpt>
      <trkpt lat="48.707447" lon="8.992373">
        <ele>442</ele>
        <time>2000-01-01T00:10:56Z</time>
      </trkpt>
      <trkpt lat="48.70734" lon="8.993126">
        <ele>442.5</ele>
        <time>2000-01-01T00:11:26Z</time>
      </trkpt>
      <trkpt lat="48.706882" lon="8.992547">
        <ele>442.2</ele>
        <time>2000-01-01T00:13:13Z</time>
      </trkpt>
      <trkpt lat="48.706936" lon="8.989917">
        <ele>440.8</ele>
        <time>2000-01-01T00:13:45Z</time>
      </trkpt>
      <trkpt lat="48.705395" lon="8.989789">
        <ele>439.1</ele>
        <time>2000-01-01T00:16:35Z</time>
      </trkpt>
      <trkpt lat="48.704292" lon="8.988785">
        <ele>439.1</ele>
        <time>2000-01-01T00:17:12Z</time>
      </trkpt>
    </trkseg>
    <trkseg>
      <trkpt lat="48.704296" lon="8.989025">
        <ele>439.6</ele>
        <time>2000-01-01T00:00:00Z</time>
      </trkpt>
      <trkpt lat="48.706341" lon="8.990151">
        <ele>440.9</ele>
        <time>2000-01-01T00:01:37Z</time>
      </trkpt>
      <trkpt lat="48.706982" lon="8.989848">
        <ele>441.5</ele>
        <time>2000-01-01T00:02:11Z</time>
      </trkpt>
      <trkpt lat="48.707294" lon="8.982222">
        <ele>451.4</ele>
        <time>2000-01-01T00:03:52Z</time>
      </trkpt>
      <trkpt lat="48.708774" lon="8.969775">
        <ele>446.4</ele>
        <time>2000-01-01T00:09:52Z</time>
      </trkpt>
      <trkpt lat="48.715561" lon="8.970457">
        <ele>451.9</ele>
        <time>2000-01-01T00:12:15Z</time>
      </trkpt>
      <trkpt lat="48.716362" lon="8.966315">
        <ele>449.7</ele>
        <time>2000-01-01T00:13:10Z</time>
      </trkpt>
      <trkpt lat="48.718178" lon="8.966736">
        <ele>446.6</ele>
        <time>2000-01-01T00:13:47Z</time>
      </trkpt>
      <trkpt lat="48.718243" lon="8.968548">
        <ele>445.1</ele>
        <time>2000-01-01T00:14:13Z</time>
      </trkpt>
      <trkpt lat="48.718536" lon="8.968567">
        <ele>444.8</ele>
        <time>2000-01-01T00:14:39Z</time>
      </trkpt>
      <trkpt lat="48.720848" lon="8.967129">
        <ele>451.8</ele>
        <time>2000-01-01T00:15:28Z</time>
      </trkpt>
      <trkpt lat="48.723007" lon="8.964831">
        <ele>458.6</ele>
        <time>2000-01-01T00:16:19Z</time>
      </trkpt>
      <trkpt lat="48.725204" lon="8.965107">
        <ele>459.2</ele>
        <time>2000-01-01T00:17:10Z</time>
      </trkpt>
      <trkpt lat="48.725666" lon="8.963511">
        <ele>459.2</ele>
        <time>2000-01-01T00:18:15Z</time>
      </trkpt>
    </trkseg>
  </trk>
</gpx>