<?xml version="1.0" encoding="UTF-8"?>
<gpx xmlns="http://www.topografix.com/GPX/1/1" xmlns:xsi="http://www.w3.org/2001/XMLSchema-instance" xsi:schemaLocation="http://www.topografix.com/GPX/1/1 http://www.topografix.com/GPX/1/1/gpx.xsd" version="1.1" creator="gpx.py -- https://github.com/tkrajina/gpxpy">
  <metadata>
    <name>Sindelfingen_68081af5</name>
  </metadata>
  <trk>
    <name>Sindelfingen_68081af5</name>
    <trkseg>
      <trkpt lat="48.725753" lon="8.963332">
        <ele>469.1</ele>
        <time>2000-01-01T00:00:00Z</time>
      </trkpt>
      <trkpt lat="48.725319" lon="8.963623">
        <ele>469.1</ele>
        <time>2000-01-01T00:00:36Z</time>
      </trkpt>
      <trkpt lat="48.72517" lon="8.965002">
        <ele>468.7</ele>
        <time>2000-01-01T00:00:58Z</time>
      </trkpt>
      <trkpt lat="48.722702" lon="8.964863">
        <ele>467.1</ele>
        <time>2000-01-01T00:01:49Z</time>
      </trkpt>
      <trkpt lat="48.72134" lon="8.966657">
        <ele>463.7</ele>
        <time>2000-01-01T00:02:19Z</time>
      </trkpt>
      <trkpt lat="48.718941" lon="8.968419">
        <ele>455.2</ele>
        <time>2000-01-01T00:03:01Z</time>
      </trkpt>
      <trkpt lat="48.7178" lon="8.97065">
        <ele>452.1</ele>
        <time>2000-01-01T00:03:52Z</time>
      </trkpt>
      <trkpt lat="48.713726" lon="8.974443">
        <ele>450.4</ele>
        <time>2000-01-01T00:05:19Z</time>
      </trkpt>
      <trkpt lat="48.711239" lon="8.978627">
        <ele>449.3</ele>
        <time>2000-01-01T00:06:25Z</time>
      </trkpt>
      <trkpt lat="48.708599" lon="8.986063">
        <ele>445.4</ele>
        <time>2000-01-01T00:08:15Z</time>
      </trkpt>
      <trkpt lat="48.705585" lon="8.989786">
        <ele>443.4</ele>
        <time>2000-01-01T00:11:27Z</time>
      </trkpt>
      <trkpt lat="48.704353" lon="8.988647">
        <ele>443.4</ele>
        <time>2000-01-01T00:12:11Z</time>
      </trkpt>
    </trkseg>
    <trkseg>
      <trkpt lat="48.70433" lon="8.988806">
        <ele>438.1</ele>
        <time>2000-01-01T00:00:00Z</time>
      </trkpt>
      <trkpt lat="48.703205" lon="8.988205">
        <ele>437.1</ele>
        <time>2000-01-01T00:00:28Z</time>
      </trkpt>
      <trkpt lat="48.702553" lon="8.99056">
        <ele>434.1</ele>
        <time>2000-01-01T00:01:18Z</time>
      </trkpt>
      <trkpt lat="48.701927" lon="8.990817">
        <ele>434.4</ele>
        <time>2000-01-01T00:01:41Z</time>
      </trkpt>
      <trkpt lat="48.701065" lon="8.994046">
        <ele>434.7</ele>
        <time>2000-01-01T00:02:28Z</time>
      </trkpt>
      <trkpt lat="48.704166" lon="8.996418">
        <ele>436.3</ele>
        <time>2000-01-01T00:03:32Z</time>
      </trkpt>
      <trkpt lat="48.701904" lon="9.003299">
        <ele>436.4</ele>
        <time>2000-01-01T00:04:57Z</time>
      </trkpt>
      <trkpt lat="48.700172" lon="9.00463">
        <ele>436.2</ele>
        <time>2000-01-01T00:05:42Z</time>
      </trkpt>
      <trkpt lat="48.698448" lon="9.004529">
        <ele>436.2</ele>
        <time>2000-01-01T00:06:40Z</time>
      </trkpt>
    </trkseg>
    <trkseg>
      <trkpt lat="48.698402" lon="9.004815">
        <ele>439.7</ele>
        <time>2000-01-01T00:00:00Z</time>
      </trkpt>
      <trkpt lat="48.699261" lon="9.00428">
        <ele>439.7</ele>
        <time>2000-01-01T00:00:22Z</time>
      </trkpt>
      <trkpt lat="48.700184" lon="9.004668">
        <ele>439.7</ele>
        <time>2000-01-01T00:00:41Z</time>
      </trkpt>
      <trkpt lat="48.701877" lon="9.003342">
        <ele>440.3</ele>
        <time>2000-01-01T00:01:45Z</time>
      </trkpt>
      <trkpt lat="48.704201" lon="8.996488">
        <ele>441.1</ele>
        <time>2000-01-01T00:03:26Z</time>
      </trkpt>
      <trkpt lat="48.702808" lon="8.995252">
        <ele>440.2</ele>
        <time>2000-01-01T00:03:56Z</time>
      </trkpt>
      <trkpt lat="48.702606" lon="8.990374">
        <ele>439.4</ele>
        <time>2000-01-01T00:05:41Z</time>
      </trkpt>
      <trkpt lat="48.703243" lon="8.988171">
        <ele>439.4</ele>
        <time>2000-01-01T00:06:13Z</time>
      </trkpt>
      <trkpt lat="48.704285" lon="8.988886">
        <ele>439.4</ele>
        <time>2000-01-01T00:06:40Z</time>
      </trkpt>
    </trkseg>
    <trkseg>
      <trkpt lat="48.704311" lon="8.989161">
        <ele>439.8</ele>
        <time>2000-01-01T00:00:00Z</time>
      </trkpt>
      <trkpt lat="48.706436" lon="8.990188">
        <ele>441</ele>
        <time>2000-01-01T00:01:18Z</time>
      </trkpt>
      <trkpt lat="48.706951" lon="8.989883">
        <ele>441.5</ele>
        <time>2000-01-01T00:01:33Z</time>
      </trkpt>
      <trkpt lat="48.707119" lon="8.985349">
        <ele>444.8</ele>
        <time>2000-01-01T00:02:37Z</time>
      </trkpt>
      <trkpt lat="48.708687" lon="8.98632">
        <ele>444.2</ele>
        <time>2000-01-01T00:04:24Z</time>
      </trkpt>
      <trkpt lat="48.711147" lon="8.978868">
        <ele>445.9</ele>
        <time>2000-01-01T00:06:09Z</time>
      </trkpt>
      <trkpt lat="48.713222" lon="8.975288">
        <ele>444</ele>
        <time>2000-01-01T00:07:01Z</time>
      </trkpt>
      <trkpt lat="48.718685" lon="8.969717">
        <ele>445.5</ele>
        <time>2000-01-01T00:09:00Z</time>
      </trkpt>
      <trkpt lat="48.718925" lon="8.968434">
        <ele>446.2</ele>
        <time>2000-01-01T00:09:21Z</time>
      </trkpt>
      <trkpt lat="48.723083" lon="8.964771">
        <ele>458.4</ele>
        <time>2000-01-01T00:10:58Z</time>
      </trkpt>
      <trkpt lat="48.725246" lon="8.965053">
        <ele>459.6</ele>
        <time>2000-01-01T00:11:49Z</time>
      </trkpt>
      <trkpt lat="48.725326" lon="8.963657">
        <ele>459.7</ele>
        <time>2000-01-01T00:12:09Z</time>
      </trkpt>
      <trkpt lat="48.725704" lon="8.963545">
        <ele>459.7</ele>
        <time>2000-01-01T00:12:52Z</time>
      </trkpt>
    </trkseg>
  </trk>
</gpx>