<?xml version="1.0" encoding="UTF-8"?>
<gpx xmlns="http://www.topografix.com/GPX/1/1" xmlns:xsi="http://www.w3.org/2001/XMLSchema-instance" xsi:schemaLocation="http://www.topografix.com/GPX/1/1 http://www.topografix.com/GPX/1/1/gpx.xsd" version="1.1" creator="gpx.py -- https://github.com/tkrajina/gpxpy">
  <metadata>
    <name>Sindelfingen_acfd77bf</name>
  </metadata>
  <trk>
    <name>Sindelfingen_acfd77bf</name>
    <trkseg>
      <trkpt lat="48.725719" lon="8.963436">
        <ele>470</ele>
        <time>2000-01-01T00:00:00Z</time>
      </trkpt>
      <trkpt lat="48.725292" lon="8.963643">
        <ele>470</ele>
        <time>2000-01-01T00:01:24Z</time>
      </trkpt>
      <trkpt lat="48.725155" lon="8.965015">
        <ele>469.3</ele>
        <time>2000-01-01T00:01:50Z</time>
      </trkpt>
      <trkpt lat="48.722858" lon="8.964783">
        <ele>467.1</ele>
        <time>2000-01-01T00:02:36Z</time>
      </trkpt>
      <trkpt lat="48.718967" lon="8.968382">
        <ele>455.2</ele>
        <time>2000-01-01T00:03:51Z</time>
      </trkpt>
      <trkpt lat="48.718437" lon="8.96953">
        <ele>451.8</ele>
        <time>2000-01-01T00:04:24Z</time>
      </trkpt>
      <trkpt lat="48.718639" lon="8.97028">
        <ele>450.9</ele>
        <time>2000-01-01T00:04:40Z</time>
      </trkpt>
      <trkpt lat="48.712902" lon="8.976888">
        <ele>445.8</ele>
        <time>2000-01-01T00:06:49Z</time>
      </trkpt>
      <trkpt lat="48.709549" lon="8.989801">
        <ele>440.3</ele>
        <time>2000-01-01T00:09:28Z</time>
      </trkpt>
      <trkpt lat="48.707443" lon="8.992389">
        <ele>442.1</ele>
        <time>2000-01-01T00:10:32Z</time>
      </trkpt>
      <trkpt lat="48.706921" lon="9.002123">
        <ele>436.8</ele>
        <time>2000-01-01T00:14:34Z</time>
      </trkpt>
      <trkpt lat="48.703342" lon="9.00251">
        <ele>437.8</ele>
        <time>2000-01-01T00:15:39Z</time>
      </trkpt>
      <trkpt lat="48.699398" lon="9.006564">
        <ele>438</ele>
        <time>2000-01-01T00:18:19Z</time>
      </trkpt>
      <trkpt lat="48.697868" lon="9.007072">
        <ele>438</ele>
        <time>2000-01-01T00:19:03Z</time>
      </trkpt>
    </trkseg>
    <trkseg>
      <trkpt lat="48.697842" lon="9.007019">
        <ele>437.9</ele>
        <time>2000-01-01T00:00:00Z</time>
      </trkpt>
      <trkpt lat="48.699406" lon="9.006597">
        <ele>436.1</ele>
        <time>2000-01-01T00:00:38Z</time>
      </trkpt>
      <trkpt lat="48.701519" lon="9.004444">
        <ele>433.3</ele>
        <time>2000-01-01T00:01:46Z</time>
      </trkpt>
      <trkpt lat="48.703812" lon="9.000297">
        <ele>435.1</ele>
        <time>2000-01-01T00:03:07Z</time>
      </trkpt>
      <trkpt lat="48.706108" lon="8.993242">
        <ele>443.7</ele>
        <time>2000-01-01T00:04:58Z</time>
      </trkpt>
      <trkpt lat="48.705734" lon="8.99257">
        <ele>444.7</ele>
        <time>2000-01-01T00:05:13Z</time>
      </trkpt>
      <trkpt lat="48.706261" lon="8.990792">
        <ele>444.4</ele>
        <time>2000-01-01T00:05:36Z</time>
      </trkpt>
      <trkpt lat="48.706142" lon="8.989996">
        <ele>444.3</ele>
        <time>2000-01-01T00:06:13Z</time>
      </trkpt>
      <trkpt lat="48.704384" lon="8.98873">
        <ele>444.3</ele>
        <time>2000-01-01T00:07:21Z</time>
      </trkpt>
    </trkseg>
    <trkseg>
      <trkpt lat="48.704281" lon="8.989037">
        <ele>439.7</ele>
        <time>2000-01-01T00:00:00Z</time>
      </trkpt>
      <trkpt lat="48.706379" lon="8.990161">
        <ele>441.1</ele>
        <time>2000-01-01T00:01:44Z</time>
      </trkpt>
      <trkpt lat="48.70694" lon="8.989901">
        <ele>441.5</ele>
        <time>2000-01-01T00:02:00Z</time>
      </trkpt>
      <trkpt lat="48.707107" lon="8.985366">
        <ele>444.7</ele>
        <time>2000-01-01T00:03:05Z</time>
      </trkpt>
      <trkpt lat="48.708729" lon="8.986339">
        <ele>444.1</ele>
        <time>2000-01-01T00:04:09Z</time>
      </trkpt>
      <trkpt lat="48.711166" lon="8.978764">
        <ele>445.2</ele>
        <time>2000-01-01T00:05:49Z</time>
      </trkpt>
      <trkpt lat="48.713142" lon="8.975424">
        <ele>443.2</ele>
        <time>2000-01-01T00:06:39Z</time>
      </trkpt>
      <trkpt lat="48.718696" lon="8.969708">
        <ele>444.8</ele>
        <time>2000-01-01T00:08:37Z</time>
      </trkpt>
      <trkpt lat="48.718944" lon="8.968428">
        <ele>445.6</ele>
        <time>2000-01-01T00:09:06Z</time>
      </trkpt>
      <trkpt lat="48.721004" lon="8.967081">
        <ele>452.4</ele>
        <time>2000-01-01T00:10:00Z</time>
      </trkpt>
      <trkpt lat="48.723022" lon="8.964801">
        <ele>457.3</ele>
        <time>2000-01-01T00:11:07Z</time>
      </trkpt>
      <trkpt lat="48.725216" lon="8.965095">
        <ele>458.9</ele>
        <time>2000-01-01T00:11:52Z</time>
      </trkpt>
      <trkpt lat="48.725346" lon="8.963671">
        <ele>458.9</ele>
        <time>2000-01-01T00:12:12Z</time>
      </trkpt>
      <trkpt lat="48.725788" lon="8.96343">
        <ele>458.9</ele>
        <time>2000-01-01T00:13:02Z</time>
      </trkpt>
    </trkseg>
  </trk>
</gpx>