<?xml version="1.0" encoding="UTF-8"?>
<gpx xmlns="http://www.topografix.com/GPX/1/1" xmlns:xsi="http://www.w3.org/2001/XMLSchema-instance" xsi:schemaLocation="http://www.topografix.com/GPX/1/1 http://www.topografix.com/GPX/1/1/gpx.xsd" version="1.1" creator="gpx.py -- https://github.com/tkrajina/gpxpy">
  <metadata>
    <name>Sindelfingen_b17dc4fd</name>
  </metadata>
  <trk>
    <name>Sindelfingen_b17dc4fd</name>
    <trkseg>
      <trkpt lat="48.725783" lon="8.96353">
        <ele>466.6</ele>
        <time>2000-01-01T00:00:00Z</time>
      </trkpt>
      <trkpt lat="48.72533" lon="8.963622">
        <ele>466.6</ele>
        <time>2000-01-01T00:00:55Z</time>
      </trkpt>
      <trkpt lat="48.725254" lon="8.964989">
        <ele>466.5</ele>
        <time>2000-01-01T00:01:09Z</time>
      </trkpt>
      <trkpt lat="48.722694" lon="8.964911">
        <ele>465.1</ele>
        <time>2000-01-01T00:01:56Z</time>
      </trkpt>
      <trkpt lat="48.718925" lon="8.968446">
        <ele>452.7</ele>
        <time>2000-01-01T00:03:02Z</time>
      </trkpt>
      <trkpt lat="48.717953" lon="8.970477">
        <ele>449.6</ele>
        <time>2000-01-01T00:03:42Z</time>
      </trkpt>
      <trkpt lat="48.713455" lon="8.974967">
        <ele>447.2</ele>
        <time>2000-01-01T00:05:09Z</time>
      </trkpt>
      <trkpt lat="48.71117" lon="8.978858">
        <ele>446.6</ele>
        <time>2000-01-01T00:06:07Z</time>
      </trkpt>
      <trkpt lat="48.708618" lon="8.986069">
        <ele>442.9</ele>
        <time>2000-01-01T00:07:59Z</time>
      </trkpt>
      <trkpt lat="48.70713" lon="8.985291">
        <ele>443.5</ele>
        <time>2000-01-01T00:08:30Z</time>
      </trkpt>
      <trkpt lat="48.706955" lon="8.989885">
        <ele>441.5</ele>
        <time>2000-01-01T00:09:28Z</time>
      </trkpt>
      <trkpt lat="48.705551" lon="8.989695">
        <ele>439.7</ele>
        <time>2000-01-01T00:10:37Z</time>
      </trkpt>
      <trkpt lat="48.70446" lon="8.988636">
        <ele>439.2</ele>
        <time>2000-01-01T00:11:07Z</time>
      </trkpt>
    </trkseg>
    <trkseg>
      <trkpt lat="48.704491" lon="8.98898">
        <ele>439.5</ele>
        <time>2000-01-01T00:00:00Z</time>
      </trkpt>
      <trkpt lat="48.706329" lon="8.990114">
        <ele>440.9</ele>
        <time>2000-01-01T00:01:20Z</time>
      </trkpt>
      <trkpt lat="48.70697" lon="8.989877">
        <ele>441.8</ele>
        <time>2000-01-01T00:01:42Z</time>
      </trkpt>
      <trkpt lat="48.707111" lon="8.985374">
        <ele>444.6</ele>
        <time>2000-01-01T00:02:40Z</time>
      </trkpt>
      <trkpt lat="48.708694" lon="8.986377">
        <ele>444.1</ele>
        <time>2000-01-01T00:03:38Z</time>
      </trkpt>
      <trkpt lat="48.710693" lon="8.979956">
        <ele>444.9</ele>
        <time>2000-01-01T00:05:01Z</time>
      </trkpt>
      <trkpt lat="48.712978" lon="8.975655">
        <ele>443.6</ele>
        <time>2000-01-01T00:06:04Z</time>
      </trkpt>
      <trkpt lat="48.718708" lon="8.969827">
        <ele>444.8</ele>
        <time>2000-01-01T00:08:10Z</time>
      </trkpt>
      <trkpt lat="48.718948" lon="8.96836">
        <ele>446</ele>
        <time>2000-01-01T00:08:40Z</time>
      </trkpt>
      <trkpt lat="48.722629" lon="8.96504">
        <ele>458.4</ele>
        <time>2000-01-01T00:10:04Z</time>
      </trkpt>
      <trkpt lat="48.724399" lon="8.964622">
        <ele>459.3</ele>
        <time>2000-01-01T00:10:37Z</time>
      </trkpt>
      <trkpt lat="48.725216" lon="8.965156">
        <ele>459.9</ele>
        <time>2000-01-01T00:11:00Z</time>
      </trkpt>
      <trkpt lat="48.725307" lon="8.963675">
        <ele>460.1</ele>
        <time>2000-01-01T00:11:19Z</time>
      </trkpt>
      <trkpt lat="48.725662" lon="8.96354">
        <ele>460.1</ele>
        <time>2000-01-01T00:12:01Z</time>
      </trkpt>
    </trkseg>
    <trkseg>
      <trkpt lat="48.725998" lon="8.963568">
        <ele>475.6</ele>
        <time>2000-01-01T00:00:00Z</time>
      </trkpt>
      <trkpt lat="48.726131" lon="8.962562">
        <ele>475.6</ele>
        <time>2000-01-01T00:01:14Z</time>
      </trkpt>
      <trkpt lat="48.725723" lon="8.962021">
        <ele>476.2</ele>
        <time>2000-01-01T00:01:29Z</time>
      </trkpt>
      <trkpt lat="48.726616" lon="8.957156">
        <ele>489.7</ele>
        <time>2000-01-01T00:02:59Z</time>
      </trkpt>
      <trkpt lat="48.726169" lon="8.949268">
        <ele>489.8</ele>
        <time>2000-01-01T00:05:13Z</time>
      </trkpt>
      <trkpt lat="48.723289" lon="8.949871">
        <ele>491.6</ele>
        <time>2000-01-01T00:06:19Z</time>
      </trkpt>
      <trkpt lat="48.720585" lon="8.949607">
        <ele>488.6</ele>
        <time>2000-01-01T00:07:33Z</time>
      </trkpt>
      <trkpt lat="48.718761" lon="8.942794">
        <ele>481.1</ele>
        <time>2000-01-01T00:09:27Z</time>
      </trkpt>
      <trkpt lat="48.717976" lon="8.942787">
        <ele>478.4</ele>
        <time>2000-01-01T00:09:43Z</time>
      </trkpt>
      <trkpt lat="48.709789" lon="8.945228">
        <ele>472.5</ele>
        <time>2000-01-01T00:12:29Z</time>
      </trkpt>
      <trkpt lat="48.702217" lon="8.951025">
        <ele>439.1</ele>
        <time>2000-01-01T00:14:51Z</time>
      </trkpt>
      <trkpt lat="48.703541" lon="8.955316">
        <ele>436.6</ele>
        <time>2000-01-01T00:15:50Z</time>
      </trkpt>
      <trkpt lat="48.703812" lon="8.959213">
        <ele>437.5</ele>
        <time>2000-01-01T00:16:43Z</time>
      </trkpt>
      <trkpt lat="48.705318" lon="8.960973">
        <ele>440.9</ele>
        <time>2000-01-01T00:17:22Z</time>
      </trkpt>
      <trkpt lat="48.706692" lon="8.967207">
        <ele>447.3</ele>
        <time>2000-01-01T00:18:57Z</time>
      </trkpt>
    </trkseg>
    <trkseg>
      <trkpt lat="48.706707" lon="8.967284">
        <ele>444.9</ele>
        <time>2000-01-01T00:00:00Z</time>
      </trkpt>
      <trkpt lat="48.706909" lon="8.968139">
        <ele>444.9</ele>
        <time>2000-01-01T00:00:21Z</time>
      </trkpt>
      <trkpt lat="48.707905" lon="8.967952">
        <ele>445.2</ele>
        <time>2000-01-01T00:00:48Z</time>
      </trkpt>
      <trkpt lat="48.708687" lon="8.960039">
        <ele>446.7</ele>
        <time>2000-01-01T00:02:42Z</time>
      </trkpt>
      <trkpt lat="48.710422" lon="8.958302">
        <ele>451</ele>
        <time>2000-01-01T00:03:32Z</time>
      </trkpt>
      <trkpt lat="48.709923" lon="8.955604">
        <ele>454.8</ele>
        <time>2000-01-01T00:04:17Z</time>
      </trkpt>
      <trkpt lat="48.715114" lon="8.956787">
        <ele>464.3</ele>
        <time>2000-01-01T00:06:05Z</time>
      </trkpt>
      <trkpt lat="48.715984" lon="8.95847">
        <ele>463.2</ele>
        <time>2000-01-01T00:06:33Z</time>
      </trkpt>
      <trkpt lat="48.718048" lon="8.958836">
        <ele>457</ele>
        <time>2000-01-01T00:07:03Z</time>
      </trkpt>
      <trkpt lat="48.718037" lon="8.95991">
        <ele>455.1</ele>
        <time>2000-01-01T00:07:19Z</time>
      </trkpt>
      <trkpt lat="48.718559" lon="8.960701">
        <ele>454.9</ele>
        <time>2000-01-01T00:08:12Z</time>
      </trkpt>
      <trkpt lat="48.719059" lon="8.960421">
        <ele>455.5</ele>
        <time>2000-01-01T00:08:34Z</time>
      </trkpt>
      <trkpt lat="48.719353" lon="8.959101">
        <ele>456.9</ele>
        <time>2000-01-01T00:08:59Z</time>
      </trkpt>
      <trkpt lat="48.723549" lon="8.960216">
        <ele>467.2</ele>
        <time>2000-01-01T00:11:02Z</time>
      </trkpt>
      <trkpt lat="48.725452" lon="8.961924">
        <ele>464.7</ele>
        <time>2000-01-01T00:11:41Z</time>
      </trkpt>
      <trkpt lat="48.725346" lon="8.963457">
        <ele>464.2</ele>
        <time>2000-01-01T00:12:00Z</time>
      </trkpt>
      <trkpt lat="48.725643" lon="8.963507">
        <ele>464.2</ele>
        <time>2000-01-01T00:12:37Z</time>
      </trkpt>
    </trkseg>
  </trk>
</gpx>