<?xml version="1.0" encoding="UTF-8"?>
<gpx xmlns="http://www.topografix.com/GPX/1/1" xmlns:xsi="http://www.w3.org/2001/XMLSchema-instance" xsi:schemaLocation="http://www.topografix.com/GPX/1/1 http://www.topografix.com/GPX/1/1/gpx.xsd" version="1.1" creator="gpx.py -- https://github.com/tkrajina/gpxpy">
  <metadata>
    <name>Sindelfingen_87a9eabf</name>
  </metadata>
  <trk>
    <name>Sindelfingen_87a9eabf</name>
    <trkseg>
      <trkpt lat="48.725029" lon="8.963405">
        <ele>467.6</ele>
        <time>2000-01-01T00:00:00Z</time>
      </trkpt>
      <trkpt lat="48.724377" lon="8.963438">
        <ele>467.6</ele>
        <time>2000-01-01T00:01:46Z</time>
      </trkpt>
      <trkpt lat="48.724472" lon="8.964622">
        <ele>467.1</ele>
        <time>2000-01-01T00:02:13Z</time>
      </trkpt>
      <trkpt lat="48.722866" lon="8.964821">
        <ele>465.4</ele>
        <time>2000-01-01T00:02:53Z</time>
      </trkpt>
      <trkpt lat="48.721039" lon="8.966901">
        <ele>461.8</ele>
        <time>2000-01-01T00:03:40Z</time>
      </trkpt>
      <trkpt lat="48.72089" lon="8.968736">
        <ele>458.8</ele>
        <time>2000-01-01T00:04:07Z</time>
      </trkpt>
      <trkpt lat="48.718475" lon="8.969351">
        <ele>451.6</ele>
        <time>2000-01-01T00:04:58Z</time>
      </trkpt>
      <trkpt lat="48.717041" lon="8.971182">
        <ele>451.1</ele>
        <time>2000-01-01T00:05:32Z</time>
      </trkpt>
      <trkpt lat="48.715172" lon="8.971772">
        <ele>454.1</ele>
        <time>2000-01-01T00:06:50Z</time>
      </trkpt>
      <trkpt lat="48.715725" lon="8.971606">
        <ele>454.3</ele>
        <time>2000-01-01T00:07:10Z</time>
      </trkpt>
      <trkpt lat="48.715595" lon="8.970487">
        <ele>454.4</ele>
        <time>2000-01-01T00:07:29Z</time>
      </trkpt>
      <trkpt lat="48.708893" lon="8.969738">
        <ele>448.7</ele>
        <time>2000-01-01T00:09:32Z</time>
      </trkpt>
      <trkpt lat="48.704777" lon="8.971033">
        <ele>442.9</ele>
        <time>2000-01-01T00:10:42Z</time>
      </trkpt>
      <trkpt lat="48.704368" lon="8.971762">
        <ele>442.7</ele>
        <time>2000-01-01T00:10:57Z</time>
      </trkpt>
      <trkpt lat="48.70097" lon="8.971946">
        <ele>452.4</ele>
        <time>2000-01-01T00:12:06Z</time>
      </trkpt>
      <trkpt lat="48.70079" lon="8.969851">
        <ele>451.5</ele>
        <time>2000-01-01T00:12:32Z</time>
      </trkpt>
      <trkpt lat="48.69928" lon="8.967544">
        <ele>451.6</ele>
        <time>2000-01-01T00:13:10Z</time>
      </trkpt>
      <trkpt lat="48.699036" lon="8.965537">
        <ele>451.3</ele>
        <time>2000-01-01T00:13:41Z</time>
      </trkpt>
      <trkpt lat="48.696312" lon="8.966265">
        <ele>446.6</ele>
        <time>2000-01-01T00:14:31Z</time>
      </trkpt>
      <trkpt lat="48.69601" lon="8.965339">
        <ele>445.8</ele>
        <time>2000-01-01T00:14:46Z</time>
      </trkpt>
      <trkpt lat="48.691696" lon="8.96461">
        <ele>428.3</ele>
        <time>2000-01-01T00:15:43Z</time>
      </trkpt>
      <trkpt lat="48.689194" lon="8.964894">
        <ele>422</ele>
        <time>2000-01-01T00:16:17Z</time>
      </trkpt>
      <trkpt lat="48.689064" lon="8.963686">
        <ele>425.9</ele>
        <time>2000-01-01T00:16:39Z</time>
      </trkpt>
      <trkpt lat="48.688244" lon="8.963541">
        <ele>429.9</ele>
        <time>2000-01-01T00:17:06Z</time>
      </trkpt>
      <trkpt lat="48.682632" lon="8.965252">
        <ele>430.8</ele>
        <time>2000-01-01T00:18:45Z</time>
      </trkpt>
      <trkpt lat="48.675705" lon="8.972416">
        <ele>437.7</ele>
        <time>2000-01-01T00:21:57Z</time>
      </trkpt>
      <trkpt lat="48.675583" lon="8.971679">
        <ele>442.3</ele>
        <time>2000-01-01T00:22:19Z</time>
      </trkpt>
      <trkpt lat="48.671505" lon="8.968305">
        <ele>466.7</ele>
        <time>2000-01-01T00:24:09Z</time>
      </trkpt>
      <trkpt lat="48.670032" lon="8.972668">
        <ele>475.9</ele>
        <time>2000-01-01T00:26:31Z</time>
      </trkpt>
      <trkpt lat="48.671112" lon="8.976031">
        <ele>471</ele>
        <time>2000-01-01T00:27:36Z</time>
      </trkpt>
      <trkpt lat="48.670219" lon="8.979818">
        <ele>470.7</ele>
        <time>2000-01-01T00:28:30Z</time>
      </trkpt>
      <trkpt lat="48.667961" lon="8.981995">
        <ele>472.2</ele>
        <time>2000-01-01T00:29:21Z</time>
      </trkpt>
      <trkpt lat="48.667519" lon="8.98337">
        <ele>476.6</ele>
        <time>2000-01-01T00:29:49Z</time>
      </trkpt>
      <trkpt lat="48.664406" lon="8.984785">
        <ele>489.4</ele>
        <time>2000-01-01T00:31:05Z</time>
      </trkpt>
      <trkpt lat="48.661213" lon="8.982735">
        <ele>466.8</ele>
        <time>2000-01-01T00:31:49Z</time>
      </trkpt>
      <trkpt lat="48.659321" lon="8.982725">
        <ele>461.8</ele>
        <time>2000-01-01T00:32:14Z</time>
      </trkpt>
      <trkpt lat="48.653957" lon="8.984256">
        <ele>471.5</ele>
        <time>2000-01-01T00:34:05Z</time>
      </trkpt>
      <trkpt lat="48.652069" lon="8.985821">
        <ele>468.2</ele>
        <time>2000-01-01T00:34:45Z</time>
      </trkpt>
      <trkpt lat="48.651867" lon="8.979475">
        <ele>467.8</ele>
        <time>2000-01-01T00:36:06Z</time>
      </trkpt>
      <trkpt lat="48.651432" lon="8.979301">
        <ele>466.6</ele>
        <time>2000-01-01T00:36:16Z</time>
      </trkpt>
      <trkpt lat="48.651134" lon="8.977734">
        <ele>462.7</ele>
        <time>2000-01-01T00:36:37Z</time>
      </trkpt>
      <trkpt lat="48.65065" lon="8.977878">
        <ele>459.7</ele>
        <time>2000-01-01T00:36:48Z</time>
      </trkpt>
      <trkpt lat="48.650444" lon="8.976763">
        <ele>454.9</ele>
        <time>2000-01-01T00:37:04Z</time>
      </trkpt>
      <trkpt lat="48.64912" lon="8.977587">
        <ele>448.4</ele>
        <time>2000-01-01T00:37:29Z</time>
      </trkpt>
      <trkpt lat="48.64817" lon="8.976913">
        <ele>448</ele>
        <time>2000-01-01T00:37:54Z</time>
      </trkpt>
      <trkpt lat="48.64756" lon="8.978359">
        <ele>450</ele>
        <time>2000-01-01T00:38:17Z</time>
      </trkpt>
      <trkpt lat="48.643192" lon="8.978338">
        <ele>451.4</ele>
        <time>2000-01-01T00:39:37Z</time>
      </trkpt>
      <trkpt lat="48.641853" lon="8.977138">
        <ele>452.9</ele>
        <time>2000-01-01T00:40:06Z</time>
      </trkpt>
      <trkpt lat="48.641632" lon="8.978013">
        <ele>452.4</ele>
        <time>2000-01-01T00:40:20Z</time>
      </trkpt>
      <trkpt lat="48.639027" lon="8.977272">
        <ele>452.5</ele>
        <time>2000-01-01T00:41:07Z</time>
      </trkpt>
      <trkpt lat="48.63607" lon="8.974639">
        <ele>455</ele>
        <time>2000-01-01T00:42:08Z</time>
      </trkpt>
      <trkpt lat="48.634182" lon="8.9698">
        <ele>460.8</ele>
        <time>2000-01-01T00:43:24Z</time>
      </trkpt>
      <trkpt lat="48.628082" lon="8.966154">
        <ele>472.3</ele>
        <time>2000-01-01T00:45:31Z</time>
      </trkpt>
      <trkpt lat="48.625751" lon="8.967803">
        <ele>475.3</ele>
        <time>2000-01-01T00:46:24Z</time>
      </trkpt>
      <trkpt lat="48.625309" lon="8.967356">
        <ele>475.6</ele>
        <time>2000-01-01T00:46:38Z</time>
      </trkpt>
      <trkpt lat="48.624618" lon="8.968235">
        <ele>476.7</ele>
        <time>2000-01-01T00:46:59Z</time>
      </trkpt>
      <trkpt lat="48.623535" lon="8.966185">
        <ele>482.3</ele>
        <time>2000-01-01T00:47:48Z</time>
      </trkpt>
      <trkpt lat="48.622185" lon="8.966864">
        <ele>486.4</ele>
        <time>2000-01-01T00:48:23Z</time>
      </trkpt>
      <trkpt lat="48.621639" lon="8.96593">
        <ele>486.8</ele>
        <time>2000-01-01T00:48:50Z</time>
      </trkpt>
      <trkpt lat="48.621349" lon="8.966283">
        <ele>486.9</ele>
        <time>2000-01-01T00:49:01Z</time>
      </trkpt>
      <trkpt lat="48.622093" lon="8.969244">
        <ele>486.1</ele>
        <time>2000-01-01T00:50:24Z</time>
      </trkpt>
      <trkpt lat="48.621075" lon="8.965555">
        <ele>488.3</ele>
        <time>2000-01-01T00:51:24Z</time>
      </trkpt>
      <trkpt lat="48.618469" lon="8.9668">
        <ele>500.1</ele>
        <time>2000-01-01T00:52:28Z</time>
      </trkpt>
      <trkpt lat="48.615082" lon="8.966504">
        <ele>505.1</ele>
        <time>2000-01-01T00:53:40Z</time>
      </trkpt>
      <trkpt lat="48.613617" lon="8.96764">
        <ele>511.3</ele>
        <time>2000-01-01T00:55:59Z</time>
      </trkpt>
      <trkpt lat="48.609234" lon="8.968926">
        <ele>511.6</ele>
        <time>2000-01-01T00:57:43Z</time>
      </trkpt>
      <trkpt lat="48.609562" lon="8.97123">
        <ele>510</ele>
        <time>2000-01-01T00:58:17Z</time>
      </trkpt>
      <trkpt lat="48.608829" lon="8.973341">
        <ele>513</ele>
        <time>2000-01-01T00:58:53Z</time>
      </trkpt>
      <trkpt lat="48.609062" lon="8.975684">
        <ele>516.3</ele>
        <time>2000-01-01T00:59:25Z</time>
      </trkpt>
      <trkpt lat="48.608723" lon="8.977463">
        <ele>516.8</ele>
        <time>2000-01-01T00:59:50Z</time>
      </trkpt>
      <trkpt lat="48.605583" lon="8.981132">
        <ele>524.2</ele>
        <time>2000-01-01T01:01:08Z</time>
      </trkpt>
      <trkpt lat="48.603264" lon="8.989114">
        <ele>549.5</ele>
        <time>2000-01-01T01:03:18Z</time>
      </trkpt>
      <trkpt lat="48.603268" lon="8.991735">
        <ele>549.8</ele>
        <time>2000-01-01T01:03:51Z</time>
      </trkpt>
      <trkpt lat="48.60466" lon="9.00128">
        <ele>541.7</ele>
        <time>2000-01-01T01:05:47Z</time>
      </trkpt>
      <trkpt lat="48.605007" lon="9.002508">
        <ele>538.5</ele>
        <time>2000-01-01T01:06:02Z</time>
      </trkpt>
      <trkpt lat="48.606876" lon="9.004717">
        <ele>528.3</ele>
        <time>2000-01-01T01:06:43Z</time>
      </trkpt>
      <trkpt lat="48.60952" lon="9.010893">
        <ele>508.6</ele>
        <time>2000-01-01T01:07:43Z</time>
      </trkpt>
      <trkpt lat="48.610199" lon="9.013589">
        <ele>504.7</ele>
        <time>2000-01-01T01:08:14Z</time>
      </trkpt>
      <trkpt lat="48.611153" lon="9.014593">
        <ele>503.3</ele>
        <time>2000-01-01T01:08:34Z</time>
      </trkpt>
      <trkpt lat="48.612636" lon="9.020451">
        <ele>502.8</ele>
        <time>2000-01-01T01:09:49Z</time>
      </trkpt>
      <trkpt lat="48.616047" lon="9.023427">
        <ele>505.4</ele>
        <time>2000-01-01T01:11:10Z</time>
      </trkpt>
      <trkpt lat="48.61549" lon="9.024365">
        <ele>502.4</ele>
        <time>2000-01-01T01:11:28Z</time>
      </trkpt>
      <trkpt lat="48.618084" lon="9.03275">
        <ele>484.4</ele>
        <time>2000-01-01T01:14:21Z</time>
      </trkpt>
      <trkpt lat="48.618408" lon="9.038697">
        <ele>480.3</ele>
        <time>2000-01-01T01:15:34Z</time>
      </trkpt>
      <trkpt lat="48.620972" lon="9.046905">
        <ele>478.8</ele>
        <time>2000-01-01T01:18:02Z</time>
      </trkpt>
      <trkpt lat="48.622517" lon="9.046556">
        <ele>482</ele>
        <time>2000-01-01T01:18:37Z</time>
      </trkpt>
      <trkpt lat="48.62315" lon="9.043121">
        <ele>488.5</ele>
        <time>2000-01-01T01:19:41Z</time>
      </trkpt>
      <trkpt lat="48.623115" lon="9.036638">
        <ele>490.3</ele>
        <time>2000-01-01T01:21:06Z</time>
      </trkpt>
      <trkpt lat="48.623569" lon="9.034778">
        <ele>493.8</ele>
        <time>2000-01-01T01:21:30Z</time>
      </trkpt>
      <trkpt lat="48.623085" lon="9.029475">
        <ele>500.5</ele>
        <time>2000-01-01T01:22:37Z</time>
      </trkpt>
      <trkpt lat="48.623348" lon="9.02244">
        <ele>507.3</ele>
        <time>2000-01-01T01:24:09Z</time>
      </trkpt>
      <trkpt lat="48.62561" lon="9.022749">
        <ele>506.3</ele>
        <time>2000-01-01T01:24:54Z</time>
      </trkpt>
      <trkpt lat="48.627022" lon="9.0219">
        <ele>501.6</ele>
        <time>2000-01-01T01:25:17Z</time>
      </trkpt>
      <trkpt lat="48.630661" lon="9.013838">
        <ele>483.7</ele>
        <time>2000-01-01T01:27:06Z</time>
      </trkpt>
      <trkpt lat="48.63118" lon="9.014297">
        <ele>481.5</ele>
        <time>2000-01-01T01:27:18Z</time>
      </trkpt>
      <trkpt lat="48.632877" lon="9.010808">
        <ele>479.9</ele>
        <time>2000-01-01T01:28:16Z</time>
      </trkpt>
      <trkpt lat="48.636009" lon="9.007724">
        <ele>480.8</ele>
        <time>2000-01-01T01:29:28Z</time>
      </trkpt>
      <trkpt lat="48.639732" lon="9.007234">
        <ele>481.1</ele>
        <time>2000-01-01T01:30:47Z</time>
      </trkpt>
      <trkpt lat="48.640175" lon="9.0051">
        <ele>484.2</ele>
        <time>2000-01-01T01:31:18Z</time>
      </trkpt>
      <trkpt lat="48.642242" lon="9.005034">
        <ele>488</ele>
        <time>2000-01-01T01:31:58Z</time>
      </trkpt>
      <trkpt lat="48.642391" lon="9.005758">
        <ele>488.6</ele>
        <time>2000-01-01T01:32:13Z</time>
      </trkpt>
      <trkpt lat="48.646313" lon="9.006987">
        <ele>487.3</ele>
        <time>2000-01-01T01:33:30Z</time>
      </trkpt>
      <trkpt lat="48.646503" lon="9.007894">
        <ele>487.2</ele>
        <time>2000-01-01T01:33:49Z</time>
      </trkpt>
      <trkpt lat="48.646641" lon="9.006733">
        <ele>487.2</ele>
        <time>2000-01-01T01:34:17Z</time>
      </trkpt>
      <trkpt lat="48.647484" lon="9.007099">
        <ele>487.5</ele>
        <time>2000-01-01T01:34:40Z</time>
      </trkpt>
      <trkpt lat="48.647873" lon="9.008218">
        <ele>488.3</ele>
        <time>2000-01-01T01:34:59Z</time>
      </trkpt>
      <trkpt lat="48.651447" lon="9.009046">
        <ele>491.7</ele>
        <time>2000-01-01T01:36:10Z</time>
      </trkpt>
      <trkpt lat="48.652695" lon="9.006939">
        <ele>492.5</ele>
        <time>2000-01-01T01:36:54Z</time>
      </trkpt>
      <trkpt lat="48.654274" lon="9.005571">
        <ele>497.3</ele>
        <time>2000-01-01T01:37:29Z</time>
      </trkpt>
      <trkpt lat="48.655086" lon="9.003146">
        <ele>500.2</ele>
        <time>2000-01-01T01:38:02Z</time>
      </trkpt>
      <trkpt lat="48.655014" lon="9.001563">
        <ele>502</ele>
        <time>2000-01-01T01:38:24Z</time>
      </trkpt>
      <trkpt lat="48.656418" lon="9.003889">
        <ele>507.1</ele>
        <time>2000-01-01T01:39:08Z</time>
      </trkpt>
      <trkpt lat="48.658932" lon="9.004045">
        <ele>518</ele>
        <time>2000-01-01T01:41:15Z</time>
      </trkpt>
      <trkpt lat="48.657791" lon="8.990938">
        <ele>517.3</ele>
        <time>2000-01-01T01:43:50Z</time>
      </trkpt>
      <trkpt lat="48.656856" lon="8.991209">
        <ele>514.9</ele>
        <time>2000-01-01T01:44:17Z</time>
      </trkpt>
      <trkpt lat="48.656307" lon="8.989131">
        <ele>499.1</ele>
        <time>2000-01-01T01:45:06Z</time>
      </trkpt>
      <trkpt lat="48.658428" lon="8.987588">
        <ele>489.1</ele>
        <time>2000-01-01T01:45:52Z</time>
      </trkpt>
      <trkpt lat="48.65958" lon="8.982757">
        <ele>466.5</ele>
        <time>2000-01-01T01:46:42Z</time>
      </trkpt>
      <trkpt lat="48.661129" lon="8.98271">
        <ele>468</ele>
        <time>2000-01-01T01:47:39Z</time>
      </trkpt>
      <trkpt lat="48.66283" lon="8.984188">
        <ele>478.8</ele>
        <time>2000-01-01T01:48:22Z</time>
      </trkpt>
      <trkpt lat="48.66468" lon="8.984806">
        <ele>490.8</ele>
        <time>2000-01-01T01:49:04Z</time>
      </trkpt>
      <trkpt lat="48.667446" lon="8.983433">
        <ele>482.3</ele>
        <time>2000-01-01T01:49:53Z</time>
      </trkpt>
      <trkpt lat="48.667812" lon="8.982162">
        <ele>477.2</ele>
        <time>2000-01-01T01:50:05Z</time>
      </trkpt>
      <trkpt lat="48.670113" lon="8.980123">
        <ele>472.4</ele>
        <time>2000-01-01T01:50:51Z</time>
      </trkpt>
      <trkpt lat="48.671139" lon="8.976076">
        <ele>472.4</ele>
        <time>2000-01-01T01:51:44Z</time>
      </trkpt>
      <trkpt lat="48.670051" lon="8.972633">
        <ele>477.3</ele>
        <time>2000-01-01T01:52:34Z</time>
      </trkpt>
      <trkpt lat="48.671467" lon="8.968322">
        <ele>467.3</ele>
        <time>2000-01-01T01:53:49Z</time>
      </trkpt>
      <trkpt lat="48.675571" lon="8.971674">
        <ele>446.7</ele>
        <time>2000-01-01T01:55:12Z</time>
      </trkpt>
      <trkpt lat="48.675712" lon="8.972464">
        <ele>441.6</ele>
        <time>2000-01-01T01:55:35Z</time>
      </trkpt>
      <trkpt lat="48.680279" lon="8.967291">
        <ele>428.1</ele>
        <time>2000-01-01T01:57:43Z</time>
      </trkpt>
      <trkpt lat="48.682644" lon="8.965458">
        <ele>428.8</ele>
        <time>2000-01-01T01:58:33Z</time>
      </trkpt>
      <trkpt lat="48.688171" lon="8.963509">
        <ele>431.6</ele>
        <time>2000-01-01T02:00:24Z</time>
      </trkpt>
      <trkpt lat="48.689041" lon="8.963671">
        <ele>428.2</ele>
        <time>2000-01-01T02:01:16Z</time>
      </trkpt>
      <trkpt lat="48.68922" lon="8.964937">
        <ele>424.8</ele>
        <time>2000-01-01T02:01:32Z</time>
      </trkpt>
      <trkpt lat="48.691753" lon="8.964628">
        <ele>427.6</ele>
        <time>2000-01-01T02:02:20Z</time>
      </trkpt>
      <trkpt lat="48.695969" lon="8.965347">
        <ele>445.6</ele>
        <time>2000-01-01T02:03:45Z</time>
      </trkpt>
      <trkpt lat="48.696243" lon="8.966288">
        <ele>446.9</ele>
        <time>2000-01-01T02:03:58Z</time>
      </trkpt>
      <trkpt lat="48.699028" lon="8.965538">
        <ele>448.8</ele>
        <time>2000-01-01T02:04:54Z</time>
      </trkpt>
      <trkpt lat="48.699253" lon="8.967504">
        <ele>450</ele>
        <time>2000-01-01T02:05:24Z</time>
      </trkpt>
      <trkpt lat="48.700779" lon="8.969889">
        <ele>449.1</ele>
        <time>2000-01-01T02:06:03Z</time>
      </trkpt>
      <trkpt lat="48.700924" lon="8.971946">
        <ele>448.2</ele>
        <time>2000-01-01T02:06:29Z</time>
      </trkpt>
      <trkpt lat="48.703495" lon="8.97142">
        <ele>442.7</ele>
        <time>2000-01-01T02:07:12Z</time>
      </trkpt>
      <trkpt lat="48.704166" lon="8.971837">
        <ele>440.6</ele>
        <time>2000-01-01T02:07:23Z</time>
      </trkpt>
      <trkpt lat="48.704643" lon="8.9717">
        <ele>439.9</ele>
        <time>2000-01-01T02:07:31Z</time>
      </trkpt>
      <trkpt lat="48.704681" lon="8.971043">
        <ele>439.2</ele>
        <time>2000-01-01T02:07:39Z</time>
      </trkpt>
      <trkpt lat="48.708759" lon="8.969727">
        <ele>444.5</ele>
        <time>2000-01-01T02:08:59Z</time>
      </trkpt>
      <trkpt lat="48.715523" lon="8.970479">
        <ele>448.9</ele>
        <time>2000-01-01T02:11:15Z</time>
      </trkpt>
      <trkpt lat="48.716381" lon="8.968408">
        <ele>445.3</ele>
        <time>2000-01-01T02:11:59Z</time>
      </trkpt>
      <trkpt lat="48.71817" lon="8.96882">
        <ele>443.3</ele>
        <time>2000-01-01T02:12:33Z</time>
      </trkpt>
      <trkpt lat="48.71941" lon="8.9682">
        <ele>445.3</ele>
        <time>2000-01-01T02:13:27Z</time>
      </trkpt>
      <trkpt lat="48.723038" lon="8.964769">
        <ele>457.4</ele>
        <time>2000-01-01T02:14:47Z</time>
      </trkpt>
      <trkpt lat="48.725235" lon="8.965023">
        <ele>458</ele>
        <time>2000-01-01T02:15:29Z</time>
      </trkpt>
      <trkpt lat="48.725693" lon="8.9635">
        <ele>458</ele>
        <time>2000-01-01T02:16:34Z</time>
      </trkpt>
    </trkseg>
  </trk>
</gpx>