<?xml version="1.0" encoding="UTF-8"?>
<gpx xmlns="http://www.topografix.com/GPX/1/1" xmlns:xsi="http://www.w3.org/2001/XMLSchema-instance" xsi:schemaLocation="http://www.topografix.com/GPX/1/1 http://www.topografix.com/GPX/1/1/gpx.xsd" version="1.1" creator="gpx.py -- https://github.com/tkrajina/gpxpy">
  <metadata>
    <name>Sindelfingen_7ff95b93</name>
  </metadata>
  <trk>
    <name>Sindelfingen_7ff95b93</name>
    <trkseg>
      <trkpt lat="48.727486" lon="8.956906">
        <ele>481.7</ele>
        <time>2000-01-01T00:00:00Z</time>
      </trkpt>
      <trkpt lat="48.728657" lon="8.953272">
        <ele>485</ele>
        <time>2000-01-01T00:01:10Z</time>
      </trkpt>
      <trkpt lat="48.729854" lon="8.944149">
        <ele>491.3</ele>
        <time>2000-01-01T00:03:19Z</time>
      </trkpt>
      <trkpt lat="48.732635" lon="8.941321">
        <ele>481.7</ele>
        <time>2000-01-01T00:04:30Z</time>
      </trkpt>
      <trkpt lat="48.732799" lon="8.941945">
        <ele>479.9</ele>
        <time>2000-01-01T00:04:43Z</time>
      </trkpt>
      <trkpt lat="48.733353" lon="8.941254">
        <ele>477.8</ele>
        <time>2000-01-01T00:05:02Z</time>
      </trkpt>
      <trkpt lat="48.736328" lon="8.941284">
        <ele>472.9</ele>
        <time>2000-01-01T00:06:23Z</time>
      </trkpt>
      <trkpt lat="48.736774" lon="8.944611">
        <ele>463.7</ele>
        <time>2000-01-01T00:07:19Z</time>
      </trkpt>
      <trkpt lat="48.739258" lon="8.946407">
        <ele>454.5</ele>
        <time>2000-01-01T00:08:14Z</time>
      </trkpt>
      <trkpt lat="48.740818" lon="8.946487">
        <ele>448.1</ele>
        <time>2000-01-01T00:08:57Z</time>
      </trkpt>
      <trkpt lat="48.746532" lon="8.951565">
        <ele>423.1</ele>
        <time>2000-01-01T00:10:56Z</time>
      </trkpt>
      <trkpt lat="48.747963" lon="8.948452">
        <ele>421.2</ele>
        <time>2000-01-01T00:12:15Z</time>
      </trkpt>
      <trkpt lat="48.747867" lon="8.947822">
        <ele>422.2</ele>
        <time>2000-01-01T00:12:26Z</time>
      </trkpt>
      <trkpt lat="48.749168" lon="8.946461">
        <ele>429.9</ele>
        <time>2000-01-01T00:13:00Z</time>
      </trkpt>
      <trkpt lat="48.748764" lon="8.945022">
        <ele>430.1</ele>
        <time>2000-01-01T00:13:31Z</time>
      </trkpt>
      <trkpt lat="48.753273" lon="8.943976">
        <ele>424.2</ele>
        <time>2000-01-01T00:14:58Z</time>
      </trkpt>
      <trkpt lat="48.758182" lon="8.940821">
        <ele>410.9</ele>
        <time>2000-01-01T00:16:31Z</time>
      </trkpt>
      <trkpt lat="48.762104" lon="8.93292">
        <ele>409.2</ele>
        <time>2000-01-01T00:18:24Z</time>
      </trkpt>
      <trkpt lat="48.762543" lon="8.931325">
        <ele>409</ele>
        <time>2000-01-01T00:18:45Z</time>
      </trkpt>
      <trkpt lat="48.761982" lon="8.929641">
        <ele>408.2</ele>
        <time>2000-01-01T00:19:27Z</time>
      </trkpt>
      <trkpt lat="48.764423" lon="8.927923">
        <ele>405.4</ele>
        <time>2000-01-01T00:20:15Z</time>
      </trkpt>
      <trkpt lat="48.765758" lon="8.925141">
        <ele>404.1</ele>
        <time>2000-01-01T00:20:53Z</time>
      </trkpt>
      <trkpt lat="48.766361" lon="8.922436">
        <ele>406.4</ele>
        <time>2000-01-01T00:21:34Z</time>
      </trkpt>
      <trkpt lat="48.767902" lon="8.920257">
        <ele>405.7</ele>
        <time>2000-01-01T00:22:25Z</time>
      </trkpt>
      <trkpt lat="48.769497" lon="8.920592">
        <ele>402.7</ele>
        <time>2000-01-01T00:22:54Z</time>
      </trkpt>
      <trkpt lat="48.769707" lon="8.919806">
        <ele>402</ele>
        <time>2000-01-01T00:23:07Z</time>
      </trkpt>
      <trkpt lat="48.771103" lon="8.919921">
        <ele>400.9</ele>
        <time>2000-01-01T00:23:32Z</time>
      </trkpt>
      <trkpt lat="48.772213" lon="8.905619">
        <ele>400.4</ele>
        <time>2000-01-01T00:26:34Z</time>
      </trkpt>
      <trkpt lat="48.772789" lon="8.904029">
        <ele>400.2</ele>
        <time>2000-01-01T00:26:57Z</time>
      </trkpt>
      <trkpt lat="48.773468" lon="8.90443">
        <ele>400</ele>
        <time>2000-01-01T00:27:12Z</time>
      </trkpt>
      <trkpt lat="48.774181" lon="8.903392">
        <ele>400</ele>
        <time>2000-01-01T00:27:33Z</time>
      </trkpt>
      <trkpt lat="48.773842" lon="8.902658">
        <ele>400.1</ele>
        <time>2000-01-01T00:27:57Z</time>
      </trkpt>
      <trkpt lat="48.774536" lon="8.901707">
        <ele>400</ele>
        <time>2000-01-01T00:28:16Z</time>
      </trkpt>
      <trkpt lat="48.777042" lon="8.894471">
        <ele>398.4</ele>
        <time>2000-01-01T00:29:57Z</time>
      </trkpt>
      <trkpt lat="48.776497" lon="8.892558">
        <ele>398.4</ele>
        <time>2000-01-01T00:30:22Z</time>
      </trkpt>
      <trkpt lat="48.773743" lon="8.891233">
        <ele>399.2</ele>
        <time>2000-01-01T00:31:13Z</time>
      </trkpt>
      <trkpt lat="48.773548" lon="8.889828">
        <ele>399.3</ele>
        <time>2000-01-01T00:31:36Z</time>
      </trkpt>
      <trkpt lat="48.778648" lon="8.893386">
        <ele>403.1</ele>
        <time>2000-01-01T00:33:40Z</time>
      </trkpt>
      <trkpt lat="48.779541" lon="8.892512">
        <ele>405</ele>
        <time>2000-01-01T00:34:10Z</time>
      </trkpt>
      <trkpt lat="48.779625" lon="8.891712">
        <ele>405.7</ele>
        <time>2000-01-01T00:34:27Z</time>
      </trkpt>
      <trkpt lat="48.780041" lon="8.893588">
        <ele>408.9</ele>
        <time>2000-01-01T00:35:10Z</time>
      </trkpt>
      <trkpt lat="48.7854" lon="8.88782">
        <ele>446.9</ele>
        <time>2000-01-01T00:40:00Z</time>
      </trkpt>
      <trkpt lat="48.787884" lon="8.884096">
        <ele>466.3</ele>
        <time>2000-01-01T00:41:29Z</time>
      </trkpt>
      <trkpt lat="48.789089" lon="8.883618">
        <ele>471.3</ele>
        <time>2000-01-01T00:41:56Z</time>
      </trkpt>
      <trkpt lat="48.789875" lon="8.882523">
        <ele>471.1</ele>
        <time>2000-01-01T00:42:16Z</time>
      </trkpt>
      <trkpt lat="48.791031" lon="8.87867">
        <ele>463.9</ele>
        <time>2000-01-01T00:42:59Z</time>
      </trkpt>
      <trkpt lat="48.790699" lon="8.87257">
        <ele>456</ele>
        <time>2000-01-01T00:45:32Z</time>
      </trkpt>
      <trkpt lat="48.791527" lon="8.868164">
        <ele>467.9</ele>
        <time>2000-01-01T00:46:46Z</time>
      </trkpt>
      <trkpt lat="48.791138" lon="8.866878">
        <ele>472.8</ele>
        <time>2000-01-01T00:47:10Z</time>
      </trkpt>
      <trkpt lat="48.792705" lon="8.867629">
        <ele>474.6</ele>
        <time>2000-01-01T00:47:53Z</time>
      </trkpt>
      <trkpt lat="48.797157" lon="8.855075">
        <ele>401.6</ele>
        <time>2000-01-01T00:50:29Z</time>
      </trkpt>
      <trkpt lat="48.796989" lon="8.854316">
        <ele>398</ele>
        <time>2000-01-01T00:50:52Z</time>
      </trkpt>
      <trkpt lat="48.797615" lon="8.852385">
        <ele>396.3</ele>
        <time>2000-01-01T00:51:17Z</time>
      </trkpt>
      <trkpt lat="48.800587" lon="8.848872">
        <ele>415</ele>
        <time>2000-01-01T00:52:41Z</time>
      </trkpt>
      <trkpt lat="48.799469" lon="8.842721">
        <ele>412</ele>
        <time>2000-01-01T00:54:29Z</time>
      </trkpt>
      <trkpt lat="48.798855" lon="8.842299">
        <ele>410.2</ele>
        <time>2000-01-01T00:54:45Z</time>
      </trkpt>
      <trkpt lat="48.798412" lon="8.839183">
        <ele>399.7</ele>
        <time>2000-01-01T00:55:23Z</time>
      </trkpt>
      <trkpt lat="48.797966" lon="8.838928">
        <ele>397.3</ele>
        <time>2000-01-01T00:55:36Z</time>
      </trkpt>
      <trkpt lat="48.794201" lon="8.842249">
        <ele>384.6</ele>
        <time>2000-01-01T00:57:50Z</time>
      </trkpt>
      <trkpt lat="48.793167" lon="8.841175">
        <ele>387.5</ele>
        <time>2000-01-01T00:58:22Z</time>
      </trkpt>
      <trkpt lat="48.791927" lon="8.844251">
        <ele>403.5</ele>
        <time>2000-01-01T00:59:20Z</time>
      </trkpt>
      <trkpt lat="48.786335" lon="8.84855">
        <ele>409.8</ele>
        <time>2000-01-01T01:01:16Z</time>
      </trkpt>
      <trkpt lat="48.784527" lon="8.85271">
        <ele>399.3</ele>
        <time>2000-01-01T01:02:10Z</time>
      </trkpt>
      <trkpt lat="48.782886" lon="8.854073">
        <ele>390.4</ele>
        <time>2000-01-01T01:02:32Z</time>
      </trkpt>
      <trkpt lat="48.774876" lon="8.853034">
        <ele>390.6</ele>
        <time>2000-01-01T01:05:12Z</time>
      </trkpt>
      <trkpt lat="48.774742" lon="8.854317">
        <ele>386.9</ele>
        <time>2000-01-01T01:05:32Z</time>
      </trkpt>
      <trkpt lat="48.774101" lon="8.85404">
        <ele>386.7</ele>
        <time>2000-01-01T01:05:48Z</time>
      </trkpt>
      <trkpt lat="48.77409" lon="8.855473">
        <ele>386.3</ele>
        <time>2000-01-01T01:06:50Z</time>
      </trkpt>
      <trkpt lat="48.773273" lon="8.855809">
        <ele>383.4</ele>
        <time>2000-01-01T01:07:23Z</time>
      </trkpt>
      <trkpt lat="48.77206" lon="8.854653">
        <ele>380.5</ele>
        <time>2000-01-01T01:07:57Z</time>
      </trkpt>
      <trkpt lat="48.771389" lon="8.857297">
        <ele>380.5</ele>
        <time>2000-01-01T01:08:32Z</time>
      </trkpt>
      <trkpt lat="48.77005" lon="8.859563">
        <ele>381.8</ele>
        <time>2000-01-01T01:09:11Z</time>
      </trkpt>
      <trkpt lat="48.770748" lon="8.861441">
        <ele>385.1</ele>
        <time>2000-01-01T01:09:45Z</time>
      </trkpt>
      <trkpt lat="48.768669" lon="8.862908">
        <ele>392.7</ele>
        <time>2000-01-01T01:10:31Z</time>
      </trkpt>
      <trkpt lat="48.765671" lon="8.867019">
        <ele>387.2</ele>
        <time>2000-01-01T01:11:44Z</time>
      </trkpt>
      <trkpt lat="48.765213" lon="8.867207">
        <ele>386.4</ele>
        <time>2000-01-01T01:11:56Z</time>
      </trkpt>
      <trkpt lat="48.763122" lon="8.864585">
        <ele>384.4</ele>
        <time>2000-01-01T01:12:41Z</time>
      </trkpt>
      <trkpt lat="48.762588" lon="8.864766">
        <ele>384.3</ele>
        <time>2000-01-01T01:12:54Z</time>
      </trkpt>
      <trkpt lat="48.76141" lon="8.870568">
        <ele>384.6</ele>
        <time>2000-01-01T01:14:04Z</time>
      </trkpt>
      <trkpt lat="48.762905" lon="8.87649">
        <ele>386.7</ele>
        <time>2000-01-01T01:15:20Z</time>
      </trkpt>
      <trkpt lat="48.761406" lon="8.876539">
        <ele>386.5</ele>
        <time>2000-01-01T01:15:49Z</time>
      </trkpt>
      <trkpt lat="48.761551" lon="8.879233">
        <ele>386.6</ele>
        <time>2000-01-01T01:16:22Z</time>
      </trkpt>
      <trkpt lat="48.760776" lon="8.880196">
        <ele>386.7</ele>
        <time>2000-01-01T01:16:42Z</time>
      </trkpt>
      <trkpt lat="48.757717" lon="8.878692">
        <ele>385.9</ele>
        <time>2000-01-01T01:17:43Z</time>
      </trkpt>
      <trkpt lat="48.755859" lon="8.875741">
        <ele>387.4</ele>
        <time>2000-01-01T01:18:30Z</time>
      </trkpt>
      <trkpt lat="48.753857" lon="8.874013">
        <ele>389.6</ele>
        <time>2000-01-01T01:19:49Z</time>
      </trkpt>
      <trkpt lat="48.75003" lon="8.87368">
        <ele>391.4</ele>
        <time>2000-01-01T01:21:19Z</time>
      </trkpt>
      <trkpt lat="48.749813" lon="8.876528">
        <ele>391.6</ele>
        <time>2000-01-01T01:22:07Z</time>
      </trkpt>
      <trkpt lat="48.746593" lon="8.876719">
        <ele>390.9</ele>
        <time>2000-01-01T01:23:08Z</time>
      </trkpt>
      <trkpt lat="48.745853" lon="8.877385">
        <ele>390.8</ele>
        <time>2000-01-01T01:23:27Z</time>
      </trkpt>
      <trkpt lat="48.742683" lon="8.876611">
        <ele>393.4</ele>
        <time>2000-01-01T01:24:24Z</time>
      </trkpt>
      <trkpt lat="48.74007" lon="8.877272">
        <ele>395.2</ele>
        <time>2000-01-01T01:25:12Z</time>
      </trkpt>
      <trkpt lat="48.739143" lon="8.8781">
        <ele>396.3</ele>
        <time>2000-01-01T01:25:33Z</time>
      </trkpt>
      <trkpt lat="48.738266" lon="8.88101">
        <ele>403.1</ele>
        <time>2000-01-01T01:26:14Z</time>
      </trkpt>
      <trkpt lat="48.736828" lon="8.883013">
        <ele>405.4</ele>
        <time>2000-01-01T01:26:49Z</time>
      </trkpt>
      <trkpt lat="48.730236" lon="8.883633">
        <ele>402.9</ele>
        <time>2000-01-01T01:29:11Z</time>
      </trkpt>
      <trkpt lat="48.728825" lon="8.88468">
        <ele>400.8</ele>
        <time>2000-01-01T01:29:37Z</time>
      </trkpt>
      <trkpt lat="48.728084" lon="8.894579">
        <ele>415.7</ele>
        <time>2000-01-01T01:32:11Z</time>
      </trkpt>
      <trkpt lat="48.729648" lon="8.899759">
        <ele>452.1</ele>
        <time>2000-01-01T01:34:30Z</time>
      </trkpt>
      <trkpt lat="48.731731" lon="8.903658">
        <ele>473.6</ele>
        <time>2000-01-01T01:35:47Z</time>
      </trkpt>
      <trkpt lat="48.732006" lon="8.903213">
        <ele>475.4</ele>
        <time>2000-01-01T01:36:12Z</time>
      </trkpt>
      <trkpt lat="48.731747" lon="8.90362">
        <ele>477.1</ele>
        <time>2000-01-01T01:43:12Z</time>
      </trkpt>
      <trkpt lat="48.732181" lon="8.905704">
        <ele>482.1</ele>
        <time>2000-01-01T01:44:03Z</time>
      </trkpt>
      <trkpt lat="48.73415" lon="8.910522">
        <ele>486.7</ele>
        <time>2000-01-01T01:45:37Z</time>
      </trkpt>
      <trkpt lat="48.737644" lon="8.928218">
        <ele>477.8</ele>
        <time>2000-01-01T01:49:53Z</time>
      </trkpt>
      <trkpt lat="48.734669" lon="8.933471">
        <ele>476.4</ele>
        <time>2000-01-01T01:51:16Z</time>
      </trkpt>
      <trkpt lat="48.733696" lon="8.937039">
        <ele>478.1</ele>
        <time>2000-01-01T01:52:03Z</time>
      </trkpt>
      <trkpt lat="48.730846" lon="8.936605">
        <ele>486.3</ele>
        <time>2000-01-01T01:53:03Z</time>
      </trkpt>
      <trkpt lat="48.728611" lon="8.938253">
        <ele>499.1</ele>
        <time>2000-01-01T01:53:52Z</time>
      </trkpt>
      <trkpt lat="48.730095" lon="8.943688">
        <ele>495.9</ele>
        <time>2000-01-01T01:55:19Z</time>
      </trkpt>
      <trkpt lat="48.728538" lon="8.953737">
        <ele>488.8</ele>
        <time>2000-01-01T01:57:19Z</time>
      </trkpt>
      <trkpt lat="48.72644" lon="8.959301">
        <ele>473.6</ele>
        <time>2000-01-01T01:58:25Z</time>
      </trkpt>
      <trkpt lat="48.726013" lon="8.961569">
        <ele>464.6</ele>
        <time>2000-01-01T01:58:44Z</time>
      </trkpt>
      <trkpt lat="48.725418" lon="8.962094">
        <ele>464.2</ele>
        <time>2000-01-01T01:59:00Z</time>
      </trkpt>
      <trkpt lat="48.725311" lon="8.963436">
        <ele>464.2</ele>
        <time>2000-01-01T01:59:15Z</time>
      </trkpt>
      <trkpt lat="48.725647" lon="8.963476">
        <ele>464.2</ele>
        <time>2000-01-01T02:00:07Z</time>
      </trkpt>
    </trkseg>
  </trk>
</gpx>