<?xml version="1.0" encoding="UTF-8"?>
<gpx xmlns="http://www.topografix.com/GPX/1/1" xmlns:xsi="http://www.w3.org/2001/XMLSchema-instance" xsi:schemaLocation="http://www.topografix.com/GPX/1/1 http://www.topografix.com/GPX/1/1/gpx.xsd" version="1.1" creator="gpx.py -- https://github.com/tkrajina/gpxpy">
  <metadata>
    <name>Sindelfingen_4318166c</name>
  </metadata>
  <trk>
    <name>Sindelfingen_4318166c</name>
    <trkseg>
      <trkpt lat="48.725983" lon="8.963685">
        <ele>469.6</ele>
        <time>2000-01-01T00:00:00Z</time>
      </trkpt>
      <trkpt lat="48.725319" lon="8.96356">
        <ele>469.6</ele>
        <time>2000-01-01T00:01:42Z</time>
      </trkpt>
      <trkpt lat="48.725136" lon="8.965029">
        <ele>468.1</ele>
        <time>2000-01-01T00:02:04Z</time>
      </trkpt>
      <trkpt lat="48.724399" lon="8.96464">
        <ele>466.7</ele>
        <time>2000-01-01T00:02:19Z</time>
      </trkpt>
      <trkpt lat="48.722404" lon="8.965184">
        <ele>464.8</ele>
        <time>2000-01-01T00:02:58Z</time>
      </trkpt>
      <trkpt lat="48.721344" lon="8.966656">
        <ele>461.2</ele>
        <time>2000-01-01T00:03:48Z</time>
      </trkpt>
      <trkpt lat="48.718929" lon="8.968428">
        <ele>452.7</ele>
        <time>2000-01-01T00:04:27Z</time>
      </trkpt>
      <trkpt lat="48.717865" lon="8.970588">
        <ele>449.8</ele>
        <time>2000-01-01T00:05:08Z</time>
      </trkpt>
      <trkpt lat="48.713871" lon="8.974252">
        <ele>447.6</ele>
        <time>2000-01-01T00:06:28Z</time>
      </trkpt>
      <trkpt lat="48.711281" lon="8.978537">
        <ele>446.8</ele>
        <time>2000-01-01T00:07:38Z</time>
      </trkpt>
      <trkpt lat="48.708637" lon="8.986002">
        <ele>443.4</ele>
        <time>2000-01-01T00:09:29Z</time>
      </trkpt>
      <trkpt lat="48.707107" lon="8.985366">
        <ele>444.2</ele>
        <time>2000-01-01T00:10:04Z</time>
      </trkpt>
      <trkpt lat="48.706936" lon="8.989895">
        <ele>442.1</ele>
        <time>2000-01-01T00:10:57Z</time>
      </trkpt>
      <trkpt lat="48.706222" lon="8.990124">
        <ele>440.8</ele>
        <time>2000-01-01T00:12:19Z</time>
      </trkpt>
      <trkpt lat="48.704445" lon="8.988681">
        <ele>439.2</ele>
        <time>2000-01-01T00:13:36Z</time>
      </trkpt>
    </trkseg>
    <trkseg>
      <trkpt lat="48.704281" lon="8.988864">
        <ele>439.8</ele>
        <time>2000-01-01T00:00:00Z</time>
      </trkpt>
      <trkpt lat="48.704479" lon="8.987925">
        <ele>439.8</ele>
        <time>2000-01-01T00:00:22Z</time>
      </trkpt>
      <trkpt lat="48.705089" lon="8.987584">
        <ele>439.9</ele>
        <time>2000-01-01T00:00:46Z</time>
      </trkpt>
      <trkpt lat="48.704941" lon="8.988209">
        <ele>439.9</ele>
        <time>2000-01-01T00:00:59Z</time>
      </trkpt>
      <trkpt lat="48.705662" lon="8.989705">
        <ele>440.4</ele>
        <time>2000-01-01T00:01:29Z</time>
      </trkpt>
      <trkpt lat="48.706955" lon="8.989862">
        <ele>441.4</ele>
        <time>2000-01-01T00:02:26Z</time>
      </trkpt>
      <trkpt lat="48.707111" lon="8.985389">
        <ele>444.7</ele>
        <time>2000-01-01T00:03:26Z</time>
      </trkpt>
      <trkpt lat="48.708706" lon="8.986302">
        <ele>444</ele>
        <time>2000-01-01T00:04:29Z</time>
      </trkpt>
      <trkpt lat="48.711189" lon="8.978723">
        <ele>445</ele>
        <time>2000-01-01T00:06:17Z</time>
      </trkpt>
      <trkpt lat="48.713257" lon="8.975223">
        <ele>442.5</ele>
        <time>2000-01-01T00:07:10Z</time>
      </trkpt>
      <trkpt lat="48.718651" lon="8.969727">
        <ele>444.8</ele>
        <time>2000-01-01T00:09:10Z</time>
      </trkpt>
      <trkpt lat="48.718948" lon="8.968414">
        <ele>445.9</ele>
        <time>2000-01-01T00:09:34Z</time>
      </trkpt>
      <trkpt lat="48.722752" lon="8.964916">
        <ele>457.4</ele>
        <time>2000-01-01T00:11:03Z</time>
      </trkpt>
      <trkpt lat="48.725204" lon="8.96513">
        <ele>459.6</ele>
        <time>2000-01-01T00:11:51Z</time>
      </trkpt>
      <trkpt lat="48.725647" lon="8.963509">
        <ele>459.8</ele>
        <time>2000-01-01T00:12:55Z</time>
      </trkpt>
    </trkseg>
  </trk>
</gpx>