<?xml version="1.0" encoding="UTF-8"?>
<gpx xmlns="http://www.topografix.com/GPX/1/1" xmlns:xsi="http://www.w3.org/2001/XMLSchema-instance" xsi:schemaLocation="http://www.topografix.com/GPX/1/1 http://www.topografix.com/GPX/1/1/gpx.xsd" version="1.1" creator="gpx.py -- https://github.com/tkrajina/gpxpy">
  <metadata>
    <name>Sindelfingen_23deb48e</name>
  </metadata>
  <trk>
    <name>Sindelfingen_23deb48e</name>
    <trkseg>
      <trkpt lat="48.725757" lon="8.963645">
        <ele>470.1</ele>
        <time>2000-01-01T00:00:00Z</time>
      </trkpt>
      <trkpt lat="48.725315" lon="8.963633">
        <ele>470.1</ele>
        <time>2000-01-01T00:00:31Z</time>
      </trkpt>
      <trkpt lat="48.72522" lon="8.964973">
        <ele>469.1</ele>
        <time>2000-01-01T00:00:50Z</time>
      </trkpt>
      <trkpt lat="48.724811" lon="8.964668">
        <ele>468.3</ele>
        <time>2000-01-01T00:01:08Z</time>
      </trkpt>
      <trkpt lat="48.707744" lon="8.986148">
        <ele>461.5</ele>
        <time>2000-01-01T00:10:39Z</time>
      </trkpt>
      <trkpt lat="48.707054" lon="8.987866">
        <ele>454.9</ele>
        <time>2000-01-01T00:10:44Z</time>
      </trkpt>
      <trkpt lat="48.706947" lon="8.9899">
        <ele>449.9</ele>
        <time>2000-01-01T00:11:09Z</time>
      </trkpt>
      <trkpt lat="48.705509" lon="8.989796">
        <ele>447.2</ele>
        <time>2000-01-01T00:12:26Z</time>
      </trkpt>
      <trkpt lat="48.704368" lon="8.988732">
        <ele>447.2</ele>
        <time>2000-01-01T00:13:40Z</time>
      </trkpt>
    </trkseg>
    <trkseg>
      <trkpt lat="48.704694" lon="8.98919">
        <ele>441.2</ele>
        <time>2000-01-01T00:00:00Z</time>
      </trkpt>
      <trkpt lat="48.706337" lon="8.990199">
        <ele>440.9</ele>
        <time>2000-01-01T00:01:08Z</time>
      </trkpt>
      <trkpt lat="48.706188" lon="8.992577">
        <ele>441.3</ele>
        <time>2000-01-01T00:01:43Z</time>
      </trkpt>
      <trkpt lat="48.706856" lon="8.992562">
        <ele>440.5</ele>
        <time>2000-01-01T00:02:35Z</time>
      </trkpt>
      <trkpt lat="48.707313" lon="8.993625">
        <ele>439.3</ele>
        <time>2000-01-01T00:03:22Z</time>
      </trkpt>
      <trkpt lat="48.707008" lon="8.997647">
        <ele>435.3</ele>
        <time>2000-01-01T00:04:26Z</time>
      </trkpt>
      <trkpt lat="48.706432" lon="8.998182">
        <ele>435.3</ele>
        <time>2000-01-01T00:04:50Z</time>
      </trkpt>
    </trkseg>
    <trkseg>
      <trkpt lat="48.706417" lon="8.998087">
        <ele>441.4</ele>
        <time>2000-01-01T00:00:00Z</time>
      </trkpt>
      <trkpt lat="48.707054" lon="8.99797">
        <ele>441.4</ele>
        <time>2000-01-01T00:00:24Z</time>
      </trkpt>
      <trkpt lat="48.707439" lon="8.992418">
        <ele>444.1</ele>
        <time>2000-01-01T00:03:20Z</time>
      </trkpt>
      <trkpt lat="48.709614" lon="8.989703">
        <ele>439.9</ele>
        <time>2000-01-01T00:04:18Z</time>
      </trkpt>
      <trkpt lat="48.713165" lon="8.97644">
        <ele>442.1</ele>
        <time>2000-01-01T00:07:35Z</time>
      </trkpt>
      <trkpt lat="48.718784" lon="8.970214">
        <ele>445.7</ele>
        <time>2000-01-01T00:09:56Z</time>
      </trkpt>
      <trkpt lat="48.718914" lon="8.968438">
        <ele>447.7</ele>
        <time>2000-01-01T00:10:27Z</time>
      </trkpt>
      <trkpt lat="48.722805" lon="8.9649">
        <ele>458.8</ele>
        <time>2000-01-01T00:12:05Z</time>
      </trkpt>
      <trkpt lat="48.725223" lon="8.965098">
        <ele>459.6</ele>
        <time>2000-01-01T00:12:52Z</time>
      </trkpt>
      <trkpt lat="48.725361" lon="8.963647">
        <ele>459.6</ele>
        <time>2000-01-01T00:13:09Z</time>
      </trkpt>
      <trkpt lat="48.725666" lon="8.963683">
        <ele>459.6</ele>
        <time>2000-01-01T00:13:51Z</time>
      </trkpt>
    </trkseg>
  </trk>
</gpx>