<?xml version="1.0" encoding="UTF-8"?>
<gpx xmlns="http://www.topografix.com/GPX/1/1" xmlns:xsi="http://www.w3.org/2001/XMLSchema-instance" xsi:schemaLocation="http://www.topografix.com/GPX/1/1 http://www.topografix.com/GPX/1/1/gpx.xsd" version="1.1" creator="gpx.py -- https://github.com/tkrajina/gpxpy">
  <metadata>
    <name>Sindelfingen_9b4ada11</name>
  </metadata>
  <trk>
    <name>Sindelfingen_9b4ada11</name>
    <trkseg>
      <trkpt lat="48.725723" lon="8.963456">
        <ele>474.2</ele>
        <time>2000-01-01T00:00:00Z</time>
      </trkpt>
      <trkpt lat="48.727566" lon="8.964164">
        <ele>476.6</ele>
        <time>2000-01-01T00:01:11Z</time>
      </trkpt>
      <trkpt lat="48.727779" lon="8.959588">
        <ele>483.6</ele>
        <time>2000-01-01T00:02:50Z</time>
      </trkpt>
      <trkpt lat="48.72987" lon="8.959089">
        <ele>488.7</ele>
        <time>2000-01-01T00:03:52Z</time>
      </trkpt>
      <trkpt lat="48.729854" lon="8.956427">
        <ele>493.3</ele>
        <time>2000-01-01T00:04:43Z</time>
      </trkpt>
      <trkpt lat="48.729633" lon="8.957741">
        <ele>491.8</ele>
        <time>2000-01-01T00:05:04Z</time>
      </trkpt>
      <trkpt lat="48.730305" lon="8.961328">
        <ele>480.9</ele>
        <time>2000-01-01T00:05:33Z</time>
      </trkpt>
      <trkpt lat="48.730263" lon="8.963557">
        <ele>476.3</ele>
        <time>2000-01-01T00:06:06Z</time>
      </trkpt>
      <trkpt lat="48.728546" lon="8.963611">
        <ele>472.7</ele>
        <time>2000-01-01T00:06:38Z</time>
      </trkpt>
      <trkpt lat="48.728557" lon="8.965504">
        <ele>471.4</ele>
        <time>2000-01-01T00:07:01Z</time>
      </trkpt>
      <trkpt lat="48.727905" lon="8.96556">
        <ele>471.9</ele>
        <time>2000-01-01T00:07:16Z</time>
      </trkpt>
      <trkpt lat="48.727547" lon="8.964112">
        <ele>472.6</ele>
        <time>2000-01-01T00:07:44Z</time>
      </trkpt>
      <trkpt lat="48.725693" lon="8.963573">
        <ele>472.6</ele>
        <time>2000-01-01T00:08:59Z</time>
      </trkpt>
    </trkseg>
  </trk>
</gpx>