<?xml version="1.0" encoding="UTF-8"?>
<gpx xmlns="http://www.topografix.com/GPX/1/1" xmlns:xsi="http://www.w3.org/2001/XMLSchema-instance" xsi:schemaLocation="http://www.topografix.com/GPX/1/1 http://www.topografix.com/GPX/1/1/gpx.xsd" version="1.1" creator="gpx.py -- https://github.com/tkrajina/gpxpy">
  <metadata>
    <name>Sindelfingen_f5d95d02</name>
  </metadata>
  <trk>
    <name>Sindelfingen_f5d95d02</name>
    <trkseg>
      <trkpt lat="48.725731" lon="8.963335">
        <ele>470.9</ele>
        <time>2000-01-01T00:00:00Z</time>
      </trkpt>
      <trkpt lat="48.725239" lon="8.964971">
        <ele>470.3</ele>
        <time>2000-01-01T00:00:53Z</time>
      </trkpt>
      <trkpt lat="48.722824" lon="8.96489">
        <ele>468.1</ele>
        <time>2000-01-01T00:01:39Z</time>
      </trkpt>
      <trkpt lat="48.718933" lon="8.968424">
        <ele>455.4</ele>
        <time>2000-01-01T00:02:57Z</time>
      </trkpt>
      <trkpt lat="48.718037" lon="8.970381">
        <ele>451.7</ele>
        <time>2000-01-01T00:03:52Z</time>
      </trkpt>
      <trkpt lat="48.713245" lon="8.975259">
        <ele>449</ele>
        <time>2000-01-01T00:05:38Z</time>
      </trkpt>
      <trkpt lat="48.711243" lon="8.978645">
        <ele>448</ele>
        <time>2000-01-01T00:06:36Z</time>
      </trkpt>
      <trkpt lat="48.708694" lon="8.986449">
        <ele>444.3</ele>
        <time>2000-01-01T00:09:13Z</time>
      </trkpt>
      <trkpt lat="48.707073" lon="8.985441">
        <ele>444.8</ele>
        <time>2000-01-01T00:09:55Z</time>
      </trkpt>
      <trkpt lat="48.706932" lon="8.989885">
        <ele>442.5</ele>
        <time>2000-01-01T00:10:52Z</time>
      </trkpt>
      <trkpt lat="48.705566" lon="8.989892">
        <ele>439.8</ele>
        <time>2000-01-01T00:13:04Z</time>
      </trkpt>
      <trkpt lat="48.70425" lon="8.988907">
        <ele>439.5</ele>
        <time>2000-01-01T00:13:42Z</time>
      </trkpt>
    </trkseg>
    <trkseg>
      <trkpt lat="48.704239" lon="8.989">
        <ele>439.7</ele>
        <time>2000-01-01T00:00:00Z</time>
      </trkpt>
      <trkpt lat="48.70639" lon="8.990134">
        <ele>441.1</ele>
        <time>2000-01-01T00:01:31Z</time>
      </trkpt>
      <trkpt lat="48.706951" lon="8.989883">
        <ele>441.6</ele>
        <time>2000-01-01T00:01:47Z</time>
      </trkpt>
      <trkpt lat="48.707119" lon="8.98533">
        <ele>444.9</ele>
        <time>2000-01-01T00:02:56Z</time>
      </trkpt>
      <trkpt lat="48.708671" lon="8.986351">
        <ele>444.4</ele>
        <time>2000-01-01T00:03:56Z</time>
      </trkpt>
      <trkpt lat="48.711086" lon="8.979001">
        <ele>445.2</ele>
        <time>2000-01-01T00:05:48Z</time>
      </trkpt>
      <trkpt lat="48.713135" lon="8.975408">
        <ele>443.1</ele>
        <time>2000-01-01T00:06:45Z</time>
      </trkpt>
      <trkpt lat="48.718712" lon="8.969829">
        <ele>445.6</ele>
        <time>2000-01-01T00:08:56Z</time>
      </trkpt>
      <trkpt lat="48.718925" lon="8.968414">
        <ele>446.8</ele>
        <time>2000-01-01T00:09:24Z</time>
      </trkpt>
      <trkpt lat="48.721111" lon="8.966962">
        <ele>454.3</ele>
        <time>2000-01-01T00:10:24Z</time>
      </trkpt>
      <trkpt lat="48.722736" lon="8.964923">
        <ele>458.5</ele>
        <time>2000-01-01T00:11:19Z</time>
      </trkpt>
      <trkpt lat="48.725162" lon="8.965098">
        <ele>459.8</ele>
        <time>2000-01-01T00:12:09Z</time>
      </trkpt>
      <trkpt lat="48.725651" lon="8.963515">
        <ele>459.8</ele>
        <time>2000-01-01T00:13:18Z</time>
      </trkpt>
    </trkseg>
  </trk>
</gpx>