<?xml version="1.0" encoding="UTF-8"?>
<gpx xmlns="http://www.topografix.com/GPX/1/1" xmlns:xsi="http://www.w3.org/2001/XMLSchema-instance" xsi:schemaLocation="http://www.topografix.com/GPX/1/1 http://www.topografix.com/GPX/1/1/gpx.xsd" version="1.1" creator="gpx.py -- https://github.com/tkrajina/gpxpy">
  <metadata>
    <name>Sindelfingen_02f58c18</name>
  </metadata>
  <trk>
    <name>Sindelfingen_02f58c18</name>
    <trkseg>
      <trkpt lat="48.725822" lon="8.96355">
        <ele>473.8</ele>
        <time>2000-01-01T00:00:00Z</time>
      </trkpt>
      <trkpt lat="48.72755" lon="8.964147">
        <ele>475.6</ele>
        <time>2000-01-01T00:02:08Z</time>
      </trkpt>
      <trkpt lat="48.727833" lon="8.963596">
        <ele>475.9</ele>
        <time>2000-01-01T00:02:45Z</time>
      </trkpt>
      <trkpt lat="48.736496" lon="8.963888">
        <ele>453.3</ele>
        <time>2000-01-01T00:15:44Z</time>
      </trkpt>
      <trkpt lat="48.736229" lon="8.965655">
        <ele>448.5</ele>
        <time>2000-01-01T00:16:17Z</time>
      </trkpt>
      <trkpt lat="48.737217" lon="8.963892">
        <ele>446.6</ele>
        <time>2000-01-01T00:17:01Z</time>
      </trkpt>
      <trkpt lat="48.740219" lon="8.962381">
        <ele>431.1</ele>
        <time>2000-01-01T00:18:04Z</time>
      </trkpt>
      <trkpt lat="48.743973" lon="8.963518">
        <ele>425.7</ele>
        <time>2000-01-01T00:19:35Z</time>
      </trkpt>
      <trkpt lat="48.749203" lon="8.963126">
        <ele>434.6</ele>
        <time>2000-01-01T00:21:34Z</time>
      </trkpt>
      <trkpt lat="48.752605" lon="8.957012">
        <ele>454</ele>
        <time>2000-01-01T00:24:24Z</time>
      </trkpt>
      <trkpt lat="48.755356" lon="8.954693">
        <ele>458.1</ele>
        <time>2000-01-01T00:25:35Z</time>
      </trkpt>
      <trkpt lat="48.763836" lon="8.96106">
        <ele>409.3</ele>
        <time>2000-01-01T00:28:20Z</time>
      </trkpt>
      <trkpt lat="48.768276" lon="8.963118">
        <ele>418.3</ele>
        <time>2000-01-01T00:30:23Z</time>
      </trkpt>
      <trkpt lat="48.768932" lon="8.962636">
        <ele>420.7</ele>
        <time>2000-01-01T00:30:44Z</time>
      </trkpt>
      <trkpt lat="48.774509" lon="8.96341">
        <ele>432.2</ele>
        <time>2000-01-01T00:33:30Z</time>
      </trkpt>
      <trkpt lat="48.776558" lon="8.965912">
        <ele>442.5</ele>
        <time>2000-01-01T00:35:00Z</time>
      </trkpt>
      <trkpt lat="48.77726" lon="8.96553">
        <ele>444.1</ele>
        <time>2000-01-01T00:35:20Z</time>
      </trkpt>
      <trkpt lat="48.777466" lon="8.964545">
        <ele>445.6</ele>
        <time>2000-01-01T00:35:49Z</time>
      </trkpt>
      <trkpt lat="48.780506" lon="8.96994">
        <ele>446.8</ele>
        <time>2000-01-01T00:37:45Z</time>
      </trkpt>
      <trkpt lat="48.781654" lon="8.970527">
        <ele>445.4</ele>
        <time>2000-01-01T00:38:16Z</time>
      </trkpt>
      <trkpt lat="48.781532" lon="8.971837">
        <ele>443.2</ele>
        <time>2000-01-01T00:38:40Z</time>
      </trkpt>
      <trkpt lat="48.783749" lon="8.978023">
        <ele>421.6</ele>
        <time>2000-01-01T00:40:37Z</time>
      </trkpt>
      <trkpt lat="48.783432" lon="8.978715">
        <ele>419.4</ele>
        <time>2000-01-01T00:40:59Z</time>
      </trkpt>
      <trkpt lat="48.783958" lon="8.979982">
        <ele>415.9</ele>
        <time>2000-01-01T00:41:25Z</time>
      </trkpt>
      <trkpt lat="48.784801" lon="8.988236">
        <ele>388.5</ele>
        <time>2000-01-01T00:42:49Z</time>
      </trkpt>
      <trkpt lat="48.78537" lon="8.989848">
        <ele>379.2</ele>
        <time>2000-01-01T00:43:06Z</time>
      </trkpt>
      <trkpt lat="48.786644" lon="8.990384">
        <ele>369.4</ele>
        <time>2000-01-01T00:44:10Z</time>
      </trkpt>
      <trkpt lat="48.787472" lon="8.986555">
        <ele>362.9</ele>
        <time>2000-01-01T00:45:07Z</time>
      </trkpt>
      <trkpt lat="48.789108" lon="8.982966">
        <ele>365.2</ele>
        <time>2000-01-01T00:46:28Z</time>
      </trkpt>
      <trkpt lat="48.790787" lon="8.983074">
        <ele>366.1</ele>
        <time>2000-01-01T00:47:49Z</time>
      </trkpt>
      <trkpt lat="48.791996" lon="8.984354">
        <ele>365.2</ele>
        <time>2000-01-01T00:48:32Z</time>
      </trkpt>
      <trkpt lat="48.792549" lon="8.975434">
        <ele>375</ele>
        <time>2000-01-01T00:50:52Z</time>
      </trkpt>
      <trkpt lat="48.791889" lon="8.971792">
        <ele>379.6</ele>
        <time>2000-01-01T00:51:53Z</time>
      </trkpt>
      <trkpt lat="48.791031" lon="8.971179">
        <ele>380.9</ele>
        <time>2000-01-01T00:52:19Z</time>
      </trkpt>
      <trkpt lat="48.791309" lon="8.968967">
        <ele>382.1</ele>
        <time>2000-01-01T00:54:48Z</time>
      </trkpt>
      <trkpt lat="48.790119" lon="8.966301">
        <ele>384.9</ele>
        <time>2000-01-01T00:55:49Z</time>
      </trkpt>
      <trkpt lat="48.789486" lon="8.961745">
        <ele>399.6</ele>
        <time>2000-01-01T00:57:11Z</time>
      </trkpt>
      <trkpt lat="48.789879" lon="8.959453">
        <ele>398.7</ele>
        <time>2000-01-01T00:57:55Z</time>
      </trkpt>
      <trkpt lat="48.788971" lon="8.957645">
        <ele>393</ele>
        <time>2000-01-01T00:58:27Z</time>
      </trkpt>
      <trkpt lat="48.788124" lon="8.957213">
        <ele>389.3</ele>
        <time>2000-01-01T00:58:47Z</time>
      </trkpt>
      <trkpt lat="48.787838" lon="8.959515">
        <ele>384.9</ele>
        <time>2000-01-01T00:59:23Z</time>
      </trkpt>
      <trkpt lat="48.787342" lon="8.960141">
        <ele>384.1</ele>
        <time>2000-01-01T00:59:45Z</time>
      </trkpt>
      <trkpt lat="48.783516" lon="8.95354">
        <ele>390.4</ele>
        <time>2000-01-01T01:03:42Z</time>
      </trkpt>
      <trkpt lat="48.778995" lon="8.951241">
        <ele>406.5</ele>
        <time>2000-01-01T01:05:43Z</time>
      </trkpt>
      <trkpt lat="48.777798" lon="8.948637">
        <ele>412.9</ele>
        <time>2000-01-01T01:06:26Z</time>
      </trkpt>
      <trkpt lat="48.776501" lon="8.947919">
        <ele>417.8</ele>
        <time>2000-01-01T01:06:56Z</time>
      </trkpt>
      <trkpt lat="48.775711" lon="8.946527">
        <ele>420.6</ele>
        <time>2000-01-01T01:07:22Z</time>
      </trkpt>
      <trkpt lat="48.775051" lon="8.948079">
        <ele>419</ele>
        <time>2000-01-01T01:07:55Z</time>
      </trkpt>
      <trkpt lat="48.763714" lon="8.945369">
        <ele>407.2</ele>
        <time>2000-01-01T01:12:39Z</time>
      </trkpt>
      <trkpt lat="48.763531" lon="8.944565">
        <ele>407.9</ele>
        <time>2000-01-01T01:12:54Z</time>
      </trkpt>
      <trkpt lat="48.760624" lon="8.944164">
        <ele>409.2</ele>
        <time>2000-01-01T01:14:06Z</time>
      </trkpt>
      <trkpt lat="48.76001" lon="8.943558">
        <ele>409.1</ele>
        <time>2000-01-01T01:14:23Z</time>
      </trkpt>
      <trkpt lat="48.758594" lon="8.944113">
        <ele>409.3</ele>
        <time>2000-01-01T01:14:59Z</time>
      </trkpt>
      <trkpt lat="48.756287" lon="8.942977">
        <ele>410.8</ele>
        <time>2000-01-01T01:16:02Z</time>
      </trkpt>
      <trkpt lat="48.753212" lon="8.944953">
        <ele>412.7</ele>
        <time>2000-01-01T01:17:16Z</time>
      </trkpt>
      <trkpt lat="48.750828" lon="8.945331">
        <ele>418.6</ele>
        <time>2000-01-01T01:18:13Z</time>
      </trkpt>
      <trkpt lat="48.7476" lon="8.948846">
        <ele>419.5</ele>
        <time>2000-01-01T01:19:39Z</time>
      </trkpt>
      <trkpt lat="48.746586" lon="8.951456">
        <ele>420.1</ele>
        <time>2000-01-01T01:20:22Z</time>
      </trkpt>
      <trkpt lat="48.740768" lon="8.94648">
        <ele>448.9</ele>
        <time>2000-01-01T01:23:09Z</time>
      </trkpt>
      <trkpt lat="48.739288" lon="8.946402">
        <ele>455</ele>
        <time>2000-01-01T01:23:42Z</time>
      </trkpt>
      <trkpt lat="48.737377" lon="8.944712">
        <ele>463.3</ele>
        <time>2000-01-01T01:24:33Z</time>
      </trkpt>
      <trkpt lat="48.733711" lon="8.944407">
        <ele>470.9</ele>
        <time>2000-01-01T01:25:57Z</time>
      </trkpt>
      <trkpt lat="48.732666" lon="8.941278">
        <ele>481.5</ele>
        <time>2000-01-01T01:26:53Z</time>
      </trkpt>
      <trkpt lat="48.729839" lon="8.944194">
        <ele>494.2</ele>
        <time>2000-01-01T01:30:28Z</time>
      </trkpt>
      <trkpt lat="48.728607" lon="8.953586">
        <ele>489.5</ele>
        <time>2000-01-01T01:32:55Z</time>
      </trkpt>
      <trkpt lat="48.726402" lon="8.95938">
        <ele>471.4</ele>
        <time>2000-01-01T01:34:48Z</time>
      </trkpt>
      <trkpt lat="48.726055" lon="8.961504">
        <ele>464</ele>
        <time>2000-01-01T01:35:13Z</time>
      </trkpt>
      <trkpt lat="48.725502" lon="8.961903">
        <ele>462.2</ele>
        <time>2000-01-01T01:35:29Z</time>
      </trkpt>
      <trkpt lat="48.725315" lon="8.963542">
        <ele>462.2</ele>
        <time>2000-01-01T01:35:50Z</time>
      </trkpt>
      <trkpt lat="48.725681" lon="8.963518">
        <ele>462.2</ele>
        <time>2000-01-01T01:36:35Z</time>
      </trkpt>
    </trkseg>
  </trk>
</gpx>