<?xml version="1.0" encoding="UTF-8"?>
<gpx xmlns="http://www.topografix.com/GPX/1/1" xmlns:xsi="http://www.w3.org/2001/XMLSchema-instance" xsi:schemaLocation="http://www.topografix.com/GPX/1/1 http://www.topografix.com/GPX/1/1/gpx.xsd" version="1.1" creator="gpx.py -- https://github.com/tkrajina/gpxpy">
  <metadata>
    <name>Sindelfingen_3c03d8d6</name>
  </metadata>
  <trk>
    <name>Sindelfingen_3c03d8d6</name>
    <trkseg>
      <trkpt lat="48.725475" lon="8.963713">
        <ele>468.1</ele>
        <time>2000-01-01T00:00:00Z</time>
      </trkpt>
      <trkpt lat="48.725479" lon="8.962186">
        <ele>469.3</ele>
        <time>2000-01-01T00:00:41Z</time>
      </trkpt>
      <trkpt lat="48.726044" lon="8.961621">
        <ele>471.8</ele>
        <time>2000-01-01T00:00:59Z</time>
      </trkpt>
      <trkpt lat="48.726559" lon="8.959103">
        <ele>480.3</ele>
        <time>2000-01-01T00:01:43Z</time>
      </trkpt>
      <trkpt lat="48.726566" lon="8.952419">
        <ele>491.1</ele>
        <time>2000-01-01T00:03:27Z</time>
      </trkpt>
      <trkpt lat="48.724605" lon="8.941287">
        <ele>481.8</ele>
        <time>2000-01-01T00:05:43Z</time>
      </trkpt>
      <trkpt lat="48.727436" lon="8.939112">
        <ele>498.2</ele>
        <time>2000-01-01T00:06:57Z</time>
      </trkpt>
      <trkpt lat="48.727039" lon="8.936539">
        <ele>505</ele>
        <time>2000-01-01T00:07:41Z</time>
      </trkpt>
      <trkpt lat="48.724293" lon="8.931402">
        <ele>491.9</ele>
        <time>2000-01-01T00:09:07Z</time>
      </trkpt>
      <trkpt lat="48.722443" lon="8.926476">
        <ele>478.1</ele>
        <time>2000-01-01T00:10:03Z</time>
      </trkpt>
      <trkpt lat="48.720043" lon="8.924784">
        <ele>473.1</ele>
        <time>2000-01-01T00:10:46Z</time>
      </trkpt>
      <trkpt lat="48.718685" lon="8.922808">
        <ele>474.4</ele>
        <time>2000-01-01T00:11:27Z</time>
      </trkpt>
      <trkpt lat="48.717472" lon="8.917929">
        <ele>467</ele>
        <time>2000-01-01T00:12:42Z</time>
      </trkpt>
      <trkpt lat="48.718449" lon="8.917526">
        <ele>466.3</ele>
        <time>2000-01-01T00:13:18Z</time>
      </trkpt>
      <trkpt lat="48.717506" lon="8.917925">
        <ele>466.2</ele>
        <time>2000-01-01T00:13:44Z</time>
      </trkpt>
      <trkpt lat="48.71751" lon="8.918639">
        <ele>466.5</ele>
        <time>2000-01-01T00:14:00Z</time>
      </trkpt>
      <trkpt lat="48.718655" lon="8.922689">
        <ele>471.8</ele>
        <time>2000-01-01T00:15:05Z</time>
      </trkpt>
      <trkpt lat="48.719486" lon="8.923867">
        <ele>468.8</ele>
        <time>2000-01-01T00:15:27Z</time>
      </trkpt>
      <trkpt lat="48.720024" lon="8.922502">
        <ele>465.7</ele>
        <time>2000-01-01T00:15:56Z</time>
      </trkpt>
      <trkpt lat="48.720142" lon="8.919798">
        <ele>462.7</ele>
        <time>2000-01-01T00:16:43Z</time>
      </trkpt>
      <trkpt lat="48.720867" lon="8.920905">
        <ele>463</ele>
        <time>2000-01-01T00:17:09Z</time>
      </trkpt>
      <trkpt lat="48.72237" lon="8.921678">
        <ele>476.7</ele>
        <time>2000-01-01T00:17:47Z</time>
      </trkpt>
      <trkpt lat="48.724853" lon="8.92606">
        <ele>493.6</ele>
        <time>2000-01-01T00:19:08Z</time>
      </trkpt>
      <trkpt lat="48.726223" lon="8.931596">
        <ele>497.4</ele>
        <time>2000-01-01T00:20:24Z</time>
      </trkpt>
      <trkpt lat="48.728138" lon="8.934216">
        <ele>493.7</ele>
        <time>2000-01-01T00:21:47Z</time>
      </trkpt>
      <trkpt lat="48.729168" lon="8.936943">
        <ele>493.1</ele>
        <time>2000-01-01T00:22:25Z</time>
      </trkpt>
      <trkpt lat="48.729237" lon="8.937824">
        <ele>494.3</ele>
        <time>2000-01-01T00:22:39Z</time>
      </trkpt>
      <trkpt lat="48.728641" lon="8.938331">
        <ele>496.3</ele>
        <time>2000-01-01T00:22:57Z</time>
      </trkpt>
      <trkpt lat="48.730122" lon="8.943766">
        <ele>493.6</ele>
        <time>2000-01-01T00:24:05Z</time>
      </trkpt>
      <trkpt lat="48.729744" lon="8.944537">
        <ele>492.3</ele>
        <time>2000-01-01T00:24:16Z</time>
      </trkpt>
      <trkpt lat="48.729725" lon="8.947127">
        <ele>490.9</ele>
        <time>2000-01-01T00:24:44Z</time>
      </trkpt>
      <trkpt lat="48.729015" lon="8.949355">
        <ele>489.8</ele>
        <time>2000-01-01T00:25:12Z</time>
      </trkpt>
      <trkpt lat="48.728237" lon="8.955125">
        <ele>486.3</ele>
        <time>2000-01-01T00:26:18Z</time>
      </trkpt>
      <trkpt lat="48.726406" lon="8.959397">
        <ele>471.1</ele>
        <time>2000-01-01T00:27:23Z</time>
      </trkpt>
      <trkpt lat="48.726005" lon="8.961603">
        <ele>462.8</ele>
        <time>2000-01-01T00:27:43Z</time>
      </trkpt>
      <trkpt lat="48.725426" lon="8.962147">
        <ele>461.9</ele>
        <time>2000-01-01T00:27:57Z</time>
      </trkpt>
      <trkpt lat="48.725346" lon="8.963452">
        <ele>461.9</ele>
        <time>2000-01-01T00:28:11Z</time>
      </trkpt>
      <trkpt lat="48.725681" lon="8.963451">
        <ele>461.9</ele>
        <time>2000-01-01T00:28:51Z</time>
      </trkpt>
    </trkseg>
  </trk>
</gpx>