<?xml version="1.0" encoding="UTF-8"?>
<gpx xmlns="http://www.topografix.com/GPX/1/1" xmlns:xsi="http://www.w3.org/2001/XMLSchema-instance" xsi:schemaLocation="http://www.topografix.com/GPX/1/1 http://www.topografix.com/GPX/1/1/gpx.xsd" version="1.1" creator="gpx.py -- https://github.com/tkrajina/gpxpy">
  <metadata>
    <name>Sindelfingen_c0d22fea</name>
  </metadata>
  <trk>
    <name>Sindelfingen_c0d22fea</name>
    <trkseg>
      <trkpt lat="48.725624" lon="8.963717">
        <ele>470.2</ele>
        <time>2000-01-01T00:00:00Z</time>
      </trkpt>
      <trkpt lat="48.725315" lon="8.963669">
        <ele>470.2</ele>
        <time>2000-01-01T00:00:31Z</time>
      </trkpt>
      <trkpt lat="48.725155" lon="8.964993">
        <ele>469.8</ele>
        <time>2000-01-01T00:00:50Z</time>
      </trkpt>
      <trkpt lat="48.722801" lon="8.96493">
        <ele>468</ele>
        <time>2000-01-01T00:01:34Z</time>
      </trkpt>
      <trkpt lat="48.719326" lon="8.96824">
        <ele>456.1</ele>
        <time>2000-01-01T00:02:47Z</time>
      </trkpt>
      <trkpt lat="48.718075" lon="8.968842">
        <ele>453.7</ele>
        <time>2000-01-01T00:03:35Z</time>
      </trkpt>
      <trkpt lat="48.716373" lon="8.968428">
        <ele>454.7</ele>
        <time>2000-01-01T00:04:11Z</time>
      </trkpt>
      <trkpt lat="48.715702" lon="8.969512">
        <ele>456.7</ele>
        <time>2000-01-01T00:04:44Z</time>
      </trkpt>
      <trkpt lat="48.714844" lon="8.969469">
        <ele>458.2</ele>
        <time>2000-01-01T00:05:02Z</time>
      </trkpt>
      <trkpt lat="48.714634" lon="8.970574">
        <ele>458.7</ele>
        <time>2000-01-01T00:05:20Z</time>
      </trkpt>
      <trkpt lat="48.708706" lon="8.969769">
        <ele>451.2</ele>
        <time>2000-01-01T00:07:10Z</time>
      </trkpt>
      <trkpt lat="48.704601" lon="8.971061">
        <ele>444.5</ele>
        <time>2000-01-01T00:08:25Z</time>
      </trkpt>
      <trkpt lat="48.704239" lon="8.971805">
        <ele>444.3</ele>
        <time>2000-01-01T00:08:39Z</time>
      </trkpt>
      <trkpt lat="48.703457" lon="8.971395">
        <ele>444.2</ele>
        <time>2000-01-01T00:08:56Z</time>
      </trkpt>
      <trkpt lat="48.696667" lon="8.972221">
        <ele>442.4</ele>
        <time>2000-01-01T00:11:06Z</time>
      </trkpt>
      <trkpt lat="48.693302" lon="8.974143">
        <ele>430.6</ele>
        <time>2000-01-01T00:12:02Z</time>
      </trkpt>
      <trkpt lat="48.692989" lon="8.974439">
        <ele>429.7</ele>
        <time>2000-01-01T00:12:09Z</time>
      </trkpt>
      <trkpt lat="48.694229" lon="8.979562">
        <ele>429.7</ele>
        <time>2000-01-01T00:13:15Z</time>
      </trkpt>
      <trkpt lat="48.695831" lon="8.981079">
        <ele>432</ele>
        <time>2000-01-01T00:14:33Z</time>
      </trkpt>
      <trkpt lat="48.693977" lon="8.987783">
        <ele>432.4</ele>
        <time>2000-01-01T00:16:03Z</time>
      </trkpt>
      <trkpt lat="48.694286" lon="8.989015">
        <ele>432.4</ele>
        <time>2000-01-01T00:16:19Z</time>
      </trkpt>
      <trkpt lat="48.695373" lon="8.989725">
        <ele>432.4</ele>
        <time>2000-01-01T00:16:52Z</time>
      </trkpt>
    </trkseg>
    <trkseg>
      <trkpt lat="48.695446" lon="8.989709">
        <ele>429</ele>
        <time>2000-01-01T00:00:00Z</time>
      </trkpt>
      <trkpt lat="48.6945" lon="8.989155">
        <ele>429</ele>
        <time>2000-01-01T00:00:24Z</time>
      </trkpt>
      <trkpt lat="48.694088" lon="8.98776">
        <ele>429</ele>
        <time>2000-01-01T00:00:42Z</time>
      </trkpt>
      <trkpt lat="48.695824" lon="8.98111">
        <ele>429.5</ele>
        <time>2000-01-01T00:02:18Z</time>
      </trkpt>
      <trkpt lat="48.693886" lon="8.979204">
        <ele>428.7</ele>
        <time>2000-01-01T00:03:17Z</time>
      </trkpt>
      <trkpt lat="48.693027" lon="8.974457">
        <ele>429.9</ele>
        <time>2000-01-01T00:05:05Z</time>
      </trkpt>
      <trkpt lat="48.693603" lon="8.973925">
        <ele>430</ele>
        <time>2000-01-01T00:05:17Z</time>
      </trkpt>
      <trkpt lat="48.696754" lon="8.972203">
        <ele>439.6</ele>
        <time>2000-01-01T00:06:17Z</time>
      </trkpt>
      <trkpt lat="48.70351" lon="8.971419">
        <ele>446.6</ele>
        <time>2000-01-01T00:08:15Z</time>
      </trkpt>
      <trkpt lat="48.704216" lon="8.971826">
        <ele>443.6</ele>
        <time>2000-01-01T00:08:26Z</time>
      </trkpt>
      <trkpt lat="48.704765" lon="8.971027">
        <ele>443.5</ele>
        <time>2000-01-01T00:08:43Z</time>
      </trkpt>
      <trkpt lat="48.708694" lon="8.969781">
        <ele>446.8</ele>
        <time>2000-01-01T00:09:56Z</time>
      </trkpt>
      <trkpt lat="48.715595" lon="8.970497">
        <ele>450.4</ele>
        <time>2000-01-01T00:12:10Z</time>
      </trkpt>
      <trkpt lat="48.715794" lon="8.971586">
        <ele>448.4</ele>
        <time>2000-01-01T00:12:26Z</time>
      </trkpt>
      <trkpt lat="48.716465" lon="8.971697">
        <ele>445.9</ele>
        <time>2000-01-01T00:12:57Z</time>
      </trkpt>
      <trkpt lat="48.719471" lon="8.96983">
        <ele>442.4</ele>
        <time>2000-01-01T00:14:10Z</time>
      </trkpt>
      <trkpt lat="48.719433" lon="8.970734">
        <ele>442.4</ele>
        <time>2000-01-01T00:14:36Z</time>
      </trkpt>
    </trkseg>
    <trkseg>
      <trkpt lat="48.719456" lon="8.970734">
        <ele>449.7</ele>
        <time>2000-01-01T00:00:00Z</time>
      </trkpt>
      <trkpt lat="48.719623" lon="8.969784">
        <ele>449.7</ele>
        <time>2000-01-01T00:00:16Z</time>
      </trkpt>
      <trkpt lat="48.720249" lon="8.969551">
        <ele>450.7</ele>
        <time>2000-01-01T00:00:30Z</time>
      </trkpt>
      <trkpt lat="48.722694" lon="8.970158">
        <ele>451.9</ele>
        <time>2000-01-01T00:01:29Z</time>
      </trkpt>
      <trkpt lat="48.722313" lon="8.969776">
        <ele>451.2</ele>
        <time>2000-01-01T00:01:46Z</time>
      </trkpt>
      <trkpt lat="48.722813" lon="8.969787">
        <ele>452</ele>
        <time>2000-01-01T00:01:59Z</time>
      </trkpt>
      <trkpt lat="48.722572" lon="8.969129">
        <ele>453.2</ele>
        <time>2000-01-01T00:02:13Z</time>
      </trkpt>
      <trkpt lat="48.723385" lon="8.96482">
        <ele>458.6</ele>
        <time>2000-01-01T00:03:10Z</time>
      </trkpt>
      <trkpt lat="48.725227" lon="8.965024">
        <ele>459.5</ele>
        <time>2000-01-01T00:03:46Z</time>
      </trkpt>
      <trkpt lat="48.725681" lon="8.963553">
        <ele>459.5</ele>
        <time>2000-01-01T00:06:01Z</time>
      </trkpt>
    </trkseg>
  </trk>
</gpx>