<?xml version="1.0" encoding="UTF-8"?>
<gpx xmlns="http://www.topografix.com/GPX/1/1" xmlns:xsi="http://www.w3.org/2001/XMLSchema-instance" xsi:schemaLocation="http://www.topografix.com/GPX/1/1 http://www.topografix.com/GPX/1/1/gpx.xsd" version="1.1" creator="gpx.py -- https://github.com/tkrajina/gpxpy">
  <metadata>
    <name>Stuttgart_2a78c5ad</name>
  </metadata>
  <trk>
    <name>Stuttgart_2a78c5ad</name>
    <trkseg>
      <trkpt lat="48.725819" lon="8.963617">
        <ele>469.9</ele>
        <time>2000-01-01T00:00:00Z</time>
      </trkpt>
      <trkpt lat="48.725349" lon="8.963561">
        <ele>469.9</ele>
        <time>2000-01-01T00:00:13Z</time>
      </trkpt>
      <trkpt lat="48.725235" lon="8.965186">
        <ele>469.6</ele>
        <time>2000-01-01T00:00:34Z</time>
      </trkpt>
      <trkpt lat="48.72628" lon="8.968918">
        <ele>471</ele>
        <time>2000-01-01T00:01:23Z</time>
      </trkpt>
      <trkpt lat="48.726887" lon="8.981692">
        <ele>459.5</ele>
        <time>2000-01-01T00:03:47Z</time>
      </trkpt>
      <trkpt lat="48.725223" lon="8.989623">
        <ele>450</ele>
        <time>2000-01-01T00:05:18Z</time>
      </trkpt>
      <trkpt lat="48.724251" lon="8.991242">
        <ele>451.3</ele>
        <time>2000-01-01T00:05:50Z</time>
      </trkpt>
      <trkpt lat="48.726902" lon="8.99465">
        <ele>455.9</ele>
        <time>2000-01-01T00:11:25Z</time>
      </trkpt>
      <trkpt lat="48.729244" lon="8.99344">
        <ele>456.4</ele>
        <time>2000-01-01T00:12:16Z</time>
      </trkpt>
      <trkpt lat="48.72982" lon="8.994923">
        <ele>464.1</ele>
        <time>2000-01-01T00:12:47Z</time>
      </trkpt>
      <trkpt lat="48.731571" lon="8.996961">
        <ele>471.9</ele>
        <time>2000-01-01T00:13:56Z</time>
      </trkpt>
      <trkpt lat="48.733551" lon="8.997784">
        <ele>482.6</ele>
        <time>2000-01-01T00:14:55Z</time>
      </trkpt>
      <trkpt lat="48.734299" lon="9.000099">
        <ele>491.2</ele>
        <time>2000-01-01T00:15:45Z</time>
      </trkpt>
      <trkpt lat="48.735496" lon="9.008328">
        <ele>507.9</ele>
        <time>2000-01-01T00:17:53Z</time>
      </trkpt>
      <trkpt lat="48.735214" lon="9.011648">
        <ele>516.6</ele>
        <time>2000-01-01T00:18:42Z</time>
      </trkpt>
      <trkpt lat="48.736286" lon="9.017204">
        <ele>523.6</ele>
        <time>2000-01-01T00:20:02Z</time>
      </trkpt>
      <trkpt lat="48.735378" lon="9.019336">
        <ele>519.7</ele>
        <time>2000-01-01T00:21:02Z</time>
      </trkpt>
      <trkpt lat="48.735435" lon="9.020541">
        <ele>516.9</ele>
        <time>2000-01-01T00:21:18Z</time>
      </trkpt>
      <trkpt lat="48.736778" lon="9.023293">
        <ele>520.2</ele>
        <time>2000-01-01T00:22:09Z</time>
      </trkpt>
      <trkpt lat="48.737228" lon="9.025847">
        <ele>524.5</ele>
        <time>2000-01-01T00:22:45Z</time>
      </trkpt>
      <trkpt lat="48.73814" lon="9.026395">
        <ele>528</ele>
        <time>2000-01-01T00:23:25Z</time>
      </trkpt>
      <trkpt lat="48.738464" lon="9.031431">
        <ele>529</ele>
        <time>2000-01-01T00:24:40Z</time>
      </trkpt>
      <trkpt lat="48.737698" lon="9.037627">
        <ele>524.4</ele>
        <time>2000-01-01T00:25:53Z</time>
      </trkpt>
      <trkpt lat="48.742458" lon="9.049395">
        <ele>471.4</ele>
        <time>2000-01-01T00:28:15Z</time>
      </trkpt>
      <trkpt lat="48.744194" lon="9.054864">
        <ele>450</ele>
        <time>2000-01-01T00:29:12Z</time>
      </trkpt>
      <trkpt lat="48.745914" lon="9.074194">
        <ele>439.9</ele>
        <time>2000-01-01T00:35:20Z</time>
      </trkpt>
      <trkpt lat="48.746624" lon="9.079285">
        <ele>431.7</ele>
        <time>2000-01-01T00:36:17Z</time>
      </trkpt>
      <trkpt lat="48.74725" lon="9.079491">
        <ele>429.1</ele>
        <time>2000-01-01T00:36:31Z</time>
      </trkpt>
      <trkpt lat="48.747372" lon="9.083941">
        <ele>421.1</ele>
        <time>2000-01-01T00:37:16Z</time>
      </trkpt>
      <trkpt lat="48.746845" lon="9.084788">
        <ele>419.2</ele>
        <time>2000-01-01T00:37:41Z</time>
      </trkpt>
      <trkpt lat="48.746986" lon="9.091344">
        <ele>414.7</ele>
        <time>2000-01-01T00:38:59Z</time>
      </trkpt>
      <trkpt lat="48.747429" lon="9.091592">
        <ele>415.5</ele>
        <time>2000-01-01T00:39:13Z</time>
      </trkpt>
      <trkpt lat="48.749561" lon="9.090036">
        <ele>411</ele>
        <time>2000-01-01T00:39:53Z</time>
      </trkpt>
      <trkpt lat="48.75098" lon="9.090847">
        <ele>408</ele>
        <time>2000-01-01T00:40:26Z</time>
      </trkpt>
      <trkpt lat="48.753178" lon="9.089834">
        <ele>404.8</ele>
        <time>2000-01-01T00:41:07Z</time>
      </trkpt>
      <trkpt lat="48.755352" lon="9.091241">
        <ele>406.1</ele>
        <time>2000-01-01T00:41:52Z</time>
      </trkpt>
      <trkpt lat="48.755447" lon="9.092424">
        <ele>409.5</ele>
        <time>2000-01-01T00:42:45Z</time>
      </trkpt>
      <trkpt lat="48.756119" lon="9.092572">
        <ele>411.9</ele>
        <time>2000-01-01T00:43:00Z</time>
      </trkpt>
      <trkpt lat="48.756924" lon="9.093936">
        <ele>416.3</ele>
        <time>2000-01-01T00:45:27Z</time>
      </trkpt>
      <trkpt lat="48.756473" lon="9.096861">
        <ele>424.3</ele>
        <time>2000-01-01T00:46:21Z</time>
      </trkpt>
      <trkpt lat="48.757019" lon="9.098799">
        <ele>428</ele>
        <time>2000-01-01T00:46:53Z</time>
      </trkpt>
      <trkpt lat="48.756966" lon="9.102285">
        <ele>424.2</ele>
        <time>2000-01-01T00:47:43Z</time>
      </trkpt>
      <trkpt lat="48.759216" lon="9.102693">
        <ele>420</ele>
        <time>2000-01-01T00:48:32Z</time>
      </trkpt>
      <trkpt lat="48.759849" lon="9.104207">
        <ele>419.9</ele>
        <time>2000-01-01T00:48:51Z</time>
      </trkpt>
      <trkpt lat="48.760239" lon="9.107229">
        <ele>421.3</ele>
        <time>2000-01-01T00:49:28Z</time>
      </trkpt>
      <trkpt lat="48.761192" lon="9.109027">
        <ele>427.7</ele>
        <time>2000-01-01T00:50:03Z</time>
      </trkpt>
      <trkpt lat="48.762863" lon="9.110518">
        <ele>436.4</ele>
        <time>2000-01-01T00:50:51Z</time>
      </trkpt>
      <trkpt lat="48.763058" lon="9.114926">
        <ele>443.1</ele>
        <time>2000-01-01T00:51:59Z</time>
      </trkpt>
      <trkpt lat="48.762409" lon="9.117458">
        <ele>440.6</ele>
        <time>2000-01-01T00:52:42Z</time>
      </trkpt>
      <trkpt lat="48.762527" lon="9.130568">
        <ele>431.8</ele>
        <time>2000-01-01T00:55:20Z</time>
      </trkpt>
      <trkpt lat="48.762073" lon="9.13127">
        <ele>430</ele>
        <time>2000-01-01T00:55:33Z</time>
      </trkpt>
      <trkpt lat="48.763519" lon="9.134793">
        <ele>425.9</ele>
        <time>2000-01-01T00:56:32Z</time>
      </trkpt>
      <trkpt lat="48.763916" lon="9.139558">
        <ele>416.7</ele>
        <time>2000-01-01T00:57:29Z</time>
      </trkpt>
      <trkpt lat="48.763801" lon="9.140526">
        <ele>416.3</ele>
        <time>2000-01-01T00:57:43Z</time>
      </trkpt>
      <trkpt lat="48.762566" lon="9.14109">
        <ele>415.6</ele>
        <time>2000-01-01T00:57:59Z</time>
      </trkpt>
      <trkpt lat="48.76194" lon="9.143049">
        <ele>409.6</ele>
        <time>2000-01-01T00:58:28Z</time>
      </trkpt>
      <trkpt lat="48.763954" lon="9.147452">
        <ele>402.3</ele>
        <time>2000-01-01T01:01:26Z</time>
      </trkpt>
      <trkpt lat="48.765331" lon="9.154026">
        <ele>392.7</ele>
        <time>2000-01-01T01:02:49Z</time>
      </trkpt>
      <trkpt lat="48.765999" lon="9.153916">
        <ele>390</ele>
        <time>2000-01-01T01:03:09Z</time>
      </trkpt>
      <trkpt lat="48.767479" lon="9.16098">
        <ele>332.5</ele>
        <time>2000-01-01T01:04:22Z</time>
      </trkpt>
      <trkpt lat="48.769245" lon="9.162886">
        <ele>305.2</ele>
        <time>2000-01-01T01:05:07Z</time>
      </trkpt>
      <trkpt lat="48.771801" lon="9.171368">
        <ele>277.7</ele>
        <time>2000-01-01T01:06:59Z</time>
      </trkpt>
      <trkpt lat="48.772835" lon="9.172624">
        <ele>271.2</ele>
        <time>2000-01-01T01:07:26Z</time>
      </trkpt>
      <trkpt lat="48.771793" lon="9.174069">
        <ele>264.9</ele>
        <time>2000-01-01T01:07:54Z</time>
      </trkpt>
      <trkpt lat="48.773289" lon="9.174888">
        <ele>263.3</ele>
        <time>2000-01-01T01:08:28Z</time>
      </trkpt>
      <trkpt lat="48.773056" lon="9.176747">
        <ele>261.2</ele>
        <time>2000-01-01T01:08:58Z</time>
      </trkpt>
      <trkpt lat="48.774532" lon="9.179788">
        <ele>256.9</ele>
        <time>2000-01-01T01:09:54Z</time>
      </trkpt>
      <trkpt lat="48.774361" lon="9.180551">
        <ele>257</ele>
        <time>2000-01-01T01:10:08Z</time>
      </trkpt>
      <trkpt lat="48.775703" lon="9.182479">
        <ele>258.1</ele>
        <time>2000-01-01T01:11:19Z</time>
      </trkpt>
      <trkpt lat="48.777767" lon="9.183429">
        <ele>258.2</ele>
        <time>2000-01-01T01:13:45Z</time>
      </trkpt>
      <trkpt lat="48.777164" lon="9.181778">
        <ele>258.6</ele>
        <time>2000-01-01T01:14:19Z</time>
      </trkpt>
      <trkpt lat="48.777557" lon="9.1803">
        <ele>260.1</ele>
        <time>2000-01-01T01:14:43Z</time>
      </trkpt>
      <trkpt lat="48.778847" lon="9.180815">
        <ele>259.6</ele>
        <time>2000-01-01T01:15:27Z</time>
      </trkpt>
      <trkpt lat="48.779331" lon="9.179459">
        <ele>258.5</ele>
        <time>2000-01-01T01:17:15Z</time>
      </trkpt>
      <trkpt lat="48.779045" lon="9.181221">
        <ele>257.7</ele>
        <time>2000-01-01T01:18:59Z</time>
      </trkpt>
      <trkpt lat="48.778076" lon="9.180341">
        <ele>259.5</ele>
        <time>2000-01-01T01:20:57Z</time>
      </trkpt>
      <trkpt lat="48.778103" lon="9.178184">
        <ele>260.5</ele>
        <time>2000-01-01T01:22:19Z</time>
      </trkpt>
      <trkpt lat="48.778469" lon="9.178396">
        <ele>260.6</ele>
        <time>2000-01-01T01:22:54Z</time>
      </trkpt>
      <trkpt lat="48.779247" lon="9.179137">
        <ele>259</ele>
        <time>2000-01-01T01:24:20Z</time>
      </trkpt>
      <trkpt lat="48.779655" lon="9.183366">
        <ele>256.3</ele>
        <time>2000-01-01T01:27:47Z</time>
      </trkpt>
      <trkpt lat="48.780258" lon="9.183712">
        <ele>255.9</ele>
        <time>2000-01-01T01:28:05Z</time>
      </trkpt>
      <trkpt lat="48.78051" lon="9.183312">
        <ele>255.8</ele>
        <time>2000-01-01T01:28:16Z</time>
      </trkpt>
      <trkpt lat="48.780117" lon="9.182721">
        <ele>255.5</ele>
        <time>2000-01-01T01:28:33Z</time>
      </trkpt>
      <trkpt lat="48.780567" lon="9.183361">
        <ele>254.2</ele>
        <time>2000-01-01T01:28:56Z</time>
      </trkpt>
      <trkpt lat="48.780899" lon="9.182997">
        <ele>253.3</ele>
        <time>2000-01-01T01:32:45Z</time>
      </trkpt>
      <trkpt lat="48.780567" lon="9.18353">
        <ele>252.2</ele>
        <time>2000-01-01T01:33:01Z</time>
      </trkpt>
      <trkpt lat="48.780922" lon="9.184029">
        <ele>252</ele>
        <time>2000-01-01T01:33:14Z</time>
      </trkpt>
      <trkpt lat="48.78413" lon="9.186311">
        <ele>250</ele>
        <time>2000-01-01T01:34:40Z</time>
      </trkpt>
      <trkpt lat="48.784279" lon="9.187763">
        <ele>247.9</ele>
        <time>2000-01-01T01:35:06Z</time>
      </trkpt>
      <trkpt lat="48.786049" lon="9.189432">
        <ele>246.2</ele>
        <time>2000-01-01T01:35:51Z</time>
      </trkpt>
      <trkpt lat="48.787086" lon="9.189077">
        <ele>244.4</ele>
        <time>2000-01-01T01:36:11Z</time>
      </trkpt>
      <trkpt lat="48.7892" lon="9.190703">
        <ele>244.9</ele>
        <time>2000-01-01T01:37:17Z</time>
      </trkpt>
      <trkpt lat="48.789745" lon="9.189745">
        <ele>242.8</ele>
        <time>2000-01-01T01:37:44Z</time>
      </trkpt>
      <trkpt lat="48.7924" lon="9.194127">
        <ele>240</ele>
        <time>2000-01-01T01:45:02Z</time>
      </trkpt>
      <trkpt lat="48.792412" lon="9.196035">
        <ele>241.5</ele>
        <time>2000-01-01T01:45:30Z</time>
      </trkpt>
      <trkpt lat="48.791347" lon="9.197886">
        <ele>243.4</ele>
        <time>2000-01-01T01:46:16Z</time>
      </trkpt>
      <trkpt lat="48.790153" lon="9.199044">
        <ele>244.5</ele>
        <time>2000-01-01T01:47:05Z</time>
      </trkpt>
      <trkpt lat="48.789345" lon="9.197767">
        <ele>246.8</ele>
        <time>2000-01-01T01:47:38Z</time>
      </trkpt>
      <trkpt lat="48.78915" lon="9.202571">
        <ele>258.8</ele>
        <time>2000-01-01T01:49:16Z</time>
      </trkpt>
      <trkpt lat="48.78759" lon="9.201761">
        <ele>267.1</ele>
        <time>2000-01-01T01:50:43Z</time>
      </trkpt>
      <trkpt lat="48.786392" lon="9.206146">
        <ele>264.6</ele>
        <time>2000-01-01T01:52:10Z</time>
      </trkpt>
    </trkseg>
    <trkseg>
      <trkpt lat="48.786461" lon="9.206075">
        <ele>262.9</ele>
        <time>2000-01-01T00:00:00Z</time>
      </trkpt>
      <trkpt lat="48.785564" lon="9.204869">
        <ele>264</ele>
        <time>2000-01-01T00:00:47Z</time>
      </trkpt>
      <trkpt lat="48.781052" lon="9.20529">
        <ele>271.7</ele>
        <time>2000-01-01T00:02:26Z</time>
      </trkpt>
      <trkpt lat="48.780811" lon="9.203979">
        <ele>274.5</ele>
        <time>2000-01-01T00:02:54Z</time>
      </trkpt>
      <trkpt lat="48.778988" lon="9.205259">
        <ele>284.1</ele>
        <time>2000-01-01T00:03:52Z</time>
      </trkpt>
      <trkpt lat="48.779171" lon="9.203431">
        <ele>293</ele>
        <time>2000-01-01T00:05:12Z</time>
      </trkpt>
      <trkpt lat="48.778423" lon="9.203903">
        <ele>298.2</ele>
        <time>2000-01-01T00:05:34Z</time>
      </trkpt>
      <trkpt lat="48.777588" lon="9.203363">
        <ele>303.8</ele>
        <time>2000-01-01T00:06:01Z</time>
      </trkpt>
      <trkpt lat="48.77446" lon="9.200363">
        <ele>329.1</ele>
        <time>2000-01-01T00:07:36Z</time>
      </trkpt>
      <trkpt lat="48.773399" lon="9.198481">
        <ele>340.2</ele>
        <time>2000-01-01T00:08:15Z</time>
      </trkpt>
      <trkpt lat="48.768948" lon="9.195707">
        <ele>370.3</ele>
        <time>2000-01-01T00:10:56Z</time>
      </trkpt>
      <trkpt lat="48.767368" lon="9.197601">
        <ele>391.9</ele>
        <time>2000-01-01T00:12:12Z</time>
      </trkpt>
      <trkpt lat="48.766537" lon="9.200991">
        <ele>410</ele>
        <time>2000-01-01T00:13:43Z</time>
      </trkpt>
      <trkpt lat="48.766247" lon="9.200379">
        <ele>411.9</ele>
        <time>2000-01-01T00:14:24Z</time>
      </trkpt>
      <trkpt lat="48.765179" lon="9.200551">
        <ele>413</ele>
        <time>2000-01-01T00:14:48Z</time>
      </trkpt>
      <trkpt lat="48.764294" lon="9.199125">
        <ele>414.1</ele>
        <time>2000-01-01T00:15:16Z</time>
      </trkpt>
      <trkpt lat="48.763653" lon="9.199777">
        <ele>414.8</ele>
        <time>2000-01-01T00:15:34Z</time>
      </trkpt>
      <trkpt lat="48.761417" lon="9.19968">
        <ele>423.9</ele>
        <time>2000-01-01T00:18:04Z</time>
      </trkpt>
      <trkpt lat="48.759102" lon="9.194763">
        <ele>443.1</ele>
        <time>2000-01-01T00:19:45Z</time>
      </trkpt>
      <trkpt lat="48.757759" lon="9.194567">
        <ele>455.2</ele>
        <time>2000-01-01T00:20:29Z</time>
      </trkpt>
      <trkpt lat="48.756317" lon="9.193462">
        <ele>466.3</ele>
        <time>2000-01-01T00:21:51Z</time>
      </trkpt>
      <trkpt lat="48.7533" lon="9.194044">
        <ele>473.1</ele>
        <time>2000-01-01T00:23:41Z</time>
      </trkpt>
      <trkpt lat="48.7491" lon="9.181734">
        <ele>475.1</ele>
        <time>2000-01-01T00:26:55Z</time>
      </trkpt>
      <trkpt lat="48.743103" lon="9.179149">
        <ele>434.4</ele>
        <time>2000-01-01T00:29:33Z</time>
      </trkpt>
      <trkpt lat="48.741333" lon="9.180763">
        <ele>422.3</ele>
        <time>2000-01-01T00:30:18Z</time>
      </trkpt>
      <trkpt lat="48.741302" lon="9.179902">
        <ele>420</ele>
        <time>2000-01-01T00:30:38Z</time>
      </trkpt>
      <trkpt lat="48.738109" lon="9.184516">
        <ele>409.6</ele>
        <time>2000-01-01T00:32:00Z</time>
      </trkpt>
      <trkpt lat="48.736809" lon="9.182579">
        <ele>412.7</ele>
        <time>2000-01-01T00:32:49Z</time>
      </trkpt>
      <trkpt lat="48.738098" lon="9.1793">
        <ele>419</ele>
        <time>2000-01-01T00:33:51Z</time>
      </trkpt>
      <trkpt lat="48.740143" lon="9.177282">
        <ele>421.9</ele>
        <time>2000-01-01T00:34:42Z</time>
      </trkpt>
      <trkpt lat="48.739845" lon="9.173588">
        <ele>429.1</ele>
        <time>2000-01-01T00:35:34Z</time>
      </trkpt>
      <trkpt lat="48.740269" lon="9.16944">
        <ele>435.5</ele>
        <time>2000-01-01T00:36:38Z</time>
      </trkpt>
      <trkpt lat="48.739818" lon="9.169256">
        <ele>435.9</ele>
        <time>2000-01-01T00:37:04Z</time>
      </trkpt>
      <trkpt lat="48.740257" lon="9.169176">
        <ele>436.3</ele>
        <time>2000-01-01T00:38:01Z</time>
      </trkpt>
      <trkpt lat="48.741817" lon="9.165984">
        <ele>443.3</ele>
        <time>2000-01-01T00:39:03Z</time>
      </trkpt>
      <trkpt lat="48.744205" lon="9.165315">
        <ele>451.4</ele>
        <time>2000-01-01T00:39:58Z</time>
      </trkpt>
      <trkpt lat="48.745369" lon="9.163489">
        <ele>454.9</ele>
        <time>2000-01-01T00:40:40Z</time>
      </trkpt>
      <trkpt lat="48.74398" lon="9.160925">
        <ele>452.9</ele>
        <time>2000-01-01T00:41:25Z</time>
      </trkpt>
      <trkpt lat="48.743645" lon="9.159794">
        <ele>450.6</ele>
        <time>2000-01-01T00:41:39Z</time>
      </trkpt>
      <trkpt lat="48.744015" lon="9.159226">
        <ele>448.3</ele>
        <time>2000-01-01T00:42:18Z</time>
      </trkpt>
      <trkpt lat="48.740654" lon="9.152404">
        <ele>433.9</ele>
        <time>2000-01-01T00:44:04Z</time>
      </trkpt>
      <trkpt lat="48.739189" lon="9.152011">
        <ele>432.3</ele>
        <time>2000-01-01T00:44:33Z</time>
      </trkpt>
      <trkpt lat="48.737533" lon="9.137992">
        <ele>423.7</ele>
        <time>2000-01-01T00:47:23Z</time>
      </trkpt>
      <trkpt lat="48.736603" lon="9.135106">
        <ele>422.3</ele>
        <time>2000-01-01T00:48:02Z</time>
      </trkpt>
      <trkpt lat="48.733566" lon="9.129344">
        <ele>422.4</ele>
        <time>2000-01-01T00:49:32Z</time>
      </trkpt>
      <trkpt lat="48.732891" lon="9.123528">
        <ele>419</ele>
        <time>2000-01-01T00:50:55Z</time>
      </trkpt>
      <trkpt lat="48.733135" lon="9.119581">
        <ele>410.8</ele>
        <time>2000-01-01T00:51:49Z</time>
      </trkpt>
      <trkpt lat="48.733601" lon="9.118899">
        <ele>409.1</ele>
        <time>2000-01-01T00:52:09Z</time>
      </trkpt>
      <trkpt lat="48.731766" lon="9.114263">
        <ele>423.3</ele>
        <time>2000-01-01T00:53:30Z</time>
      </trkpt>
      <trkpt lat="48.730106" lon="9.113016">
        <ele>431.9</ele>
        <time>2000-01-01T00:54:53Z</time>
      </trkpt>
      <trkpt lat="48.729668" lon="9.111854">
        <ele>431.9</ele>
        <time>2000-01-01T00:55:35Z</time>
      </trkpt>
    </trkseg>
    <trkseg>
      <trkpt lat="48.727501" lon="9.110115">
        <ele>436.1</ele>
        <time>2000-01-01T00:00:00Z</time>
      </trkpt>
      <trkpt lat="48.728844" lon="9.099111">
        <ele>441.8</ele>
        <time>2000-01-01T00:05:19Z</time>
      </trkpt>
      <trkpt lat="48.728706" lon="9.095685">
        <ele>442.9</ele>
        <time>2000-01-01T00:06:07Z</time>
      </trkpt>
      <trkpt lat="48.727692" lon="9.091426">
        <ele>447</ele>
        <time>2000-01-01T00:07:05Z</time>
      </trkpt>
      <trkpt lat="48.728474" lon="9.088522">
        <ele>450.4</ele>
        <time>2000-01-01T00:07:57Z</time>
      </trkpt>
      <trkpt lat="48.727779" lon="9.087829">
        <ele>452.8</ele>
        <time>2000-01-01T00:08:27Z</time>
      </trkpt>
      <trkpt lat="48.729458" lon="9.088585">
        <ele>458.1</ele>
        <time>2000-01-01T00:09:05Z</time>
      </trkpt>
      <trkpt lat="48.731258" lon="9.087571">
        <ele>465.6</ele>
        <time>2000-01-01T00:09:52Z</time>
      </trkpt>
      <trkpt lat="48.730511" lon="9.084096">
        <ele>478.4</ele>
        <time>2000-01-01T00:10:51Z</time>
      </trkpt>
      <trkpt lat="48.730923" lon="9.083023">
        <ele>481.6</ele>
        <time>2000-01-01T00:11:13Z</time>
      </trkpt>
      <trkpt lat="48.730606" lon="9.081555">
        <ele>484.6</ele>
        <time>2000-01-01T00:11:40Z</time>
      </trkpt>
      <trkpt lat="48.729797" lon="9.080498">
        <ele>487.6</ele>
        <time>2000-01-01T00:12:06Z</time>
      </trkpt>
      <trkpt lat="48.727962" lon="9.069405">
        <ele>503.1</ele>
        <time>2000-01-01T00:14:44Z</time>
      </trkpt>
      <trkpt lat="48.727756" lon="9.064211">
        <ele>509.1</ele>
        <time>2000-01-01T00:19:12Z</time>
      </trkpt>
      <trkpt lat="48.729122" lon="9.056257">
        <ele>519.4</ele>
        <time>2000-01-01T00:20:53Z</time>
      </trkpt>
      <trkpt lat="48.728481" lon="9.055469">
        <ele>519.9</ele>
        <time>2000-01-01T00:21:10Z</time>
      </trkpt>
      <trkpt lat="48.72834" lon="9.053787">
        <ele>520.2</ele>
        <time>2000-01-01T00:21:30Z</time>
      </trkpt>
      <trkpt lat="48.729336" lon="9.052637">
        <ele>517.4</ele>
        <time>2000-01-01T00:21:51Z</time>
      </trkpt>
      <trkpt lat="48.730171" lon="9.050038">
        <ele>509.3</ele>
        <time>2000-01-01T00:22:13Z</time>
      </trkpt>
      <trkpt lat="48.732078" lon="9.046898">
        <ele>500.4</ele>
        <time>2000-01-01T00:22:49Z</time>
      </trkpt>
      <trkpt lat="48.732403" lon="9.044215">
        <ele>502.7</ele>
        <time>2000-01-01T00:23:22Z</time>
      </trkpt>
      <trkpt lat="48.734005" lon="9.043019">
        <ele>505.6</ele>
        <time>2000-01-01T00:23:59Z</time>
      </trkpt>
      <trkpt lat="48.737911" lon="9.037002">
        <ele>519</ele>
        <time>2000-01-01T00:25:51Z</time>
      </trkpt>
      <trkpt lat="48.738441" lon="9.031727">
        <ele>525.2</ele>
        <time>2000-01-01T00:31:46Z</time>
      </trkpt>
      <trkpt lat="48.737934" lon="9.02387">
        <ele>527.5</ele>
        <time>2000-01-01T00:33:45Z</time>
      </trkpt>
      <trkpt lat="48.738094" lon="9.025057">
        <ele>527.5</ele>
        <time>2000-01-01T00:34:25Z</time>
      </trkpt>
      <trkpt lat="48.737289" lon="9.025963">
        <ele>524.8</ele>
        <time>2000-01-01T00:34:48Z</time>
      </trkpt>
      <trkpt lat="48.736858" lon="9.023598">
        <ele>522.6</ele>
        <time>2000-01-01T00:35:23Z</time>
      </trkpt>
      <trkpt lat="48.735447" lon="9.020232">
        <ele>518.7</ele>
        <time>2000-01-01T00:37:06Z</time>
      </trkpt>
      <trkpt lat="48.735454" lon="9.019103">
        <ele>519.9</ele>
        <time>2000-01-01T00:37:28Z</time>
      </trkpt>
      <trkpt lat="48.736256" lon="9.017239">
        <ele>522.8</ele>
        <time>2000-01-01T00:38:04Z</time>
      </trkpt>
      <trkpt lat="48.73521" lon="9.011617">
        <ele>517.9</ele>
        <time>2000-01-01T00:39:10Z</time>
      </trkpt>
      <trkpt lat="48.735493" lon="9.008316">
        <ele>510.3</ele>
        <time>2000-01-01T00:39:40Z</time>
      </trkpt>
      <trkpt lat="48.734276" lon="9.000024">
        <ele>496.8</ele>
        <time>2000-01-01T00:41:05Z</time>
      </trkpt>
      <trkpt lat="48.733459" lon="8.99786">
        <ele>490.6</ele>
        <time>2000-01-01T00:41:30Z</time>
      </trkpt>
      <trkpt lat="48.731552" lon="8.996987">
        <ele>481.4</ele>
        <time>2000-01-01T00:41:52Z</time>
      </trkpt>
      <trkpt lat="48.729656" lon="8.994634">
        <ele>471.5</ele>
        <time>2000-01-01T00:42:28Z</time>
      </trkpt>
      <trkpt lat="48.729282" lon="8.993437">
        <ele>464.8</ele>
        <time>2000-01-01T00:42:40Z</time>
      </trkpt>
      <trkpt lat="48.730335" lon="8.990971">
        <ele>462.5</ele>
        <time>2000-01-01T00:43:20Z</time>
      </trkpt>
      <trkpt lat="48.729389" lon="8.987577">
        <ele>459.1</ele>
        <time>2000-01-01T00:44:03Z</time>
      </trkpt>
      <trkpt lat="48.728504" lon="8.987862">
        <ele>456.8</ele>
        <time>2000-01-01T00:44:24Z</time>
      </trkpt>
      <trkpt lat="48.728149" lon="8.985864">
        <ele>453.1</ele>
        <time>2000-01-01T00:44:49Z</time>
      </trkpt>
      <trkpt lat="48.726517" lon="8.984474">
        <ele>449.4</ele>
        <time>2000-01-01T00:45:30Z</time>
      </trkpt>
      <trkpt lat="48.726929" lon="8.978682">
        <ele>454.5</ele>
        <time>2000-01-01T00:46:49Z</time>
      </trkpt>
      <trkpt lat="48.72633" lon="8.968907">
        <ele>462.6</ele>
        <time>2000-01-01T00:48:53Z</time>
      </trkpt>
      <trkpt lat="48.725284" lon="8.965123">
        <ele>459.2</ele>
        <time>2000-01-01T00:49:40Z</time>
      </trkpt>
      <trkpt lat="48.72533" lon="8.96367">
        <ele>459.2</ele>
        <time>2000-01-01T00:49:58Z</time>
      </trkpt>
      <trkpt lat="48.725643" lon="8.963571">
        <ele>459.2</ele>
        <time>2000-01-01T00:50:11Z</time>
      </trkpt>
    </trkseg>
  </trk>
</gpx>