<?xml version="1.0" encoding="UTF-8"?>
<gpx xmlns="http://www.topografix.com/GPX/1/1" xmlns:xsi="http://www.w3.org/2001/XMLSchema-instance" xsi:schemaLocation="http://www.topografix.com/GPX/1/1 http://www.topografix.com/GPX/1/1/gpx.xsd" version="1.1" creator="gpx.py -- https://github.com/tkrajina/gpxpy">
  <metadata>
    <name>Tuebingen_fb0612e1</name>
  </metadata>
  <trk>
    <name>Tuebingen_fb0612e1</name>
    <trkseg>
      <trkpt lat="48.725593" lon="8.96364">
        <ele>469.3</ele>
        <time>2000-01-01T00:00:00Z</time>
      </trkpt>
      <trkpt lat="48.725414" lon="8.962425">
        <ele>469.6</ele>
        <time>2000-01-01T00:01:57Z</time>
      </trkpt>
      <trkpt lat="48.726189" lon="8.9611">
        <ele>473.3</ele>
        <time>2000-01-01T00:02:27Z</time>
      </trkpt>
      <trkpt lat="48.726646" lon="8.957341">
        <ele>487.3</ele>
        <time>2000-01-01T00:03:26Z</time>
      </trkpt>
      <trkpt lat="48.726211" lon="8.949171">
        <ele>489.5</ele>
        <time>2000-01-01T00:05:10Z</time>
      </trkpt>
      <trkpt lat="48.723083" lon="8.949821">
        <ele>492.1</ele>
        <time>2000-01-01T00:06:08Z</time>
      </trkpt>
      <trkpt lat="48.720573" lon="8.949538">
        <ele>489.5</ele>
        <time>2000-01-01T00:07:06Z</time>
      </trkpt>
      <trkpt lat="48.718811" lon="8.942736">
        <ele>482.9</ele>
        <time>2000-01-01T00:08:32Z</time>
      </trkpt>
      <trkpt lat="48.711365" lon="8.944457">
        <ele>476.3</ele>
        <time>2000-01-01T00:10:29Z</time>
      </trkpt>
      <trkpt lat="48.705223" lon="8.948697">
        <ele>456.3</ele>
        <time>2000-01-01T00:12:12Z</time>
      </trkpt>
      <trkpt lat="48.703876" lon="8.94829">
        <ele>454.8</ele>
        <time>2000-01-01T00:12:45Z</time>
      </trkpt>
      <trkpt lat="48.700432" lon="8.945593">
        <ele>445.2</ele>
        <time>2000-01-01T00:13:56Z</time>
      </trkpt>
      <trkpt lat="48.698234" lon="8.946228">
        <ele>436.1</ele>
        <time>2000-01-01T00:15:35Z</time>
      </trkpt>
      <trkpt lat="48.697121" lon="8.944013">
        <ele>427.8</ele>
        <time>2000-01-01T00:16:06Z</time>
      </trkpt>
      <trkpt lat="48.695545" lon="8.942927">
        <ele>423.1</ele>
        <time>2000-01-01T00:16:34Z</time>
      </trkpt>
      <trkpt lat="48.695137" lon="8.943567">
        <ele>422.6</ele>
        <time>2000-01-01T00:16:46Z</time>
      </trkpt>
      <trkpt lat="48.694992" lon="8.948391">
        <ele>426</ele>
        <time>2000-01-01T00:17:47Z</time>
      </trkpt>
      <trkpt lat="48.692154" lon="8.952334">
        <ele>420.9</ele>
        <time>2000-01-01T00:18:57Z</time>
      </trkpt>
      <trkpt lat="48.68948" lon="8.951068">
        <ele>438.7</ele>
        <time>2000-01-01T00:20:25Z</time>
      </trkpt>
      <trkpt lat="48.688808" lon="8.952852">
        <ele>442.7</ele>
        <time>2000-01-01T00:20:57Z</time>
      </trkpt>
      <trkpt lat="48.686558" lon="8.951527">
        <ele>438.4</ele>
        <time>2000-01-01T00:21:40Z</time>
      </trkpt>
      <trkpt lat="48.683876" lon="8.951121">
        <ele>431.9</ele>
        <time>2000-01-01T00:22:21Z</time>
      </trkpt>
      <trkpt lat="48.683571" lon="8.957434">
        <ele>429.4</ele>
        <time>2000-01-01T00:23:34Z</time>
      </trkpt>
      <trkpt lat="48.678226" lon="8.959546">
        <ele>430.5</ele>
        <time>2000-01-01T00:25:16Z</time>
      </trkpt>
      <trkpt lat="48.674515" lon="8.963347">
        <ele>435.6</ele>
        <time>2000-01-01T00:26:36Z</time>
      </trkpt>
      <trkpt lat="48.671642" lon="8.963149">
        <ele>440</ele>
        <time>2000-01-01T00:27:28Z</time>
      </trkpt>
      <trkpt lat="48.670334" lon="8.96089">
        <ele>447.5</ele>
        <time>2000-01-01T00:28:11Z</time>
      </trkpt>
      <trkpt lat="48.666126" lon="8.959239">
        <ele>445.8</ele>
        <time>2000-01-01T00:29:21Z</time>
      </trkpt>
      <trkpt lat="48.664574" lon="8.957685">
        <ele>446.4</ele>
        <time>2000-01-01T00:29:54Z</time>
      </trkpt>
      <trkpt lat="48.664135" lon="8.958049">
        <ele>448.4</ele>
        <time>2000-01-01T00:30:37Z</time>
      </trkpt>
      <trkpt lat="48.663906" lon="8.959627">
        <ele>448.6</ele>
        <time>2000-01-01T00:31:05Z</time>
      </trkpt>
      <trkpt lat="48.663647" lon="8.958523">
        <ele>447.7</ele>
        <time>2000-01-01T00:31:20Z</time>
      </trkpt>
      <trkpt lat="48.663013" lon="8.958746">
        <ele>448.1</ele>
        <time>2000-01-01T00:31:30Z</time>
      </trkpt>
      <trkpt lat="48.660427" lon="8.957413">
        <ele>444.4</ele>
        <time>2000-01-01T00:32:20Z</time>
      </trkpt>
      <trkpt lat="48.66019" lon="8.957786">
        <ele>443</ele>
        <time>2000-01-01T00:32:31Z</time>
      </trkpt>
      <trkpt lat="48.658405" lon="8.9567">
        <ele>437.5</ele>
        <time>2000-01-01T00:33:00Z</time>
      </trkpt>
      <trkpt lat="48.657421" lon="8.956883">
        <ele>438.8</ele>
        <time>2000-01-01T00:33:18Z</time>
      </trkpt>
      <trkpt lat="48.657463" lon="8.958936">
        <ele>441.5</ele>
        <time>2000-01-01T00:33:46Z</time>
      </trkpt>
      <trkpt lat="48.65675" lon="8.959824">
        <ele>444</ele>
        <time>2000-01-01T00:34:07Z</time>
      </trkpt>
      <trkpt lat="48.655891" lon="8.965398">
        <ele>439.7</ele>
        <time>2000-01-01T00:35:26Z</time>
      </trkpt>
      <trkpt lat="48.655056" lon="8.966113">
        <ele>439.4</ele>
        <time>2000-01-01T00:35:43Z</time>
      </trkpt>
      <trkpt lat="48.653057" lon="8.96625">
        <ele>439.2</ele>
        <time>2000-01-01T00:36:18Z</time>
      </trkpt>
      <trkpt lat="48.651146" lon="8.969974">
        <ele>445.2</ele>
        <time>2000-01-01T00:37:15Z</time>
      </trkpt>
      <trkpt lat="48.650013" lon="8.970415">
        <ele>446.8</ele>
        <time>2000-01-01T00:37:42Z</time>
      </trkpt>
      <trkpt lat="48.648575" lon="8.972389">
        <ele>452.9</ele>
        <time>2000-01-01T00:38:24Z</time>
      </trkpt>
      <trkpt lat="48.648147" lon="8.974929">
        <ele>453.8</ele>
        <time>2000-01-01T00:38:58Z</time>
      </trkpt>
      <trkpt lat="48.648373" lon="8.976317">
        <ele>452.1</ele>
        <time>2000-01-01T00:39:15Z</time>
      </trkpt>
      <trkpt lat="48.647568" lon="8.978358">
        <ele>448.9</ele>
        <time>2000-01-01T00:39:49Z</time>
      </trkpt>
      <trkpt lat="48.6432" lon="8.978351">
        <ele>451.4</ele>
        <time>2000-01-01T00:41:09Z</time>
      </trkpt>
      <trkpt lat="48.641861" lon="8.977149">
        <ele>453.4</ele>
        <time>2000-01-01T00:41:37Z</time>
      </trkpt>
      <trkpt lat="48.641609" lon="8.978027">
        <ele>452.6</ele>
        <time>2000-01-01T00:41:51Z</time>
      </trkpt>
      <trkpt lat="48.638798" lon="8.97715">
        <ele>452.4</ele>
        <time>2000-01-01T00:42:42Z</time>
      </trkpt>
      <trkpt lat="48.636074" lon="8.974651">
        <ele>455.5</ele>
        <time>2000-01-01T00:43:41Z</time>
      </trkpt>
      <trkpt lat="48.634205" lon="8.969856">
        <ele>460.6</ele>
        <time>2000-01-01T00:44:50Z</time>
      </trkpt>
      <trkpt lat="48.628109" lon="8.966197">
        <ele>472.1</ele>
        <time>2000-01-01T00:46:56Z</time>
      </trkpt>
      <trkpt lat="48.625702" lon="8.967837">
        <ele>476</ele>
        <time>2000-01-01T00:47:51Z</time>
      </trkpt>
      <trkpt lat="48.625175" lon="8.966968">
        <ele>476.8</ele>
        <time>2000-01-01T00:48:12Z</time>
      </trkpt>
      <trkpt lat="48.62437" lon="8.967556">
        <ele>477.6</ele>
        <time>2000-01-01T00:48:40Z</time>
      </trkpt>
      <trkpt lat="48.623508" lon="8.965511">
        <ele>479.7</ele>
        <time>2000-01-01T00:49:15Z</time>
      </trkpt>
      <trkpt lat="48.623459" lon="8.966233">
        <ele>481.6</ele>
        <time>2000-01-01T00:49:27Z</time>
      </trkpt>
      <trkpt lat="48.621712" lon="8.967179">
        <ele>486.6</ele>
        <time>2000-01-01T00:50:07Z</time>
      </trkpt>
      <trkpt lat="48.621101" lon="8.965557">
        <ele>487.2</ele>
        <time>2000-01-01T00:50:32Z</time>
      </trkpt>
      <trkpt lat="48.618404" lon="8.966814">
        <ele>499.9</ele>
        <time>2000-01-01T00:51:38Z</time>
      </trkpt>
      <trkpt lat="48.61504" lon="8.966512">
        <ele>504.2</ele>
        <time>2000-01-01T00:52:47Z</time>
      </trkpt>
      <trkpt lat="48.612766" lon="8.971234">
        <ele>518.2</ele>
        <time>2000-01-01T00:54:57Z</time>
      </trkpt>
      <trkpt lat="48.612846" lon="8.974588">
        <ele>523.3</ele>
        <time>2000-01-01T00:55:41Z</time>
      </trkpt>
      <trkpt lat="48.609074" lon="8.975916">
        <ele>519.4</ele>
        <time>2000-01-01T00:56:44Z</time>
      </trkpt>
      <trkpt lat="48.608574" lon="8.977689">
        <ele>520.5</ele>
        <time>2000-01-01T00:57:08Z</time>
      </trkpt>
      <trkpt lat="48.606037" lon="8.980212">
        <ele>525.5</ele>
        <time>2000-01-01T00:58:03Z</time>
      </trkpt>
      <trkpt lat="48.604717" lon="8.983114">
        <ele>533.6</ele>
        <time>2000-01-01T00:58:51Z</time>
      </trkpt>
      <trkpt lat="48.603802" lon="8.987924">
        <ele>549.9</ele>
        <time>2000-01-01T00:59:56Z</time>
      </trkpt>
      <trkpt lat="48.599697" lon="8.990433">
        <ele>564.9</ele>
        <time>2000-01-01T01:01:50Z</time>
      </trkpt>
      <trkpt lat="48.595844" lon="8.99158">
        <ele>569.9</ele>
        <time>2000-01-01T01:03:26Z</time>
      </trkpt>
      <trkpt lat="48.594051" lon="8.993704">
        <ele>557.1</ele>
        <time>2000-01-01T01:03:56Z</time>
      </trkpt>
      <trkpt lat="48.592796" lon="8.993759">
        <ele>548.7</ele>
        <time>2000-01-01T01:04:11Z</time>
      </trkpt>
      <trkpt lat="48.591255" lon="8.994767">
        <ele>539.7</ele>
        <time>2000-01-01T01:04:35Z</time>
      </trkpt>
      <trkpt lat="48.590744" lon="9.001984">
        <ele>533.5</ele>
        <time>2000-01-01T01:07:00Z</time>
      </trkpt>
      <trkpt lat="48.591511" lon="9.008541">
        <ele>524.3</ele>
        <time>2000-01-01T01:08:16Z</time>
      </trkpt>
      <trkpt lat="48.591045" lon="9.009727">
        <ele>522.3</ele>
        <time>2000-01-01T01:08:31Z</time>
      </trkpt>
      <trkpt lat="48.589691" lon="9.01053">
        <ele>519.1</ele>
        <time>2000-01-01T01:08:55Z</time>
      </trkpt>
      <trkpt lat="48.58744" lon="9.016453">
        <ele>512.4</ele>
        <time>2000-01-01T01:10:22Z</time>
      </trkpt>
      <trkpt lat="48.585743" lon="9.018034">
        <ele>510.6</ele>
        <time>2000-01-01T01:10:54Z</time>
      </trkpt>
      <trkpt lat="48.582119" lon="9.023085">
        <ele>507</ele>
        <time>2000-01-01T01:12:21Z</time>
      </trkpt>
      <trkpt lat="48.581009" lon="9.027374">
        <ele>496.3</ele>
        <time>2000-01-01T01:13:04Z</time>
      </trkpt>
      <trkpt lat="48.581394" lon="9.031143">
        <ele>485.9</ele>
        <time>2000-01-01T01:13:40Z</time>
      </trkpt>
      <trkpt lat="48.580929" lon="9.033535">
        <ele>473.4</ele>
        <time>2000-01-01T01:14:05Z</time>
      </trkpt>
      <trkpt lat="48.580376" lon="9.034207">
        <ele>467.1</ele>
        <time>2000-01-01T01:14:42Z</time>
      </trkpt>
      <trkpt lat="48.580971" lon="9.033508">
        <ele>470</ele>
        <time>2000-01-01T01:18:13Z</time>
      </trkpt>
      <trkpt lat="48.581436" lon="9.031037">
        <ele>479.7</ele>
        <time>2000-01-01T01:19:00Z</time>
      </trkpt>
      <trkpt lat="48.580177" lon="9.027938">
        <ele>475</ele>
        <time>2000-01-01T01:19:50Z</time>
      </trkpt>
      <trkpt lat="48.580006" lon="9.025242">
        <ele>460.5</ele>
        <time>2000-01-01T01:20:17Z</time>
      </trkpt>
      <trkpt lat="48.580551" lon="9.022509">
        <ele>444</ele>
        <time>2000-01-01T01:20:51Z</time>
      </trkpt>
      <trkpt lat="48.579307" lon="9.02549">
        <ele>423.6</ele>
        <time>2000-01-01T01:21:37Z</time>
      </trkpt>
      <trkpt lat="48.57843" lon="9.030941">
        <ele>394.2</ele>
        <time>2000-01-01T01:22:35Z</time>
      </trkpt>
      <trkpt lat="48.576614" lon="9.034179">
        <ele>387.7</ele>
        <time>2000-01-01T01:23:32Z</time>
      </trkpt>
      <trkpt lat="48.568714" lon="9.030809">
        <ele>433.1</ele>
        <time>2000-01-01T01:26:39Z</time>
      </trkpt>
      <trkpt lat="48.567024" lon="9.029137">
        <ele>446.4</ele>
        <time>2000-01-01T01:27:28Z</time>
      </trkpt>
      <trkpt lat="48.566379" lon="9.020662">
        <ele>476.2</ele>
        <time>2000-01-01T01:29:25Z</time>
      </trkpt>
      <trkpt lat="48.567886" lon="9.018326">
        <ele>486.3</ele>
        <time>2000-01-01T01:30:09Z</time>
      </trkpt>
      <trkpt lat="48.571407" lon="9.015529">
        <ele>515.2</ele>
        <time>2000-01-01T01:31:35Z</time>
      </trkpt>
      <trkpt lat="48.571976" lon="9.013424">
        <ele>523.2</ele>
        <time>2000-01-01T01:32:37Z</time>
      </trkpt>
      <trkpt lat="48.571392" lon="9.015494">
        <ele>516.4</ele>
        <time>2000-01-01T01:35:24Z</time>
      </trkpt>
      <trkpt lat="48.56765" lon="9.018466">
        <ele>485.4</ele>
        <time>2000-01-01T01:36:30Z</time>
      </trkpt>
      <trkpt lat="48.565575" lon="9.021875">
        <ele>468.2</ele>
        <time>2000-01-01T01:37:11Z</time>
      </trkpt>
      <trkpt lat="48.564804" lon="9.021267">
        <ele>463.2</ele>
        <time>2000-01-01T01:37:25Z</time>
      </trkpt>
      <trkpt lat="48.563179" lon="9.021747">
        <ele>461.7</ele>
        <time>2000-01-01T01:38:31Z</time>
      </trkpt>
      <trkpt lat="48.559677" lon="9.023689">
        <ele>450.1</ele>
        <time>2000-01-01T01:40:03Z</time>
      </trkpt>
      <trkpt lat="48.557609" lon="9.023506">
        <ele>441.2</ele>
        <time>2000-01-01T01:40:56Z</time>
      </trkpt>
      <trkpt lat="48.557533" lon="9.022165">
        <ele>441.6</ele>
        <time>2000-01-01T01:41:14Z</time>
      </trkpt>
      <trkpt lat="48.56039" lon="9.021259">
        <ele>458.6</ele>
        <time>2000-01-01T01:43:02Z</time>
      </trkpt>
      <trkpt lat="48.562202" lon="9.021958">
        <ele>464.6</ele>
        <time>2000-01-01T01:43:43Z</time>
      </trkpt>
      <trkpt lat="48.564819" lon="9.021451">
        <ele>462.4</ele>
        <time>2000-01-01T01:44:32Z</time>
      </trkpt>
      <trkpt lat="48.564365" lon="9.023346">
        <ele>461.4</ele>
        <time>2000-01-01T01:45:36Z</time>
      </trkpt>
      <trkpt lat="48.564934" lon="9.021594">
        <ele>459.3</ele>
        <time>2000-01-01T01:46:02Z</time>
      </trkpt>
      <trkpt lat="48.564697" lon="9.020015">
        <ele>453.5</ele>
        <time>2000-01-01T01:46:17Z</time>
      </trkpt>
      <trkpt lat="48.565109" lon="9.018495">
        <ele>447.3</ele>
        <time>2000-01-01T01:46:31Z</time>
      </trkpt>
      <trkpt lat="48.563564" lon="9.019668">
        <ele>435.9</ele>
        <time>2000-01-01T01:46:56Z</time>
      </trkpt>
      <trkpt lat="48.560661" lon="9.015476">
        <ele>410.7</ele>
        <time>2000-01-01T01:47:37Z</time>
      </trkpt>
      <trkpt lat="48.558815" lon="9.014573">
        <ele>403.5</ele>
        <time>2000-01-01T01:48:00Z</time>
      </trkpt>
      <trkpt lat="48.557392" lon="9.01538">
        <ele>400.6</ele>
        <time>2000-01-01T01:48:50Z</time>
      </trkpt>
      <trkpt lat="48.55579" lon="9.020504">
        <ele>394.9</ele>
        <time>2000-01-01T01:50:31Z</time>
      </trkpt>
      <trkpt lat="48.555534" lon="9.026979">
        <ele>389.5</ele>
        <time>2000-01-01T01:52:23Z</time>
      </trkpt>
      <trkpt lat="48.556354" lon="9.032815">
        <ele>382.2</ele>
        <time>2000-01-01T01:53:28Z</time>
      </trkpt>
      <trkpt lat="48.557587" lon="9.035915">
        <ele>376.7</ele>
        <time>2000-01-01T01:54:04Z</time>
      </trkpt>
      <trkpt lat="48.558514" lon="9.042931">
        <ele>368.8</ele>
        <time>2000-01-01T01:55:21Z</time>
      </trkpt>
      <trkpt lat="48.558304" lon="9.049436">
        <ele>362.7</ele>
        <time>2000-01-01T01:57:04Z</time>
      </trkpt>
      <trkpt lat="48.555138" lon="9.046242">
        <ele>386.7</ele>
        <time>2000-01-01T01:58:42Z</time>
      </trkpt>
      <trkpt lat="48.554066" lon="9.042864">
        <ele>400</ele>
        <time>2000-01-01T01:59:35Z</time>
      </trkpt>
      <trkpt lat="48.550743" lon="9.035332">
        <ele>439.8</ele>
        <time>2000-01-01T02:02:27Z</time>
      </trkpt>
      <trkpt lat="48.550156" lon="9.034818">
        <ele>444.6</ele>
        <time>2000-01-01T02:02:45Z</time>
      </trkpt>
      <trkpt lat="48.54929" lon="9.034272">
        <ele>451.4</ele>
        <time>2000-01-01T02:03:13Z</time>
      </trkpt>
      <trkpt lat="48.549225" lon="9.035354">
        <ele>455.1</ele>
        <time>2000-01-01T02:04:09Z</time>
      </trkpt>
      <trkpt lat="48.54919" lon="9.034218">
        <ele>458.6</ele>
        <time>2000-01-01T02:04:33Z</time>
      </trkpt>
      <trkpt lat="48.547542" lon="9.0331">
        <ele>472.9</ele>
        <time>2000-01-01T02:05:20Z</time>
      </trkpt>
      <trkpt lat="48.544258" lon="9.034039">
        <ele>482.7</ele>
        <time>2000-01-01T02:06:43Z</time>
      </trkpt>
      <trkpt lat="48.543507" lon="9.033543">
        <ele>482.6</ele>
        <time>2000-01-01T02:07:06Z</time>
      </trkpt>
      <trkpt lat="48.544372" lon="9.03405">
        <ele>482.5</ele>
        <time>2000-01-01T02:07:33Z</time>
      </trkpt>
      <trkpt lat="48.547295" lon="9.03326">
        <ele>480.1</ele>
        <time>2000-01-01T02:08:30Z</time>
      </trkpt>
      <trkpt lat="48.544269" lon="9.034004">
        <ele>481.2</ele>
        <time>2000-01-01T02:09:49Z</time>
      </trkpt>
      <trkpt lat="48.541325" lon="9.031901">
        <ele>482.9</ele>
        <time>2000-01-01T02:11:00Z</time>
      </trkpt>
      <trkpt lat="48.541145" lon="9.032238">
        <ele>482.2</ele>
        <time>2000-01-01T02:11:14Z</time>
      </trkpt>
      <trkpt lat="48.540249" lon="9.030609">
        <ele>476.7</ele>
        <time>2000-01-01T02:12:10Z</time>
      </trkpt>
      <trkpt lat="48.539074" lon="9.030681">
        <ele>462.9</ele>
        <time>2000-01-01T02:12:34Z</time>
      </trkpt>
      <trkpt lat="48.538654" lon="9.030092">
        <ele>455.5</ele>
        <time>2000-01-01T02:12:48Z</time>
      </trkpt>
      <trkpt lat="48.538498" lon="9.032183">
        <ele>450.9</ele>
        <time>2000-01-01T02:14:34Z</time>
      </trkpt>
      <trkpt lat="48.537414" lon="9.032126">
        <ele>450.1</ele>
        <time>2000-01-01T02:14:52Z</time>
      </trkpt>
      <trkpt lat="48.536617" lon="9.032818">
        <ele>450.6</ele>
        <time>2000-01-01T02:15:10Z</time>
      </trkpt>
      <trkpt lat="48.533848" lon="9.02936">
        <ele>461.1</ele>
        <time>2000-01-01T02:16:26Z</time>
      </trkpt>
      <trkpt lat="48.531368" lon="9.028149">
        <ele>462.4</ele>
        <time>2000-01-01T02:17:09Z</time>
      </trkpt>
      <trkpt lat="48.530533" lon="9.02847">
        <ele>460.5</ele>
        <time>2000-01-01T02:17:27Z</time>
      </trkpt>
      <trkpt lat="48.530159" lon="9.027612">
        <ele>457.1</ele>
        <time>2000-01-01T02:17:42Z</time>
      </trkpt>
      <trkpt lat="48.529098" lon="9.027817">
        <ele>450.2</ele>
        <time>2000-01-01T02:18:01Z</time>
      </trkpt>
      <trkpt lat="48.528404" lon="9.02906">
        <ele>444.6</ele>
        <time>2000-01-01T02:18:17Z</time>
      </trkpt>
      <trkpt lat="48.528484" lon="9.031984">
        <ele>434.2</ele>
        <time>2000-01-01T02:19:08Z</time>
      </trkpt>
      <trkpt lat="48.526016" lon="9.037026">
        <ele>376.4</ele>
        <time>2000-01-01T02:21:00Z</time>
      </trkpt>
      <trkpt lat="48.525738" lon="9.039782">
        <ele>358.7</ele>
        <time>2000-01-01T02:21:29Z</time>
      </trkpt>
      <trkpt lat="48.52602" lon="9.040631">
        <ele>353.2</ele>
        <time>2000-01-01T02:22:09Z</time>
      </trkpt>
      <trkpt lat="48.523884" lon="9.045708">
        <ele>339.7</ele>
        <time>2000-01-01T02:23:22Z</time>
      </trkpt>
      <trkpt lat="48.523987" lon="9.047005">
        <ele>339.7</ele>
        <time>2000-01-01T02:23:52Z</time>
      </trkpt>
    </trkseg>
    <trkseg>
      <trkpt lat="48.523929" lon="9.047099">
        <ele>337.8</ele>
        <time>2000-01-01T00:00:00Z</time>
      </trkpt>
      <trkpt lat="48.522259" lon="9.047102">
        <ele>337.2</ele>
        <time>2000-01-01T00:01:36Z</time>
      </trkpt>
      <trkpt lat="48.522324" lon="9.048442">
        <ele>336.6</ele>
        <time>2000-01-01T00:01:59Z</time>
      </trkpt>
      <trkpt lat="48.520355" lon="9.049109">
        <ele>337.9</ele>
        <time>2000-01-01T00:02:48Z</time>
      </trkpt>
      <trkpt lat="48.517933" lon="9.04795">
        <ele>335</ele>
        <time>2000-01-01T00:03:36Z</time>
      </trkpt>
      <trkpt lat="48.515407" lon="9.049889">
        <ele>329.3</ele>
        <time>2000-01-01T00:04:46Z</time>
      </trkpt>
      <trkpt lat="48.516468" lon="9.054007">
        <ele>328.1</ele>
        <time>2000-01-01T00:05:44Z</time>
      </trkpt>
      <trkpt lat="48.516498" lon="9.058323">
        <ele>326.9</ele>
        <time>2000-01-01T00:06:59Z</time>
      </trkpt>
      <trkpt lat="48.517506" lon="9.060076">
        <ele>326.6</ele>
        <time>2000-01-01T00:07:41Z</time>
      </trkpt>
      <trkpt lat="48.517979" lon="9.058538">
        <ele>326.6</ele>
        <time>2000-01-01T00:11:20Z</time>
      </trkpt>
    </trkseg>
    <trkseg>
      <trkpt lat="48.518009" lon="9.058453">
        <ele>317</ele>
        <time>2000-01-01T00:00:00Z</time>
      </trkpt>
      <trkpt lat="48.518398" lon="9.057883">
        <ele>317</ele>
        <time>2000-01-01T00:00:26Z</time>
      </trkpt>
      <trkpt lat="48.521419" lon="9.057561">
        <ele>324.6</ele>
        <time>2000-01-01T00:03:54Z</time>
      </trkpt>
      <trkpt lat="48.526359" lon="9.061982">
        <ele>323.6</ele>
        <time>2000-01-01T00:05:40Z</time>
      </trkpt>
      <trkpt lat="48.527412" lon="9.059141">
        <ele>333.1</ele>
        <time>2000-01-01T00:06:36Z</time>
      </trkpt>
      <trkpt lat="48.527935" lon="9.059438">
        <ele>337.5</ele>
        <time>2000-01-01T00:06:51Z</time>
      </trkpt>
      <trkpt lat="48.5284" lon="9.058332">
        <ele>344.4</ele>
        <time>2000-01-01T00:07:34Z</time>
      </trkpt>
      <trkpt lat="48.529587" lon="9.058391">
        <ele>352.9</ele>
        <time>2000-01-01T00:08:02Z</time>
      </trkpt>
      <trkpt lat="48.530456" lon="9.052853">
        <ele>393.5</ele>
        <time>2000-01-01T00:09:36Z</time>
      </trkpt>
      <trkpt lat="48.533874" lon="9.053359">
        <ele>425.6</ele>
        <time>2000-01-01T00:11:06Z</time>
      </trkpt>
      <trkpt lat="48.535911" lon="9.052477">
        <ele>444.6</ele>
        <time>2000-01-01T00:11:57Z</time>
      </trkpt>
      <trkpt lat="48.538238" lon="9.0545">
        <ele>465.7</ele>
        <time>2000-01-01T00:13:03Z</time>
      </trkpt>
      <trkpt lat="48.547188" lon="9.056057">
        <ele>475.4</ele>
        <time>2000-01-01T00:16:00Z</time>
      </trkpt>
      <trkpt lat="48.552444" lon="9.056456">
        <ele>464.6</ele>
        <time>2000-01-01T00:17:20Z</time>
      </trkpt>
      <trkpt lat="48.554272" lon="9.055985">
        <ele>446.7</ele>
        <time>2000-01-01T00:17:42Z</time>
      </trkpt>
      <trkpt lat="48.555843" lon="9.056581">
        <ele>427.2</ele>
        <time>2000-01-01T00:18:03Z</time>
      </trkpt>
      <trkpt lat="48.556198" lon="9.061227">
        <ele>389.4</ele>
        <time>2000-01-01T00:18:42Z</time>
      </trkpt>
      <trkpt lat="48.557426" lon="9.060059">
        <ele>371.7</ele>
        <time>2000-01-01T00:19:42Z</time>
      </trkpt>
      <trkpt lat="48.558895" lon="9.060404">
        <ele>359.2</ele>
        <time>2000-01-01T00:20:00Z</time>
      </trkpt>
      <trkpt lat="48.560577" lon="9.062634">
        <ele>357.5</ele>
        <time>2000-01-01T00:20:44Z</time>
      </trkpt>
      <trkpt lat="48.562729" lon="9.062588">
        <ele>362.7</ele>
        <time>2000-01-01T00:21:26Z</time>
      </trkpt>
      <trkpt lat="48.564648" lon="9.06418">
        <ele>367.6</ele>
        <time>2000-01-01T00:22:08Z</time>
      </trkpt>
      <trkpt lat="48.566143" lon="9.062253">
        <ele>378.4</ele>
        <time>2000-01-01T00:24:32Z</time>
      </trkpt>
      <trkpt lat="48.565956" lon="9.064552">
        <ele>392.6</ele>
        <time>2000-01-01T00:25:39Z</time>
      </trkpt>
      <trkpt lat="48.567036" lon="9.062912">
        <ele>403.7</ele>
        <time>2000-01-01T00:26:11Z</time>
      </trkpt>
      <trkpt lat="48.56818" lon="9.062862">
        <ele>411.8</ele>
        <time>2000-01-01T00:26:35Z</time>
      </trkpt>
      <trkpt lat="48.570904" lon="9.060063">
        <ele>431.8</ele>
        <time>2000-01-01T00:27:55Z</time>
      </trkpt>
      <trkpt lat="48.576595" lon="9.059896">
        <ele>419.7</ele>
        <time>2000-01-01T00:29:12Z</time>
      </trkpt>
      <trkpt lat="48.603897" lon="9.054441">
        <ele>496.4</ele>
        <time>2000-01-01T00:40:37Z</time>
      </trkpt>
      <trkpt lat="48.606151" lon="9.053176">
        <ele>499.1</ele>
        <time>2000-01-01T00:41:55Z</time>
      </trkpt>
      <trkpt lat="48.607143" lon="9.050571">
        <ele>501.7</ele>
        <time>2000-01-01T00:43:02Z</time>
      </trkpt>
      <trkpt lat="48.6087" lon="9.048747">
        <ele>504.2</ele>
        <time>2000-01-01T00:43:44Z</time>
      </trkpt>
      <trkpt lat="48.610111" lon="9.048166">
        <ele>504.6</ele>
        <time>2000-01-01T00:44:12Z</time>
      </trkpt>
      <trkpt lat="48.610203" lon="9.040793">
        <ele>507.4</ele>
        <time>2000-01-01T00:47:28Z</time>
      </trkpt>
      <trkpt lat="48.612625" lon="9.039316">
        <ele>503.5</ele>
        <time>2000-01-01T00:48:27Z</time>
      </trkpt>
      <trkpt lat="48.611931" lon="9.035441">
        <ele>501.1</ele>
        <time>2000-01-01T00:49:13Z</time>
      </trkpt>
      <trkpt lat="48.612335" lon="9.033049">
        <ele>497.6</ele>
        <time>2000-01-01T00:49:39Z</time>
      </trkpt>
      <trkpt lat="48.613064" lon="9.032644">
        <ele>495.1</ele>
        <time>2000-01-01T00:49:52Z</time>
      </trkpt>
      <trkpt lat="48.613209" lon="9.03073">
        <ele>491.3</ele>
        <time>2000-01-01T00:50:13Z</time>
      </trkpt>
      <trkpt lat="48.612125" lon="9.028417">
        <ele>487.9</ele>
        <time>2000-01-01T00:50:42Z</time>
      </trkpt>
      <trkpt lat="48.613556" lon="9.026101">
        <ele>492.4</ele>
        <time>2000-01-01T00:51:20Z</time>
      </trkpt>
      <trkpt lat="48.615372" lon="9.025029">
        <ele>498.1</ele>
        <time>2000-01-01T00:51:56Z</time>
      </trkpt>
      <trkpt lat="48.615841" lon="9.025679">
        <ele>499.2</ele>
        <time>2000-01-01T00:52:18Z</time>
      </trkpt>
      <trkpt lat="48.615814" lon="9.024653">
        <ele>500.4</ele>
        <time>2000-01-01T00:52:36Z</time>
      </trkpt>
      <trkpt lat="48.621857" lon="9.02222">
        <ele>502.2</ele>
        <time>2000-01-01T00:54:24Z</time>
      </trkpt>
      <trkpt lat="48.626461" lon="9.022427">
        <ele>499.8</ele>
        <time>2000-01-01T00:55:46Z</time>
      </trkpt>
      <trkpt lat="48.627396" lon="9.021454">
        <ele>496</ele>
        <time>2000-01-01T00:56:01Z</time>
      </trkpt>
      <trkpt lat="48.628906" lon="9.017836">
        <ele>490.4</ele>
        <time>2000-01-01T00:57:33Z</time>
      </trkpt>
      <trkpt lat="48.633171" lon="9.010473">
        <ele>480.1</ele>
        <time>2000-01-01T00:59:41Z</time>
      </trkpt>
      <trkpt lat="48.636051" lon="9.007697">
        <ele>480.2</ele>
        <time>2000-01-01T01:00:47Z</time>
      </trkpt>
      <trkpt lat="48.63974" lon="9.007202">
        <ele>481.6</ele>
        <time>2000-01-01T01:02:04Z</time>
      </trkpt>
      <trkpt lat="48.640232" lon="9.005073">
        <ele>484.7</ele>
        <time>2000-01-01T01:02:35Z</time>
      </trkpt>
      <trkpt lat="48.642212" lon="9.005052">
        <ele>488.2</ele>
        <time>2000-01-01T01:03:12Z</time>
      </trkpt>
      <trkpt lat="48.642403" lon="9.00573">
        <ele>488.6</ele>
        <time>2000-01-01T01:03:23Z</time>
      </trkpt>
      <trkpt lat="48.645134" lon="9.006521">
        <ele>486.9</ele>
        <time>2000-01-01T01:04:10Z</time>
      </trkpt>
      <trkpt lat="48.645786" lon="9.00725">
        <ele>485.1</ele>
        <time>2000-01-01T01:04:30Z</time>
      </trkpt>
      <trkpt lat="48.647274" lon="9.006945">
        <ele>483.3</ele>
        <time>2000-01-01T01:11:18Z</time>
      </trkpt>
      <trkpt lat="48.647915" lon="9.008215">
        <ele>485.2</ele>
        <time>2000-01-01T01:11:42Z</time>
      </trkpt>
      <trkpt lat="48.650772" lon="9.008933">
        <ele>488.5</ele>
        <time>2000-01-01T01:12:40Z</time>
      </trkpt>
      <trkpt lat="48.654266" lon="9.005608">
        <ele>493.1</ele>
        <time>2000-01-01T01:13:56Z</time>
      </trkpt>
      <trkpt lat="48.655132" lon="9.003022">
        <ele>497</ele>
        <time>2000-01-01T01:14:30Z</time>
      </trkpt>
      <trkpt lat="48.655041" lon="9.001515">
        <ele>499</ele>
        <time>2000-01-01T01:14:50Z</time>
      </trkpt>
      <trkpt lat="48.656418" lon="9.003896">
        <ele>504.7</ele>
        <time>2000-01-01T01:15:35Z</time>
      </trkpt>
      <trkpt lat="48.658958" lon="9.003994">
        <ele>514.2</ele>
        <time>2000-01-01T01:16:26Z</time>
      </trkpt>
      <trkpt lat="48.657791" lon="8.990971">
        <ele>517.4</ele>
        <time>2000-01-01T01:19:00Z</time>
      </trkpt>
      <trkpt lat="48.65683" lon="8.991188">
        <ele>511.9</ele>
        <time>2000-01-01T01:19:26Z</time>
      </trkpt>
      <trkpt lat="48.656254" lon="8.989041">
        <ele>498.7</ele>
        <time>2000-01-01T01:20:05Z</time>
      </trkpt>
      <trkpt lat="48.655342" lon="8.988811">
        <ele>489.3</ele>
        <time>2000-01-01T01:20:22Z</time>
      </trkpt>
      <trkpt lat="48.653049" lon="8.985216">
        <ele>475.5</ele>
        <time>2000-01-01T01:21:36Z</time>
      </trkpt>
      <trkpt lat="48.656166" lon="8.98343">
        <ele>477.6</ele>
        <time>2000-01-01T01:22:47Z</time>
      </trkpt>
      <trkpt lat="48.659397" lon="8.98276">
        <ele>466.8</ele>
        <time>2000-01-01T01:23:35Z</time>
      </trkpt>
      <trkpt lat="48.661384" lon="8.982816">
        <ele>468</ele>
        <time>2000-01-01T01:24:10Z</time>
      </trkpt>
      <trkpt lat="48.662701" lon="8.984095">
        <ele>477.7</ele>
        <time>2000-01-01T01:24:42Z</time>
      </trkpt>
      <trkpt lat="48.664635" lon="8.984796">
        <ele>490</ele>
        <time>2000-01-01T01:25:26Z</time>
      </trkpt>
      <trkpt lat="48.667499" lon="8.983387">
        <ele>481.4</ele>
        <time>2000-01-01T01:26:24Z</time>
      </trkpt>
      <trkpt lat="48.667854" lon="8.982115">
        <ele>475.6</ele>
        <time>2000-01-01T01:26:36Z</time>
      </trkpt>
      <trkpt lat="48.670139" lon="8.980043">
        <ele>473.3</ele>
        <time>2000-01-01T01:27:22Z</time>
      </trkpt>
      <trkpt lat="48.670967" lon="8.976259">
        <ele>470.2</ele>
        <time>2000-01-01T01:28:07Z</time>
      </trkpt>
      <trkpt lat="48.673862" lon="8.975158">
        <ele>461.5</ele>
        <time>2000-01-01T01:29:18Z</time>
      </trkpt>
      <trkpt lat="48.671238" lon="8.97024">
        <ele>465.8</ele>
        <time>2000-01-01T01:30:37Z</time>
      </trkpt>
      <trkpt lat="48.67149" lon="8.968303">
        <ele>467.9</ele>
        <time>2000-01-01T01:31:05Z</time>
      </trkpt>
      <trkpt lat="48.67559" lon="8.971687">
        <ele>445.9</ele>
        <time>2000-01-01T01:32:24Z</time>
      </trkpt>
      <trkpt lat="48.675697" lon="8.972471">
        <ele>442.3</ele>
        <time>2000-01-01T01:32:40Z</time>
      </trkpt>
      <trkpt lat="48.681278" lon="8.966404">
        <ele>428.5</ele>
        <time>2000-01-01T01:35:06Z</time>
      </trkpt>
      <trkpt lat="48.683426" lon="8.965029">
        <ele>429.3</ele>
        <time>2000-01-01T01:35:47Z</time>
      </trkpt>
      <trkpt lat="48.688251" lon="8.963511">
        <ele>431</ele>
        <time>2000-01-01T01:37:21Z</time>
      </trkpt>
      <trkpt lat="48.689091" lon="8.963739">
        <ele>427.2</ele>
        <time>2000-01-01T01:38:04Z</time>
      </trkpt>
      <trkpt lat="48.689209" lon="8.964922">
        <ele>423.6</ele>
        <time>2000-01-01T01:38:18Z</time>
      </trkpt>
      <trkpt lat="48.691727" lon="8.964633">
        <ele>426.8</ele>
        <time>2000-01-01T01:39:06Z</time>
      </trkpt>
      <trkpt lat="48.695965" lon="8.965356">
        <ele>445.1</ele>
        <time>2000-01-01T01:40:34Z</time>
      </trkpt>
      <trkpt lat="48.696278" lon="8.966289">
        <ele>446.3</ele>
        <time>2000-01-01T01:40:49Z</time>
      </trkpt>
      <trkpt lat="48.699024" lon="8.965547">
        <ele>448.9</ele>
        <time>2000-01-01T01:41:44Z</time>
      </trkpt>
      <trkpt lat="48.699253" lon="8.96756">
        <ele>450.6</ele>
        <time>2000-01-01T01:42:10Z</time>
      </trkpt>
      <trkpt lat="48.700771" lon="8.969907">
        <ele>449.4</ele>
        <time>2000-01-01T01:42:49Z</time>
      </trkpt>
      <trkpt lat="48.700893" lon="8.971945">
        <ele>448.7</ele>
        <time>2000-01-01T01:43:12Z</time>
      </trkpt>
      <trkpt lat="48.703476" lon="8.971408">
        <ele>440.6</ele>
        <time>2000-01-01T01:43:57Z</time>
      </trkpt>
      <trkpt lat="48.704162" lon="8.971843">
        <ele>437.6</ele>
        <time>2000-01-01T01:44:09Z</time>
      </trkpt>
      <trkpt lat="48.704704" lon="8.971053">
        <ele>438.5</ele>
        <time>2000-01-01T01:44:27Z</time>
      </trkpt>
      <trkpt lat="48.708733" lon="8.969771">
        <ele>444.3</ele>
        <time>2000-01-01T01:45:47Z</time>
      </trkpt>
      <trkpt lat="48.715557" lon="8.970497">
        <ele>450.2</ele>
        <time>2000-01-01T01:48:03Z</time>
      </trkpt>
      <trkpt lat="48.716377" lon="8.968406">
        <ele>446.9</ele>
        <time>2000-01-01T01:48:50Z</time>
      </trkpt>
      <trkpt lat="48.718422" lon="8.968731">
        <ele>443.9</ele>
        <time>2000-01-01T01:49:35Z</time>
      </trkpt>
      <trkpt lat="48.7211" lon="8.966915">
        <ele>451.6</ele>
        <time>2000-01-01T01:50:54Z</time>
      </trkpt>
      <trkpt lat="48.722805" lon="8.964921">
        <ele>457</ele>
        <time>2000-01-01T01:51:36Z</time>
      </trkpt>
      <trkpt lat="48.725216" lon="8.965019">
        <ele>458.4</ele>
        <time>2000-01-01T01:52:21Z</time>
      </trkpt>
      <trkpt lat="48.725704" lon="8.963496">
        <ele>458.4</ele>
        <time>2000-01-01T01:53:21Z</time>
      </trkpt>
    </trkseg>
  </trk>
</gpx>